{
  "type": "FeatureCollection",
  "name": "representative_restack_interface",
  "features": [
    {
      "type": "Feature",
      "id": "BLDG-001",
      "properties": {
        "id": "BLDG-001",
        "source_type": "agent_generated_design",
        "confidence": "low",
        "geometry_role": "design_proposal",
        "usage_note": "概念性机器复核图层，不是法定用地、道路、建筑或工程控制线。",
        "layer": "BUILDING_FOOTPRINT",
        "building_type": "mixed_use",
        "name_zh": "代表性新栈建筑首层接入基底"
      },
      "geometry": {
        "type": "Polygon",
        "coordinates": [
          [
            [
              116.33874389943665,
              39.98971328804355
            ],
            [
              116.33875345160993,
              39.98872267043133
            ],
            [
              116.33746560079983,
              39.988715315907655
            ],
            [
              116.33745603002598,
              39.9897059332633
            ],
            [
              116.33874389943665,
              39.98971328804355
            ]
          ]
        ]
      }
    }
  ]
}
