{
  "type": "FeatureCollection",
  "name": "conceptual_green_corridor",
  "features": [
    {
      "type": "Feature",
      "id": "GREEN-001",
      "properties": {
        "id": "GREEN-001",
        "source_type": "agent_generated_design",
        "confidence": "low",
        "geometry_role": "design_proposal",
        "usage_note": "概念性机器复核图层，不是法定用地、道路、建筑或工程控制线。",
        "layer": "GREEN_SPACE",
        "land_use_code": "1401",
        "name_zh": "京张遗址公共绿廊概念范围"
      },
      "geometry": {
        "type": "MultiPolygon",
        "coordinates": [
          [
            [
              [
                116.33086450016795,
                40.00233505476419
              ],
              [
                116.33072825179046,
                40.00581640273808
              ],
              [
                116.33069855306478,
                40.00597622756193
              ],
              [
                116.33066204046337,
                40.006135221753404
              ],
              [
                116.330618753117,
                40.00629321492392
              ],
              [
                116.33056873741697,
                40.00645003775885
              ],
              [
                116.33052683424441,
                40.00656496532162
              ],
              [
                116.33052710031546,
                40.00656501443629
              ],
              [
                116.33052928759389,
                40.00656559901841
              ],
              [
                116.33053138911983,
                40.00656634683134
              ],
              [
                116.33053338435275,
                40.006567250565894
              ],
              [
                116.33053525379103,
                40.006568301388846
              ],
              [
                116.33053697916259,
                40.00656948902936
              ],
              [
                116.33053854360341,
                40.006570801879306
              ],
              [
                116.33053993182253,
                40.00657222710675
              ],
              [
                116.33054113025129,
                40.00657375078135
              ],
              [
                116.33054212717613,
                40.006575358010544
              ],
              [
                116.33054291285295,
                40.00657703308512
              ],
              [
                116.33054347960245,
                40.00657875963271
              ],
              [
                116.33054382188517,
                40.00658052077783
              ],
              [
                116.33054393635558,
                40.00658229930686
              ],
              [
                116.33054395389061,
                40.02183691683131
              ],
              [
                116.33054383723263,
                40.02183871206037
              ],
              [
                116.3305437442899,
                40.02183918564614
              ],
              [
                116.33067510428832,
                40.02185202193186
              ],
              [
                116.33098907497416,
                40.02187823206035
              ],
              [
                116.33098889376961,
                40.000054783950326
              ],
              [
                116.33086450016795,
                40.00233505476419
              ]
            ]
          ],
          [
            [
              [
                116.32934017344158,
                40.00830825271543
              ],
              [
                116.32920473254532,
                40.008431935304394
              ],
              [
                116.32906407870922,
                40.00855215569668
              ],
              [
                116.3289980308683,
                40.00861063516956
              ],
              [
                116.32899774933242,
                40.02164253813106
              ],
              [
                116.32926069863473,
                40.021683413627315
              ],
              [
                116.3294428677242,
                40.02170907798399
              ],
              [
                116.32944307122627,
                40.00820778384211
              ],
              [
                116.32934017344158,
                40.00830825271543
              ]
            ]
          ],
          [
            [
              [
                116.33081767728038,
                39.991577601644664
              ],
              [
                116.33098880401576,
                39.99212513874711
              ],
              [
                116.3309887872738,
                39.99075962684953
              ],
              [
                116.33081767728038,
                39.991577601644664
              ]
            ]
          ]
        ]
      }
    }
  ]
}
