{
  "type": "FeatureCollection",
  "name": "user_confirmed_key_design_areas",
  "features": [
    {
      "type": "Feature",
      "id": "KEY-001",
      "properties": {
        "id": "KEY-001",
        "layer": "KEY_AREA",
        "scope_id": "zhongzhiyuan_ai_acceleration_area",
        "name_zh": "众智园AI自主创新加速区",
        "name_en": "Zhongzhiyuan AI Innovation Acceleration Area",
        "source_type": "user_provided_cleared",
        "confidence": "medium",
        "geometry_role": "provisional_constraint",
        "official_boundary": false,
        "boundary_precision": "user_confirmed_project_working_boundary",
        "source_id": "USER-CONFIRMED-BOUNDARY-20260826",
        "derived_from_source_ids": [
          "OFFICIAL-ANNOUNCEMENT"
        ],
        "area_sqm_calculated": 1013005.221,
        "derivation_method": "以卫星图和街道图为底图，按公告文字四至沿道路中线建立统筹研究与总体设计范围；重点片区以公告重点要素为锚点，兼顾主导功能、京张铁路遗址和完整用地，沿道路或地理要素手工校准。",
        "usage_note": "用户确认的项目工作边界，用于本方案空间研究与表达；不是组织方正式红线、法定规划边界或审批依据。",
        "parent_scope_id": "key_detailed_design_area",
        "area_id": "zhongzhiyuan_ai_acceleration_area"
      },
      "geometry": {
        "type": "Polygon",
        "coordinates": [
          [
            [
              116.34562408618731,
              40.02175781425249
            ],
            [
              116.34563304957724,
              40.01940338443488
            ],
            [
              116.34563725638773,
              40.01829824298903
            ],
            [
              116.34588120737786,
              40.01776482518755
            ],
            [
              116.34593355041281,
              40.01752738831435
            ],
            [
              116.3459858934478,
              40.01645428684782
            ],
            [
              116.34603939351285,
              40.0153574533358
            ],
            [
              116.34594965540924,
              40.01464416016278
            ],
            [
              116.34597784094962,
              40.01410142157268
            ],
            [
              116.345913418269,
              40.01389789357465
            ],
            [
              116.34599797219512,
              40.01257802913453
            ],
            [
              116.34607137353699,
              40.01143223337492
            ],
            [
              116.34633030338016,
              40.00617072757153
            ],
            [
              116.33550931929453,
              40.006329108285065
            ],
            [
              116.33925378935119,
              40.01394887023228
            ],
            [
              116.34011886517318,
              40.01559752313735
            ],
            [
              116.34205188066281,
              40.02181008660163
            ],
            [
              116.34562408618731,
              40.02175781425249
            ]
          ]
        ]
      }
    },
    {
      "type": "Feature",
      "id": "KEY-002",
      "properties": {
        "id": "KEY-002",
        "layer": "KEY_AREA",
        "scope_id": "beijing_ai_origin_community",
        "name_zh": "北京AI原点社区",
        "name_en": "Beijing AI Origin Community",
        "source_type": "user_provided_cleared",
        "confidence": "medium",
        "geometry_role": "provisional_constraint",
        "official_boundary": false,
        "boundary_precision": "user_confirmed_project_working_boundary",
        "source_id": "USER-CONFIRMED-BOUNDARY-20260826",
        "derived_from_source_ids": [
          "OFFICIAL-ANNOUNCEMENT"
        ],
        "area_sqm_calculated": 708439.874,
        "derivation_method": "以卫星图和街道图为底图，按公告文字四至沿道路中线建立统筹研究与总体设计范围；重点片区以公告重点要素为锚点，兼顾主导功能、京张铁路遗址和完整用地，沿道路或地理要素手工校准。",
        "usage_note": "用户确认的项目工作边界，用于本方案空间研究与表达；不是组织方正式红线、法定规划边界或审批依据。",
        "parent_scope_id": "key_detailed_design_area",
        "area_id": "beijing_ai_origin_community"
      },
      "geometry": {
        "type": "Polygon",
        "coordinates": [
          [
            [
              116.33113821952996,
              39.99731708936263
            ],
            [
              116.33103795137455,
              39.99915530027216
            ],
            [
              116.33391768068087,
              39.999274420996564
            ],
            [
              116.33913853550027,
              39.99940862863369
            ],
            [
              116.33932441759379,
              39.99510262751746
            ],
            [
              116.33706370926492,
              39.995045352149546
            ],
            [
              116.33720868387707,
              39.9916868071357
            ],
            [
              116.33430378647147,
              39.99161320743712
            ],
            [
              116.33458696239845,
              39.98505255763132
            ],
            [
              116.33188970967244,
              39.98498421215554
            ],
            [
              116.33157942798007,
              39.98681571663261
            ],
            [
              116.33144798738599,
              39.988564363495335
            ],
            [
              116.33081767728038,
              39.991577601644664
            ],
            [
              116.33125916959813,
              39.992990182442384
            ],
            [
              116.33128964013082,
              39.993076850786885
            ],
            [
              116.33128983161902,
              39.99307753321045
            ],
            [
              116.33129006400378,
              39.99307819523425
            ],
            [
              116.33129808717142,
              39.99310695425847
            ],
            [
              116.33131426344137,
              39.99316460307372
            ],
            [
              116.33131455450308,
              39.99316598136741
            ],
            [
              116.33131492850131,
              39.99316732196314
            ],
            [
              116.33132208259656,
              39.99320162990315
            ],
            [
              116.33133297460363,
              39.993253207916126
            ],
            [
              116.33133327213652,
              39.99325529008696
            ],
            [
              116.33133369549319,
              39.99325732032201
            ],
            [
              116.33133876764688,
              39.99329374832611
            ],
            [
              116.33134572428042,
              39.993342431680226
            ],
            [
              116.33134593448116,
              39.99334522024204
            ],
            [
              116.33134631395878,
              39.99334794563506
            ],
            [
              116.3313489533721,
              39.993385269408144
            ],
            [
              116.33135247885382,
              39.993432039101016
            ],
            [
              116.33135250770837,
              39.9934355310473
            ],
            [
              116.33135274959307,
              39.99343895152301
            ],
            [
              116.33135284667162,
              39.993476551993716
            ],
            [
              116.33135322051342,
              39.99352179390287
            ],
            [
              116.3313529701704,
              39.99352438554721
            ],
            [
              116.3313529848999,
              39.9935300905729
            ],
            [
              116.33134701923956,
              39.99362111501076
            ],
            [
              116.3313348688305,
              39.993711777375154
            ],
            [
              116.33113821952996,
              39.99731708936263
            ]
          ]
        ]
      }
    },
    {
      "type": "Feature",
      "id": "KEY-003",
      "properties": {
        "id": "KEY-003",
        "layer": "KEY_AREA",
        "scope_id": "dazhongsi_ai_industry_cluster",
        "name_zh": "大钟寺AI产业集聚区",
        "name_en": "Dazhongsi AI Industry Cluster",
        "source_type": "user_provided_cleared",
        "confidence": "medium",
        "geometry_role": "provisional_constraint",
        "official_boundary": false,
        "boundary_precision": "user_confirmed_project_working_boundary",
        "source_id": "USER-CONFIRMED-BOUNDARY-20260826",
        "derived_from_source_ids": [
          "OFFICIAL-ANNOUNCEMENT"
        ],
        "area_sqm_calculated": 419640.544,
        "derivation_method": "以卫星图和街道图为底图，按公告文字四至沿道路中线建立统筹研究与总体设计范围；重点片区以公告重点要素为锚点，兼顾主导功能、京张铁路遗址和完整用地，沿道路或地理要素手工校准。",
        "usage_note": "用户确认的项目工作边界，用于本方案空间研究与表达；不是组织方正式红线、法定规划边界或审批依据。",
        "parent_scope_id": "key_detailed_design_area",
        "area_id": "dazhongsi_ai_industry_cluster"
      },
      "geometry": {
        "type": "Polygon",
        "coordinates": [
          [
            [
              116.33798800921697,
              39.96958336937633
            ],
            [
              116.33876646858094,
              39.96821069299799
            ],
            [
              116.33958609234449,
              39.96820158936256
            ],
            [
              116.3422768798954,
              39.96820158936256
            ],
            [
              116.34227167236169,
              39.96628772602421
            ],
            [
              116.34209968900223,
              39.96626462170427
            ],
            [
              116.34127998349199,
              39.966262607184575
            ],
            [
              116.34170320946673,
              39.96441201924206
            ],
            [
              116.33945103333645,
              39.964394862998695
            ],
            [
              116.33864363294897,
              39.96428639396539
            ],
            [
              116.33310227899914,
              39.96354194207335
            ],
            [
              116.33260332684259,
              39.966298699162046
            ],
            [
              116.33313654972724,
              39.9663241477745
            ],
            [
              116.33266978600395,
              39.9693576945456
            ],
            [
              116.33798800921697,
              39.96958336937633
            ]
          ]
        ]
      }
    }
  ]
}
