{
  "type": "FeatureCollection",
  "name": "conceptual_phasing",
  "features": [
    {
      "type": "Feature",
      "id": "PHASE-001",
      "properties": {
        "id": "PHASE-001",
        "source_type": "agent_generated_design",
        "confidence": "low",
        "geometry_role": "design_proposal",
        "usage_note": "概念性机器复核图层，不是法定用地、道路、建筑或工程控制线。",
        "layer": "PHASE",
        "phase": "initial_pilot",
        "implementation_round": "round_1_parallel",
        "key_area": "zhongzhiyuan",
        "name_zh": "众智园首轮并行试点"
      },
      "geometry": {
        "type": "Polygon",
        "coordinates": [
          [
            [
              116.34562408618731,
              40.02175781425249
            ],
            [
              116.34563304957724,
              40.01940338443488
            ],
            [
              116.34563725638773,
              40.01829824298903
            ],
            [
              116.34588120737786,
              40.01776482518755
            ],
            [
              116.34593355041281,
              40.01752738831435
            ],
            [
              116.3459858934478,
              40.01645428684782
            ],
            [
              116.34603939351285,
              40.0153574533358
            ],
            [
              116.34594965540924,
              40.01464416016278
            ],
            [
              116.34597784094962,
              40.01410142157268
            ],
            [
              116.345913418269,
              40.01389789357465
            ],
            [
              116.34599797219512,
              40.01257802913453
            ],
            [
              116.34607137353699,
              40.01143223337492
            ],
            [
              116.34633030338016,
              40.00617072757153
            ],
            [
              116.33550931929453,
              40.006329108285065
            ],
            [
              116.33925378935119,
              40.01394887023228
            ],
            [
              116.34011886517318,
              40.01559752313735
            ],
            [
              116.34205188066281,
              40.02181008660163
            ],
            [
              116.34562408618731,
              40.02175781425249
            ]
          ]
        ]
      }
    },
    {
      "type": "Feature",
      "id": "PHASE-002",
      "properties": {
        "id": "PHASE-002",
        "source_type": "agent_generated_design",
        "confidence": "low",
        "geometry_role": "design_proposal",
        "usage_note": "概念性机器复核图层，不是法定用地、道路、建筑或工程控制线。",
        "layer": "PHASE",
        "phase": "initial_pilot",
        "implementation_round": "round_1_parallel",
        "key_area": "ai_origin_community",
        "name_zh": "AI原点社区首轮并行试点"
      },
      "geometry": {
        "type": "Polygon",
        "coordinates": [
          [
            [
              116.33113821952996,
              39.99731708936263
            ],
            [
              116.33103795137455,
              39.99915530027216
            ],
            [
              116.33391768068087,
              39.999274420996564
            ],
            [
              116.33913853550027,
              39.99940862863369
            ],
            [
              116.33932441759379,
              39.99510262751746
            ],
            [
              116.33706370926492,
              39.995045352149546
            ],
            [
              116.33720868387707,
              39.9916868071357
            ],
            [
              116.33430378647147,
              39.99161320743712
            ],
            [
              116.33458696239845,
              39.98505255763132
            ],
            [
              116.33188970967244,
              39.98498421215554
            ],
            [
              116.33157942798007,
              39.98681571663261
            ],
            [
              116.33144798738599,
              39.988564363495335
            ],
            [
              116.33081767728038,
              39.991577601644664
            ],
            [
              116.33125916959813,
              39.992990182442384
            ],
            [
              116.33128964013082,
              39.993076850786885
            ],
            [
              116.33128983161902,
              39.99307753321045
            ],
            [
              116.33129006400378,
              39.99307819523425
            ],
            [
              116.33129808717142,
              39.99310695425847
            ],
            [
              116.33131426344137,
              39.99316460307372
            ],
            [
              116.33131455450308,
              39.99316598136741
            ],
            [
              116.33131492850131,
              39.99316732196314
            ],
            [
              116.33132208259656,
              39.99320162990315
            ],
            [
              116.33133297460363,
              39.993253207916126
            ],
            [
              116.33133327213652,
              39.99325529008696
            ],
            [
              116.33133369549319,
              39.99325732032201
            ],
            [
              116.33133876764688,
              39.99329374832611
            ],
            [
              116.33134572428042,
              39.993342431680226
            ],
            [
              116.33134593448116,
              39.99334522024204
            ],
            [
              116.33134631395878,
              39.99334794563506
            ],
            [
              116.3313489533721,
              39.993385269408144
            ],
            [
              116.33135247885382,
              39.993432039101016
            ],
            [
              116.33135250770837,
              39.9934355310473
            ],
            [
              116.33135274959307,
              39.99343895152301
            ],
            [
              116.33135284667162,
              39.993476551993716
            ],
            [
              116.33135322051342,
              39.99352179390287
            ],
            [
              116.3313529701704,
              39.99352438554721
            ],
            [
              116.3313529848999,
              39.9935300905729
            ],
            [
              116.33134701923956,
              39.99362111501076
            ],
            [
              116.3313348688305,
              39.993711777375154
            ],
            [
              116.33113821952996,
              39.99731708936263
            ]
          ]
        ]
      }
    },
    {
      "type": "Feature",
      "id": "PHASE-003",
      "properties": {
        "id": "PHASE-003",
        "source_type": "agent_generated_design",
        "confidence": "low",
        "geometry_role": "design_proposal",
        "usage_note": "概念性机器复核图层，不是法定用地、道路、建筑或工程控制线。",
        "layer": "PHASE",
        "phase": "initial_pilot",
        "implementation_round": "round_1_parallel",
        "key_area": "dazhongsi",
        "name_zh": "大钟寺首轮并行试点"
      },
      "geometry": {
        "type": "Polygon",
        "coordinates": [
          [
            [
              116.33798800921697,
              39.96958336937633
            ],
            [
              116.33876646858094,
              39.96821069299799
            ],
            [
              116.33958609234449,
              39.96820158936256
            ],
            [
              116.3422768798954,
              39.96820158936256
            ],
            [
              116.34227167236169,
              39.96628772602421
            ],
            [
              116.34209968900223,
              39.96626462170427
            ],
            [
              116.34127998349199,
              39.966262607184575
            ],
            [
              116.34170320946673,
              39.96441201924206
            ],
            [
              116.33945103333645,
              39.964394862998695
            ],
            [
              116.33864363294897,
              39.96428639396539
            ],
            [
              116.33310227899914,
              39.96354194207335
            ],
            [
              116.33260332684259,
              39.966298699162046
            ],
            [
              116.33313654972724,
              39.9663241477745
            ],
            [
              116.33266978600395,
              39.9693576945456
            ],
            [
              116.33798800921697,
              39.96958336937633
            ]
          ]
        ]
      }
    }
  ]
}
