{
  "type": "FeatureCollection",
  "name": "conceptual_public_spine",
  "features": [
    {
      "type": "Feature",
      "id": "PUBLIC-001",
      "properties": {
        "id": "PUBLIC-001",
        "source_type": "agent_generated_design",
        "confidence": "low",
        "geometry_role": "design_proposal",
        "usage_note": "概念性机器复核图层，不是法定用地、道路、建筑或工程控制线。",
        "layer": "PUBLIC_SPACE",
        "name_zh": "开放创新主脊公共界面概念范围"
      },
      "geometry": {
        "type": "Polygon",
        "coordinates": [
          [
            [
              116.33052051415967,
              40.006582299341865
            ],
            [
              116.3305120469654,
              40.006605522198925
            ],
            [
              116.33044874251772,
              40.00675950162029
            ],
            [
              116.33037889191775,
              40.00691181101306
            ],
            [
              116.33030257002467,
              40.007062287158135
            ],
            [
              116.33021985863314,
              40.00721076880204
            ],
            [
              116.33013084638542,
              40.00735709682968
            ],
            [
              116.33003562867643,
              40.00750111443483
            ],
            [
              116.32993430755153,
              40.00764266728811
            ],
            [
              116.32982699159712,
              40.007781603702334
            ],
            [
              116.32971379582432,
              40.00791777479501
            ],
            [
              116.32959484154567,
              40.00805103464776
            ],
            [
              116.32947025624519,
              40.008181240462704
            ],
            [
              116.32946649428004,
              40.00818491363698
            ],
            [
              116.3294662950358,
              40.021712378449784
            ],
            [
              116.32961272640689,
              40.02173300775029
            ],
            [
              116.32996588249887,
              40.021777650231805
            ],
            [
              116.33032004815702,
              40.021817326069936
            ],
            [
              116.33052052647909,
              40.02183691682341
            ],
            [
              116.33052051415967,
              40.006582299341865
            ]
          ]
        ]
      }
    }
  ]
}
