{
  "type": "FeatureCollection",
  "name": "user_confirmed_overall_design_area",
  "features": [
    {
      "type": "Feature",
      "id": "SITE-001",
      "properties": {
        "id": "SITE-001",
        "layer": "SITE_BOUNDARY",
        "scope_id": "overall_design_area",
        "name_zh": "总体设计范围",
        "name_en": "Overall Design Area",
        "source_type": "user_provided_cleared",
        "confidence": "medium",
        "geometry_role": "provisional_constraint",
        "official_boundary": false,
        "boundary_precision": "user_confirmed_project_working_boundary",
        "source_id": "USER-CONFIRMED-BOUNDARY-20260826",
        "derived_from_source_ids": [
          "OFFICIAL-ANNOUNCEMENT"
        ],
        "area_sqm_calculated": 11956912.816,
        "derivation_method": "以卫星图和街道图为底图，按公告文字四至沿道路中线建立统筹研究与总体设计范围；重点片区以公告重点要素为锚点，兼顾主导功能、京张铁路遗址和完整用地，沿道路或地理要素手工校准。",
        "usage_note": "用户确认的项目工作边界，用于本方案空间研究与表达；不是组织方正式红线、法定规划边界或审批依据。"
      },
      "geometry": {
        "type": "Polygon",
        "coordinates": [
          [
            [
              116.34809499220783,
              39.97357720001204
            ],
            [
              116.34820797960934,
              39.97205587950261
            ],
            [
              116.34846753882749,
              39.96637947745777
            ],
            [
              116.3490639923284,
              39.953333586548574
            ],
            [
              116.34906259007398,
              39.95305404741068
            ],
            [
              116.34906830065073,
              39.95277453934162
            ],
            [
              116.34908112188597,
              39.952495168684635
            ],
            [
              116.34910104890172,
              39.952216041732015
            ],
            [
              116.34912807411652,
              39.95193726468463
            ],
            [
              116.34916218724827,
              39.9516589436115
            ],
            [
              116.34920337531824,
              39.95138118440944
            ],
            [
              116.34925162265594,
              39.951104092762804
            ],
            [
              116.34930691090507,
              39.9508277741032
            ],
            [
              116.34936921903059,
              39.95055233356941
            ],
            [
              116.34943852332657,
              39.95027787596737
            ],
            [
              116.34957996943419,
              39.9498261042448
            ],
            [
              116.34971605666578,
              39.94937336321473
            ],
            [
              116.34984677379256,
              39.94891969021472
            ],
            [
              116.34997211002887,
              39.94846512265995
            ],
            [
              116.35000853005816,
              39.94825375420841
            ],
            [
              116.35003856843086,
              39.94804179629413
            ],
            [
              116.35006220910127,
              39.94782936213484
            ],
            [
              116.35007943944107,
              39.947616565203695
            ],
            [
              116.35009025024634,
              39.94740351916874
            ],
            [
              116.3500946357421,
              39.9471903378321
            ],
            [
              116.35012159687871,
              39.94228441262244
            ],
            [
              116.35002582620598,
              39.94221363919319
            ],
            [
              116.34993501467005,
              39.94213912215545
            ],
            [
              116.34984941086115,
              39.942061065482484
            ],
            [
              116.3497692491136,
              39.941979682837136
            ],
            [
              116.34969474886455,
              39.941895196987204
            ],
            [
              116.34962611405312,
              39.941807839195654
            ],
            [
              116.34956353256224,
              39.941717848587736
            ],
            [
              116.34950717570437,
              39.94162547149647
            ],
            [
              116.34945719775237,
              39.94153096078846
            ],
            [
              116.34941373551737,
              39.94143457517179
            ],
            [
              116.34937690797416,
              39.941336578487906
            ],
            [
              116.34934681593553,
              39.94123723898945
            ],
            [
              116.34932354177627,
              39.94113682860602
            ],
            [
              116.3493071492078,
              39.941035622199834
            ],
            [
              116.34932566079088,
              39.93902571848689
            ],
            [
              116.34581797227005,
              39.938746949830396
            ],
            [
              116.34538067867797,
              39.941981579112486
            ],
            [
              116.34499830628569,
              39.9425027550704
            ],
            [
              116.34399988993285,
              39.94297506832182
            ],
            [
              116.34249164372362,
              39.948593712102586
            ],
            [
              116.34006995190596,
              39.95663815453992
            ],
            [
              116.33860419151812,
              39.95963422401552
            ],
            [
              116.33822181912586,
              39.95999244023946
            ],
            [
              116.33597007059366,
              39.96179977842479
            ],
            [
              116.33435561028021,
              39.9628418257743
            ],
            [
              116.33310227899914,
              39.96354194207335
            ],
            [
              116.33260332684259,
              39.966298699162046
            ],
            [
              116.33313654972724,
              39.9663241477745
            ],
            [
              116.33266978600395,
              39.9693576945456
            ],
            [
              116.33223432497503,
              39.97084016637575
            ],
            [
              116.33205365939834,
              39.973063591132075
            ],
            [
              116.33173626035394,
              39.9769695881963
            ],
            [
              116.33184828296481,
              39.977842326426455
            ],
            [
              116.33231504668814,
              39.978829508367795
            ],
            [
              116.33283782126773,
              39.979387474341415
            ],
            [
              116.33157942798007,
              39.98681571663261
            ],
            [
              116.33144798738599,
              39.988564363495335
            ],
            [
              116.33081767728038,
              39.991577601644664
            ],
            [
              116.33125916959813,
              39.992990182442384
            ],
            [
              116.33129006400378,
              39.99307819523425
            ],
            [
              116.33131492850131,
              39.99316732196314
            ],
            [
              116.33133369549319,
              39.99325732032201
            ],
            [
              116.33134631395878,
              39.99334794563506
            ],
            [
              116.33135274959307,
              39.99343895152301
            ],
            [
              116.3313529848999,
              39.9935300905729
            ],
            [
              116.33134701923956,
              39.99362111501076
            ],
            [
              116.3313348688305,
              39.993711777375154
            ],
            [
              116.33086450016795,
              40.00233505476419
            ],
            [
              116.33072825179046,
              40.00581640273808
            ],
            [
              116.33069855306478,
              40.00597622756194
            ],
            [
              116.33066204046337,
              40.006135221753404
            ],
            [
              116.330618753117,
              40.00629321492392
            ],
            [
              116.33056873741697,
              40.00645003775885
            ],
            [
              116.3305120469654,
              40.006605522198925
            ],
            [
              116.33044874251772,
              40.00675950162029
            ],
            [
              116.33037889191775,
              40.00691181101306
            ],
            [
              116.33030257002467,
              40.00706228715814
            ],
            [
              116.33021985863314,
              40.00721076880205
            ],
            [
              116.33013084638542,
              40.007357096829686
            ],
            [
              116.33003562867643,
              40.00750111443483
            ],
            [
              116.32993430755153,
              40.00764266728812
            ],
            [
              116.32982699159712,
              40.00778160370235
            ],
            [
              116.32971379582432,
              40.00791777479501
            ],
            [
              116.32959484154567,
              40.00805103464776
            ],
            [
              116.32947025624519,
              40.008181240462704
            ],
            [
              116.32934017344158,
              40.00830825271543
            ],
            [
              116.32920473254532,
              40.00843193530439
            ],
            [
              116.32906407870922,
              40.00855215569669
            ],
            [
              116.32463875573573,
              40.01247007691872
            ],
            [
              116.32458424014477,
              40.01252229250741
            ],
            [
              116.32452506344977,
              40.01257144127472
            ],
            [
              116.32446151889395,
              40.01261727967651
            ],
            [
              116.32439392136507,
              40.012659580572766
            ],
            [
              116.32432260583477,
              40.01269813435308
            ],
            [
              116.32424792569893,
              40.01273274997514
            ],
            [
              116.32417025102632,
              40.01276325591136
            ],
            [
              116.32408996672474,
              40.01278950099872
            ],
            [
              116.3240074706338,
              40.01281135518772
            ],
            [
              116.3239231715533,
              40.0128287101867
            ],
            [
              116.32383748721752,
              40.01284147999845
            ],
            [
              116.32375084222532,
              40.01284960134623
            ],
            [
              116.32366366593585,
              40.0128530339873
            ],
            [
              116.3235935632803,
              40.01285603611789
            ],
            [
              116.32352337650325,
              40.01285459040952
            ],
            [
              116.3234535858637,
              40.012848706754255
            ],
            [
              116.3233846689101,
              40.01283842541041
            ],
            [
              116.32331709721264,
              40.012823816726964
            ],
            [
              116.32325133313641,
              40.01280498066236
            ],
            [
              116.32318782667778,
              40.01278204610055
            ],
            [
              116.32312701238514,
              40.01275516996919
            ],
            [
              116.32245117835585,
              40.01232554224212
            ],
            [
              116.3223936785789,
              40.01228090621924
            ],
            [
              116.32233210351973,
              40.01223958171126
            ],
            [
              116.32226677748908,
              40.01220178637721
            ],
            [
              116.32219804455393,
              40.01216771928809
            ],
            [
              116.32212626672505,
              40.012137559878184
            ],
            [
              116.32205182205047,
              40.01211146699995
            ],
            [
              116.32197510262428,
              40.01208957808719
            ],
            [
              116.32189651252143,
              40.01207200843113
            ],
            [
              116.32181646566964,
              40.012058850573105
            ],
            [
              116.32173538366922,
              40.01205017381703
            ],
            [
              116.32165369357247,
              40.01204602386441
            ],
            [
              116.31747112593153,
              40.011973555899004
            ],
            [
              116.31720420349741,
              40.01197649945205
            ],
            [
              116.31693727380642,
              40.01197397123503
            ],
            [
              116.31667052803623,
              40.01196597305809
            ],
            [
              116.31640415723285,
              40.01195251064766
            ],
            [
              116.3161383521737,
              40.011933593642446
            ],
            [
              116.31587330323102,
              40.01190923558646
            ],
            [
              116.31560920023551,
              40.01187945391936
            ],
            [
              116.31534623234039,
              40.01184426996401
            ],
            [
              116.31508458788588,
              40.01180370891115
            ],
            [
              116.31229167985347,
              40.0114364881783
            ],
            [
              116.31204333430497,
              40.013550686021645
            ],
            [
              116.31202121825515,
              40.013708533748705
            ],
            [
              116.31199203749809,
              40.01386570630538
            ],
            [
              116.31195582645877,
              40.014022018278325
            ],
            [
              116.31191262785583,
              40.01417728527066
            ],
            [
              116.31186249265133,
              40.01433132411951
            ],
            [
              116.31180547999035,
              40.01448395311204
            ],
            [
              116.31174165713163,
              40.014634992199746
            ],
            [
              116.31167109936784,
              40.014784263210856
            ],
            [
              116.31159388993697,
              40.01493159006046
            ],
            [
              116.31151011992402,
              40.01507679895817
            ],
            [
              116.3114198881537,
              40.01521971861309
            ],
            [
              116.3113233010736,
              40.015360180435806
            ],
            [
              116.31122047262893,
              40.01549801873723
            ],
            [
              116.31111152412781,
              40.015633070924004
            ],
            [
              116.31099658409826,
              40.01576517769018
            ],
            [
              116.30986522067663,
              40.016876294669174
            ],
            [
              116.31055453353002,
              40.01697386775184
            ],
            [
              116.31124270791307,
              40.01707604550809
            ],
            [
              116.31192969138019,
              40.017182820130344
            ],
            [
              116.31261543157666,
              40.01729418345978
            ],
            [
              116.31329987624247,
              40.017410126987016
            ],
            [
              116.31398297321634,
              40.01753064185269
            ],
            [
              116.31466467043967,
              40.01765571884821
            ],
            [
              116.3153449159606,
              40.01778534841646
            ],
            [
              116.31602365793783,
              40.0179195206525
            ],
            [
              116.31650312827229,
              40.01801181382896
            ],
            [
              116.31698081586855,
              40.01810937822466
            ],
            [
              116.31745662192152,
              40.018212193636764
            ],
            [
              116.31793044801525,
              40.018320238775196
            ],
            [
              116.31840219614328,
              40.018433491267054
            ],
            [
              116.31887176872905,
              40.01855192766129
            ],
            [
              116.31933906864592,
              40.01867552343351
            ],
            [
              116.31980399923737,
              40.01880425299116
            ],
            [
              116.32026646433691,
              40.01893808967878
            ],
            [
              116.32072636828806,
              40.01907700578355
            ],
            [
              116.32118361596407,
              40.019220972541056
            ],
            [
              116.32199357614347,
              40.019499373096906
            ],
            [
              116.32280605241489,
              40.01977343894103
            ],
            [
              116.32362100524469,
              40.02004315679017
            ],
            [
              116.32443839497877,
              40.02030851357199
            ],
            [
              116.32525818184439,
              40.02056949642564
            ],
            [
              116.32608032595229,
              40.020826092702414
            ],
            [
              116.32690478729836,
              40.02107828996636
            ],
            [
              116.32773152576587,
              40.02132607599484
            ],
            [
              116.32856050112723,
              40.02156943877917
            ],
            [
              116.32890991755652,
              40.02162888452883
            ],
            [
              116.32926069863473,
              40.02168341362732
            ],
            [
              116.32961272640689,
              40.02173300775029
            ],
            [
              116.32996588249887,
              40.021777650231805
            ],
            [
              116.33032004815702,
              40.02181732606994
            ],
            [
              116.33067510428832,
              40.02185202193186
            ],
            [
              116.33103093150021,
              40.02188172615818
            ],
            [
              116.331387410141,
              40.02190642876698
            ],
            [
              116.33174442033976,
              40.02192612145709
            ],
            [
              116.33210184204694,
              40.021940797610945
            ],
            [
              116.33245955507462,
              40.0219504522967
            ],
            [
              116.34205188066281,
              40.02181008660163
            ],
            [
              116.34562408618731,
              40.02175781425249
            ],
            [
              116.34563304957724,
              40.01940338443488
            ],
            [
              116.34563725638773,
              40.01829824298903
            ],
            [
              116.34588120737786,
              40.01776482518755
            ],
            [
              116.34593355041281,
              40.01752738831435
            ],
            [
              116.3459858934478,
              40.01645428684782
            ],
            [
              116.34603939351285,
              40.0153574533358
            ],
            [
              116.34594965540924,
              40.01464416016278
            ],
            [
              116.34597784094962,
              40.01410142157268
            ],
            [
              116.345913418269,
              40.01389789357465
            ],
            [
              116.34599797219512,
              40.01257802913453
            ],
            [
              116.34607137353699,
              40.01143223337492
            ],
            [
              116.34682190607539,
              39.996181263235336
            ],
            [
              116.34809499220783,
              39.97357720001204
            ]
          ]
        ]
      }
    }
  ]
}
