{
  "type": "FeatureCollection",
  "name": "lived_line_green_space",
  "features": [
    {
      "type": "Feature",
      "id": "GREEN-001",
      "properties": {
        "id": "GREEN-001",
        "source_type": "agent_generated_design",
        "confidence": "medium",
        "geometry_role": "design_proposal",
        "layer": "GREEN_SPACE",
        "land_use_code": "1401",
        "name_zh": "连续安静绿段与生活实测主线",
        "name_en": "Continuous quiet green segments and the Lived Line",
        "sensor_free_route": true,
        "area_sqm_declared": 1920814.901
      },
      "geometry": {
        "type": "Polygon",
        "coordinates": [
          [
            [
              116.3474866,
              39.9518989
            ],
            [
              116.3475591,
              39.9570254
            ],
            [
              116.3474899,
              39.96215
            ],
            [
              116.3472822,
              39.9672758
            ],
            [
              116.3469614,
              39.9724059
            ],
            [
              116.3465716,
              39.9775428
            ],
            [
              116.3461678,
              39.9826875
            ],
            [
              116.345808,
              39.98784
            ],
            [
              116.3455428,
              39.9929992
            ],
            [
              116.3454079,
              39.9981625
            ],
            [
              116.3454172,
              40.003327
            ],
            [
              116.3455613,
              40.0084893
            ],
            [
              116.3458085,
              40.0136466
            ],
            [
              116.3461102,
              40.0187968
            ],
            [
              116.3464096,
              40.0239431
            ],
            [
              116.3488671,
              40.0238585
            ],
            [
              116.3485675,
              40.0187121
            ],
            [
              116.348266,
              40.0135692
            ],
            [
              116.3480198,
              40.0084342
            ],
            [
              116.3478764,
              40.0033054
            ],
            [
              116.3478669,
              39.9981802
            ],
            [
              116.3480007,
              39.9930555
            ],
            [
              116.348264,
              39.9879281
            ],
            [
              116.3486223,
              39.9827952
            ],
            [
              116.3490256,
              39.9776548
            ],
            [
              116.3494161,
              39.9725065
            ],
            [
              116.3497383,
              39.9673507
            ],
            [
              116.3499473,
              39.9621892
            ],
            [
              116.3500168,
              39.9570249
            ],
            [
              116.3499435,
              39.951861
            ],
            [
              116.3497475,
              39.9467006
            ],
            [
              116.3494689,
              39.9415484
            ],
            [
              116.347014,
              39.941627
            ],
            [
              116.3472918,
              39.9467675
            ],
            [
              116.3474866,
              39.9518989
            ]
          ]
        ]
      }
    }
  ]
}
