{
  "type": "FeatureCollection",
  "name": "lived_line_evidence_led_phasing",
  "features": [
    {
      "type": "Feature",
      "id": "PHASE-001",
      "properties": {
        "id": "PHASE-001",
        "source_type": "agent_generated_design",
        "confidence": "medium",
        "geometry_role": "design_proposal",
        "layer": "PHASE",
        "phase": "phase_1",
        "name_zh": "一期：基线与可逆修复",
        "name_en": "Phase 1: baseline and reversible repairs",
        "trigger": "Expand only after evidence, Human Review, and professional confirmation.",
        "area_sqm_declared": 4145970.725
      },
      "geometry": {
        "type": "Polygon",
        "coordinates": [
          [
            [
              116.3553,
              39.965
            ],
            [
              116.3553,
              39.939
            ],
            [
              116.3407,
              39.939
            ],
            [
              116.3398917,
              39.9681037
            ],
            [
              116.355045,
              39.968189
            ],
            [
              116.3553,
              39.965
            ]
          ]
        ]
      }
    },
    {
      "type": "Feature",
      "id": "PHASE-002",
      "properties": {
        "id": "PHASE-002",
        "source_type": "agent_generated_design",
        "confidence": "medium",
        "geometry_role": "design_proposal",
        "layer": "PHASE",
        "phase": "phase_2",
        "name_zh": "二期：公众协议与受控试验",
        "name_en": "Phase 2: civic protocols and controlled trials",
        "trigger": "Expand only after evidence, Human Review, and professional confirmation.",
        "area_sqm_declared": 3801720.759
      },
      "geometry": {
        "type": "Polygon",
        "coordinates": [
          [
            [
              116.3533,
              39.99
            ],
            [
              116.355045,
              39.968189
            ],
            [
              116.3398917,
              39.9681037
            ],
            [
              116.3397,
              39.975
            ],
            [
              116.3411386,
              39.997301
            ],
            [
              116.3537038,
              39.9973718
            ],
            [
              116.3533,
              39.99
            ]
          ]
        ]
      }
    },
    {
      "type": "Feature",
      "id": "PHASE-003",
      "properties": {
        "id": "PHASE-003",
        "source_type": "agent_generated_design",
        "confidence": "medium",
        "geometry_role": "design_proposal",
        "layer": "PHASE",
        "phase": "phase_3",
        "name_zh": "三期：条件式产业验证扩展",
        "name_en": "Phase 3: conditional expansion of industrial validation",
        "trigger": "Expand only after evidence, Human Review, and professional confirmation.",
        "area_sqm_declared": 3465133.902
      },
      "geometry": {
        "type": "Polygon",
        "coordinates": [
          [
            [
              116.3417,
              40.006
            ],
            [
              116.3427,
              40.0265
            ],
            [
              116.3553,
              40.0265
            ],
            [
              116.3537038,
              39.9973718
            ],
            [
              116.3411386,
              39.997301
            ],
            [
              116.3417,
              40.006
            ]
          ]
        ]
      }
    }
  ]
}
