{
  "type": "FeatureCollection",
  "name": "lived_line_public_space",
  "features": [
    {
      "type": "Feature",
      "id": "PUBLIC-001",
      "properties": {
        "id": "PUBLIC-001",
        "source_type": "agent_generated_design",
        "confidence": "medium",
        "geometry_role": "design_proposal",
        "layer": "PUBLIC_SPACE",
        "name_zh": "七处证据与人工服务公共界面",
        "name_en": "Seven public interfaces for evidence and human service",
        "non_ai_first": true,
        "area_sqm_declared": 216589.323
      },
      "geometry": {
        "type": "MultiPolygon",
        "coordinates": [
          [
            [
              [
                116.3403887,
                39.9502104
              ],
              [
                116.3403837,
                39.9503904
              ],
              [
                116.3403853,
                39.9503905
              ],
              [
                116.3552992,
                39.9504744
              ],
              [
                116.3553,
                39.9504743
              ],
              [
                116.3553,
                39.9502942
              ],
              [
                116.3403887,
                39.9502104
              ]
            ]
          ],
          [
            [
              [
                116.3552091,
                39.9660565
              ],
              [
                116.3399509,
                39.9659707
              ],
              [
                116.3399459,
                39.9661507
              ],
              [
                116.3399475,
                39.9661508
              ],
              [
                116.3552011,
                39.9662366
              ],
              [
                116.3552155,
                39.9660568
              ],
              [
                116.3552091,
                39.9660565
              ]
            ]
          ],
          [
            [
              [
                116.3479621,
                39.9823114
              ],
              [
                116.3479046,
                39.9822707
              ],
              [
                116.3478422,
                39.9822346
              ],
              [
                116.3477755,
                39.9822033
              ],
              [
                116.3477051,
                39.9821772
              ],
              [
                116.3476317,
                39.9821565
              ],
              [
                116.3475561,
                39.9821415
              ],
              [
                116.3474789,
                39.9821323
              ],
              [
                116.3474009,
                39.9821289
              ],
              [
                116.3473229,
                39.9821314
              ],
              [
                116.3472455,
                39.9821398
              ],
              [
                116.3471696,
                39.9821539
              ],
              [
                116.3470958,
                39.9821738
              ],
              [
                116.347025,
                39.9821991
              ],
              [
                116.3469577,
                39.9822296
              ],
              [
                116.3468946,
                39.982265
              ],
              [
                116.3468363,
                39.9823051
              ],
              [
                116.3467834,
                39.9823493
              ],
              [
                116.3467364,
                39.9823973
              ],
              [
                116.3466958,
                39.9824486
              ],
              [
                116.3466619,
                39.9825028
              ],
              [
                116.346635,
                39.9825592
              ],
              [
                116.3466155,
                39.9826174
              ],
              [
                116.3466095,
                39.9826468
              ],
              [
                116.3401976,
                39.9826105
              ],
              [
                116.3401909,
                39.9826108
              ],
              [
                116.3402025,
                39.9827907
              ],
              [
                116.3466078,
                39.9828269
              ],
              [
                116.3466132,
                39.9828563
              ],
              [
                116.3466316,
                39.9829147
              ],
              [
                116.3466574,
                39.9829715
              ],
              [
                116.3466903,
                39.983026
              ],
              [
                116.34673,
                39.9830778
              ],
              [
                116.346776,
                39.9831263
              ],
              [
                116.3468281,
                39.9831711
              ],
              [
                116.3468856,
                39.9832118
              ],
              [
                116.346948,
                39.9832479
              ],
              [
                116.3470147,
                39.9832792
              ],
              [
                116.3470851,
                39.9833053
              ],
              [
                116.3471584,
                39.983326
              ],
              [
                116.3472341,
                39.983341
              ],
              [
                116.3473113,
                39.9833503
              ],
              [
                116.3473893,
                39.9833536
              ],
              [
                116.3474673,
                39.9833511
              ],
              [
                116.3475447,
                39.9833427
              ],
              [
                116.3476206,
                39.9833286
              ],
              [
                116.3476943,
                39.9833087
              ],
              [
                116.3477652,
                39.9832834
              ],
              [
                116.3478325,
                39.9832529
              ],
              [
                116.3478956,
                39.9832175
              ],
              [
                116.3479539,
                39.9831774
              ],
              [
                116.3480068,
                39.9831332
              ],
              [
                116.3480538,
                39.9830852
              ],
              [
                116.3480944,
                39.9830339
              ],
              [
                116.3481283,
                39.9829797
              ],
              [
                116.3481552,
                39.9829233
              ],
              [
                116.3481747,
                39.9828651
              ],
              [
                116.3481807,
                39.9828358
              ],
              [
                116.3538708,
                39.9828676
              ],
              [
                116.3538851,
                39.9826878
              ],
              [
                116.3538788,
                39.9826875
              ],
              [
                116.3481824,
                39.9826557
              ],
              [
                116.348177,
                39.9826262
              ],
              [
                116.3481586,
                39.9825678
              ],
              [
                116.3481328,
                39.982511
              ],
              [
                116.3480999,
                39.9824565
              ],
              [
                116.3480602,
                39.9824048
              ],
              [
                116.3480141,
                39.9823562
              ],
              [
                116.3479621,
                39.9823114
              ]
            ]
          ],
          [
            [
              [
                116.3472636,
                39.9954793
              ],
              [
                116.3472061,
                39.9954386
              ],
              [
                116.3471437,
                39.9954025
              ],
              [
                116.347077,
                39.9953712
              ],
              [
                116.3470066,
                39.9953451
              ],
              [
                116.3469332,
                39.9953244
              ],
              [
                116.3468576,
                39.9953094
              ],
              [
                116.3467803,
                39.9953001
              ],
              [
                116.3467023,
                39.9952968
              ],
              [
                116.3466243,
                39.9952993
              ],
              [
                116.3465469,
                39.9953077
              ],
              [
                116.346471,
                39.9953218
              ],
              [
                116.3463972,
                39.9953417
              ],
              [
                116.3463263,
                39.995367
              ],
              [
                116.346259,
                39.9953975
              ],
              [
                116.3461959,
                39.9954329
              ],
              [
                116.3461376,
                39.9954729
              ],
              [
                116.3460847,
                39.9955172
              ],
              [
                116.3460377,
                39.9955652
              ],
              [
                116.3459971,
                39.9956165
              ],
              [
                116.3459631,
                39.9956706
              ],
              [
                116.3459363,
                39.9957271
              ],
              [
                116.3459167,
                39.9957853
              ],
              [
                116.3459047,
                39.9958447
              ],
              [
                116.3459003,
                39.9959047
              ],
              [
                116.3459035,
                39.9959647
              ],
              [
                116.3459144,
                39.9960242
              ],
              [
                116.3459329,
                39.9960826
              ],
              [
                116.3459587,
                39.9961393
              ],
              [
                116.3459915,
                39.9961939
              ],
              [
                116.3460312,
                39.9962456
              ],
              [
                116.3460773,
                39.9962942
              ],
              [
                116.3461294,
                39.996339
              ],
              [
                116.3461869,
                39.9963797
              ],
              [
                116.3462493,
                39.9964158
              ],
              [
                116.346316,
                39.9964471
              ],
              [
                116.3463864,
                39.9964732
              ],
              [
                116.3464598,
                39.9964939
              ],
              [
                116.3465354,
                39.9965089
              ],
              [
                116.3466126,
                39.9965181
              ],
              [
                116.3466907,
                39.9965215
              ],
              [
                116.3467687,
                39.996519
              ],
              [
                116.3468461,
                39.9965106
              ],
              [
                116.346922,
                39.9964965
              ],
              [
                116.3469958,
                39.9964766
              ],
              [
                116.3470667,
                39.9964513
              ],
              [
                116.347134,
                39.9964208
              ],
              [
                116.3471971,
                39.9963854
              ],
              [
                116.3472554,
                39.9963453
              ],
              [
                116.3473083,
                39.9963011
              ],
              [
                116.3473553,
                39.9962531
              ],
              [
                116.3473959,
                39.9962018
              ],
              [
                116.3474299,
                39.9961476
              ],
              [
                116.3474567,
                39.9960912
              ],
              [
                116.3474763,
                39.996033
              ],
              [
                116.3474883,
                39.9959736
              ],
              [
                116.3474927,
                39.9959136
              ],
              [
                116.3474894,
                39.9958536
              ],
              [
                116.3474785,
                39.9957941
              ],
              [
                116.3474601,
                39.9957357
              ],
              [
                116.3474343,
                39.9956789
              ],
              [
                116.3474014,
                39.9956244
              ],
              [
                116.3473618,
                39.9955727
              ],
              [
                116.3473157,
                39.9955241
              ],
              [
                116.3472636,
                39.9954793
              ]
            ]
          ],
          [
            [
              [
                116.3473878,
                40.0086571
              ],
              [
                116.3473302,
                40.0086164
              ],
              [
                116.3472678,
                40.0085803
              ],
              [
                116.3472011,
                40.008549
              ],
              [
                116.3471307,
                40.0085229
              ],
              [
                116.3470573,
                40.0085022
              ],
              [
                116.3469816,
                40.0084872
              ],
              [
                116.3469044,
                40.0084779
              ],
              [
                116.3468264,
                40.0084746
              ],
              [
                116.3467483,
                40.0084771
              ],
              [
                116.3466709,
                40.0084854
              ],
              [
                116.3465949,
                40.0084996
              ],
              [
                116.3465212,
                40.0085195
              ],
              [
                116.3464503,
                40.0085447
              ],
              [
                116.3463829,
                40.0085753
              ],
              [
                116.3463198,
                40.0086107
              ],
              [
                116.3462615,
                40.0086507
              ],
              [
                116.3462086,
                40.008695
              ],
              [
                116.3461616,
                40.008743
              ],
              [
                116.3461209,
                40.0087943
              ],
              [
                116.346087,
                40.0088484
              ],
              [
                116.3460601,
                40.0089049
              ],
              [
                116.3460406,
                40.0089631
              ],
              [
                116.3460286,
                40.0090224
              ],
              [
                116.3460242,
                40.0090824
              ],
              [
                116.3460274,
                40.0091425
              ],
              [
                116.3460383,
                40.009202
              ],
              [
                116.3460568,
                40.0092604
              ],
              [
                116.3460825,
                40.0093171
              ],
              [
                116.3461154,
                40.0093716
              ],
              [
                116.3461551,
                40.0094234
              ],
              [
                116.3462012,
                40.009472
              ],
              [
                116.3462533,
                40.0095168
              ],
              [
                116.3463108,
                40.0095575
              ],
              [
                116.3463732,
                40.0095936
              ],
              [
                116.34644,
                40.0096249
              ],
              [
                116.3465104,
                40.009651
              ],
              [
                116.3465838,
                40.0096716
              ],
              [
                116.3466594,
                40.0096867
              ],
              [
                116.3467367,
                40.0096959
              ],
              [
                116.3468147,
                40.0096993
              ],
              [
                116.3468928,
                40.0096968
              ],
              [
                116.3469702,
                40.0096884
              ],
              [
                116.3470461,
                40.0096742
              ],
              [
                116.3471199,
                40.0096544
              ],
              [
                116.3471908,
                40.0096291
              ],
              [
                116.3472581,
                40.0095986
              ],
              [
                116.3473212,
                40.0095632
              ],
              [
                116.3473795,
                40.0095231
              ],
              [
                116.3474324,
                40.0094789
              ],
              [
                116.3474794,
                40.0094309
              ],
              [
                116.3475201,
                40.0093796
              ],
              [
                116.347554,
                40.0093254
              ],
              [
                116.3475809,
                40.009269
              ],
              [
                116.3476004,
                40.0092108
              ],
              [
                116.3476125,
                40.0091514
              ],
              [
                116.3476169,
                40.0090914
              ],
              [
                116.3476136,
                40.0090314
              ],
              [
                116.3476027,
                40.0089719
              ],
              [
                116.3475843,
                40.0089135
              ],
              [
                116.3475585,
                40.0088567
              ],
              [
                116.3475256,
                40.0088022
              ],
              [
                116.3474859,
                40.0087504
              ],
              [
                116.3474398,
                40.0087019
              ],
              [
                116.3473878,
                40.0086571
              ]
            ]
          ],
          [
            [
              [
                116.3492078,
                39.9470127
              ],
              [
                116.3491617,
                39.9469642
              ],
              [
                116.3491097,
                39.9469193
              ],
              [
                116.3490522,
                39.9468787
              ],
              [
                116.3489899,
                39.9468425
              ],
              [
                116.3489232,
                39.9468112
              ],
              [
                116.3488528,
                39.9467852
              ],
              [
                116.3487795,
                39.9467645
              ],
              [
                116.3487039,
                39.9467495
              ],
              [
                116.3486268,
                39.9467402
              ],
              [
                116.3485488,
                39.9467368
              ],
              [
                116.3484708,
                39.9467393
              ],
              [
                116.3483935,
                39.9467477
              ],
              [
                116.3483176,
                39.9467619
              ],
              [
                116.3482439,
                39.9467817
              ],
              [
                116.3481731,
                39.946807
              ],
              [
                116.3481058,
                39.9468375
              ],
              [
                116.3480427,
                39.946873
              ],
              [
                116.3479845,
                39.946913
              ],
              [
                116.3479316,
                39.9469573
              ],
              [
                116.3478847,
                39.9470053
              ],
              [
                116.347844,
                39.9470566
              ],
              [
                116.3478101,
                39.9471107
              ],
              [
                116.3477833,
                39.9471672
              ],
              [
                116.3477638,
                39.9472254
              ],
              [
                116.3477518,
                39.9472847
              ],
              [
                116.3477474,
                39.9473447
              ],
              [
                116.3477506,
                39.9474048
              ],
              [
                116.3477615,
                39.9474643
              ],
              [
                116.3477799,
                39.9475227
              ],
              [
                116.3478057,
                39.9475794
              ],
              [
                116.3478386,
                39.9476339
              ],
              [
                116.3478782,
                39.9476857
              ],
              [
                116.3479243,
                39.9477342
              ],
              [
                116.3479763,
                39.9477791
              ],
              [
                116.3480338,
                39.9478198
              ],
              [
                116.3480961,
                39.9478559
              ],
              [
                116.3481628,
                39.9478872
              ],
              [
                116.3482331,
                39.9479133
              ],
              [
                116.3483065,
                39.9479339
              ],
              [
                116.3483821,
                39.947949
              ],
              [
                116.3484592,
                39.9479582
              ],
              [
                116.3485372,
                39.9479616
              ],
              [
                116.3486152,
                39.9479591
              ],
              [
                116.3486925,
                39.9479507
              ],
              [
                116.3487684,
                39.9479365
              ],
              [
                116.3488421,
                39.9479167
              ],
              [
                116.3489129,
                39.9478914
              ],
              [
                116.3489802,
                39.9478609
              ],
              [
                116.3490433,
                39.9478254
              ],
              [
                116.3491015,
                39.9477854
              ],
              [
                116.3491544,
                39.9477412
              ],
              [
                116.3492013,
                39.9476932
              ],
              [
                116.349242,
                39.9476418
              ],
              [
                116.3492759,
                39.9475877
              ],
              [
                116.3493027,
                39.9475313
              ],
              [
                116.3493222,
                39.9474731
              ],
              [
                116.3493342,
                39.9474137
              ],
              [
                116.3493386,
                39.9473537
              ],
              [
                116.3493354,
                39.9472936
              ],
              [
                116.3493245,
                39.9472341
              ],
              [
                116.3493061,
                39.9471757
              ],
              [
                116.3492803,
                39.947119
              ],
              [
                116.3492474,
                39.9470645
              ],
              [
                116.3492078,
                39.9470127
              ]
            ]
          ],
          [
            [
              [
                116.349346,
                39.9559784
              ],
              [
                116.3492885,
                39.9559377
              ],
              [
                116.3492262,
                39.9559015
              ],
              [
                116.3491595,
                39.9558703
              ],
              [
                116.3490891,
                39.9558442
              ],
              [
                116.3490158,
                39.9558235
              ],
              [
                116.3489402,
                39.9558085
              ],
              [
                116.348863,
                39.9557992
              ],
              [
                116.348785,
                39.9557959
              ],
              [
                116.348707,
                39.9557984
              ],
              [
                116.3486297,
                39.9558068
              ],
              [
                116.3485538,
                39.9558209
              ],
              [
                116.3484801,
                39.9558408
              ],
              [
                116.3484092,
                39.9558661
              ],
              [
                116.348342,
                39.9558966
              ],
              [
                116.3482789,
                39.955932
              ],
              [
                116.3482207,
                39.9559721
              ],
              [
                116.3481678,
                39.9560163
              ],
              [
                116.3481208,
                39.9560643
              ],
              [
                116.3480802,
                39.9561156
              ],
              [
                116.3480463,
                39.9561698
              ],
              [
                116.3480194,
                39.9562262
              ],
              [
                116.3479999,
                39.9562844
              ],
              [
                116.3479879,
                39.9563438
              ],
              [
                116.3479835,
                39.9564038
              ],
              [
                116.3479867,
                39.9564638
              ],
              [
                116.3479976,
                39.9565233
              ],
              [
                116.3480161,
                39.9565817
              ],
              [
                116.3480418,
                39.9566385
              ],
              [
                116.3480747,
                39.956693
              ],
              [
                116.3481144,
                39.9567448
              ],
              [
                116.3481604,
                39.9567933
              ],
              [
                116.3482124,
                39.9568381
              ],
              [
                116.3482699,
                39.9568788
              ],
              [
                116.3483323,
                39.9569149
              ],
              [
                116.348399,
                39.9569462
              ],
              [
                116.3484693,
                39.9569723
              ],
              [
                116.3485427,
                39.956993
              ],
              [
                116.3486183,
                39.957008
              ],
              [
                116.3486954,
                39.9570172
              ],
              [
                116.3487734,
                39.9570206
              ],
              [
                116.3488514,
                39.9570181
              ],
              [
                116.3489288,
                39.9570097
              ],
              [
                116.3490047,
                39.9569956
              ],
              [
                116.3490784,
                39.9569757
              ],
              [
                116.3491492,
                39.9569504
              ],
              [
                116.3492165,
                39.9569199
              ],
              [
                116.3492796,
                39.9568845
              ],
              [
                116.3493378,
                39.9568444
              ],
              [
                116.3493907,
                39.9568002
              ],
              [
                116.3494376,
                39.9567522
              ],
              [
                116.3494783,
                39.9567009
              ],
              [
                116.3495122,
                39.9566467
              ],
              [
                116.349539,
                39.9565903
              ],
              [
                116.3495586,
                39.9565321
              ],
              [
                116.3495706,
                39.9564727
              ],
              [
                116.349575,
                39.9564127
              ],
              [
                116.3495717,
                39.9563527
              ],
              [
                116.3495608,
                39.9562932
              ],
              [
                116.3495424,
                39.9562348
              ],
              [
                116.3495166,
                39.956178
              ],
              [
                116.3494838,
                39.9561235
              ],
              [
                116.3494441,
                39.9560717
              ],
              [
                116.349398,
                39.9560232
              ],
              [
                116.349346,
                39.9559784
              ]
            ]
          ],
          [
            [
              [
                116.3489353,
                39.9691529
              ],
              [
                116.3488778,
                39.9691122
              ],
              [
                116.3488154,
                39.9690761
              ],
              [
                116.3487487,
                39.9690448
              ],
              [
                116.3486783,
                39.9690187
              ],
              [
                116.348605,
                39.968998
              ],
              [
                116.3485293,
                39.968983
              ],
              [
                116.3484522,
                39.9689738
              ],
              [
                116.3483742,
                39.9689704
              ],
              [
                116.3482961,
                39.9689729
              ],
              [
                116.3482188,
                39.9689813
              ],
              [
                116.3481429,
                39.9689955
              ],
              [
                116.3480692,
                39.9690153
              ],
              [
                116.3479983,
                39.9690406
              ],
              [
                116.347931,
                39.9690711
              ],
              [
                116.347868,
                39.9691065
              ],
              [
                116.3478097,
                39.9691466
              ],
              [
                116.3477568,
                39.9691908
              ],
              [
                116.3477098,
                39.9692388
              ],
              [
                116.3476692,
                39.9692901
              ],
              [
                116.3476353,
                39.9693443
              ],
              [
                116.3476084,
                39.9694007
              ],
              [
                116.3475889,
                39.9694589
              ],
              [
                116.3475769,
                39.9695183
              ],
              [
                116.3475725,
                39.9695783
              ],
              [
                116.3475757,
                39.9696383
              ],
              [
                116.3475866,
                39.9696978
              ],
              [
                116.3476051,
                39.9697562
              ],
              [
                116.3476308,
                39.969813
              ],
              [
                116.3476637,
                39.9698675
              ],
              [
                116.3477034,
                39.9699193
              ],
              [
                116.3477494,
                39.9699678
              ],
              [
                116.3478015,
                39.9700126
              ],
              [
                116.347859,
                39.9700533
              ],
              [
                116.3479214,
                39.9700895
              ],
              [
                116.3479881,
                39.9701207
              ],
              [
                116.3480584,
                39.9701468
              ],
              [
                116.3481318,
                39.9701675
              ],
              [
                116.3482074,
                39.9701825
              ],
              [
                116.3482846,
                39.9701918
              ],
              [
                116.3483626,
                39.9701952
              ],
              [
                116.3484406,
                39.9701926
              ],
              [
                116.3485179,
                39.9701843
              ],
              [
                116.3485939,
                39.9701701
              ],
              [
                116.3486676,
                39.9701502
              ],
              [
                116.3487384,
                39.970125
              ],
              [
                116.3488057,
                39.9700944
              ],
              [
                116.3488688,
                39.970059
              ],
              [
                116.3489271,
                39.970019
              ],
              [
                116.3489799,
                39.9699747
              ],
              [
                116.3490269,
                39.9699267
              ],
              [
                116.3490676,
                39.9698754
              ],
              [
                116.3491015,
                39.9698212
              ],
              [
                116.3491283,
                39.9697648
              ],
              [
                116.3491479,
                39.9697066
              ],
              [
                116.3491599,
                39.9696472
              ],
              [
                116.3491643,
                39.9695872
              ],
              [
                116.349161,
                39.9695272
              ],
              [
                116.3491501,
                39.9694677
              ],
              [
                116.3491317,
                39.9694093
              ],
              [
                116.3491059,
                39.9693525
              ],
              [
                116.349073,
                39.969298
              ],
              [
                116.3490334,
                39.9692463
              ],
              [
                116.3489873,
                39.9691977
              ],
              [
                116.3489353,
                39.9691529
              ]
            ]
          ],
          [
            [
              [
                116.3412714,
                39.999255
              ],
              [
                116.3412647,
                39.9992553
              ],
              [
                116.3412763,
                39.9994352
              ],
              [
                116.3538149,
                39.9995058
              ],
              [
                116.3538207,
                39.9995056
              ],
              [
                116.3538108,
                39.9993256
              ],
              [
                116.3412714,
                39.999255
              ]
            ]
          ],
          [
            [
              [
                116.3421454,
                40.0150226
              ],
              [
                116.3421401,
                40.0150228
              ],
              [
                116.3421489,
                40.0152028
              ],
              [
                116.3546789,
                40.0152733
              ],
              [
                116.3546846,
                40.0152731
              ],
              [
                116.3546748,
                40.0150931
              ],
              [
                116.3421454,
                40.0150226
              ]
            ]
          ],
          [
            [
              [
                116.3479184,
                40.0185335
              ],
              [
                116.3478608,
                40.0184928
              ],
              [
                116.3477984,
                40.0184566
              ],
              [
                116.3477316,
                40.0184254
              ],
              [
                116.3476612,
                40.0183993
              ],
              [
                116.3475878,
                40.0183786
              ],
              [
                116.3475121,
                40.0183636
              ],
              [
                116.3474349,
                40.0183543
              ],
              [
                116.3473569,
                40.0183509
              ],
              [
                116.3472788,
                40.0183534
              ],
              [
                116.3472014,
                40.0183618
              ],
              [
                116.3471254,
                40.018376
              ],
              [
                116.3470516,
                40.0183958
              ],
              [
                116.3469807,
                40.0184211
              ],
              [
                116.3469134,
                40.0184516
              ],
              [
                116.3468503,
                40.0184871
              ],
              [
                116.346792,
                40.0185271
              ],
              [
                116.3467391,
                40.0185714
              ],
              [
                116.346692,
                40.0186194
              ],
              [
                116.3466514,
                40.0186707
              ],
              [
                116.3466174,
                40.0187248
              ],
              [
                116.3465906,
                40.0187813
              ],
              [
                116.346571,
                40.0188394
              ],
              [
                116.346559,
                40.0188988
              ],
              [
                116.3465546,
                40.0189588
              ],
              [
                116.3465578,
                40.0190189
              ],
              [
                116.3465687,
                40.0190784
              ],
              [
                116.3465872,
                40.0191368
              ],
              [
                116.346613,
                40.0191935
              ],
              [
                116.3466459,
                40.019248
              ],
              [
                116.3466856,
                40.0192998
              ],
              [
                116.3467317,
                40.0193483
              ],
              [
                116.3467837,
                40.0193932
              ],
              [
                116.3468412,
                40.0194338
              ],
              [
                116.3469037,
                40.01947
              ],
              [
                116.3469704,
                40.0195013
              ],
              [
                116.3470409,
                40.0195274
              ],
              [
                116.3471143,
                40.019548
              ],
              [
                116.3471899,
                40.019563
              ],
              [
                116.3472672,
                40.0195723
              ],
              [
                116.3473452,
                40.0195757
              ],
              [
                116.3474233,
                40.0195732
              ],
              [
                116.3475007,
                40.0195648
              ],
              [
                116.3475767,
                40.0195506
              ],
              [
                116.3476505,
                40.0195308
              ],
              [
                116.3477214,
                40.0195055
              ],
              [
                116.3477887,
                40.019475
              ],
              [
                116.3478518,
                40.0194395
              ],
              [
                116.3479101,
                40.0193995
              ],
              [
                116.347963,
                40.0193553
              ],
              [
                116.3480101,
                40.0193073
              ],
              [
                116.3480507,
                40.0192559
              ],
              [
                116.3480847,
                40.0192018
              ],
              [
                116.3481115,
                40.0191454
              ],
              [
                116.3481311,
                40.0190872
              ],
              [
                116.3481431,
                40.0190278
              ],
              [
                116.3481475,
                40.0189678
              ],
              [
                116.3481443,
                40.0189077
              ],
              [
                116.3481334,
                40.0188482
              ],
              [
                116.3481149,
                40.0187898
              ],
              [
                116.3480891,
                40.0187331
              ],
              [
                116.3480562,
                40.0186786
              ],
              [
                116.3480165,
                40.0186268
              ],
              [
                116.3479704,
                40.0185783
              ],
              [
                116.3479184,
                40.0185335
              ]
            ]
          ]
        ]
      }
    }
  ]
}
