{
 "type": "FeatureCollection",
 "name": "constraints_shared_track",
 "features": [
  {
   "type": "Feature",
   "id": "CONST-ROAD-001",
   "properties": {
    "name_zh": "北五环路（现状参照）",
    "name_en": "North 5th Ring Road (existing context)",
    "source_type": "agent_inferred_from_public_data",
    "confidence": "low",
    "geometry_role": "existing_condition",
    "redline_status": "reference_only_not_redline",
    "id": "CONST-ROAD-001",
    "layer": "EXISTING_PRIMARY_ROAD"
   },
   "geometry": {
    "type": "LineString",
    "coordinates": [
     [
      116.3397,
      40.0265
     ],
     [
      116.3553,
      40.0265
     ]
    ]
   }
  },
  {
   "type": "Feature",
   "id": "CONST-ROAD-002",
   "properties": {
    "name_zh": "学院路/西土城路（现状参照）",
    "name_en": "Xueyuan Rd / Xitucheng Rd (existing context)",
    "source_type": "agent_inferred_from_public_data",
    "confidence": "low",
    "geometry_role": "existing_condition",
    "redline_status": "reference_only_not_redline",
    "id": "CONST-ROAD-002",
    "layer": "EXISTING_PRIMARY_ROAD"
   },
   "geometry": {
    "type": "LineString",
    "coordinates": [
     [
      116.3533,
      39.965
     ],
     [
      116.3533,
      40.0265
     ]
    ]
   }
  },
  {
   "type": "Feature",
   "id": "CONST-ROAD-003",
   "properties": {
    "name_zh": "大钟寺东路（现状参照）",
    "name_en": "Dazhongsi East Rd (existing context)",
    "source_type": "agent_inferred_from_public_data",
    "confidence": "low",
    "geometry_role": "existing_condition",
    "redline_status": "reference_only_not_redline",
    "id": "CONST-ROAD-003",
    "layer": "EXISTING_PRIMARY_ROAD"
   },
   "geometry": {
    "type": "LineString",
    "coordinates": [
     [
      116.344,
      39.939
     ],
     [
      116.344,
      39.949
     ]
    ]
   }
  },
  {
   "type": "Feature",
   "id": "CONST-ROAD-004",
   "properties": {
    "name_zh": "荷清路（现状参照）",
    "name_en": "Heqing Rd (existing context)",
    "source_type": "agent_inferred_from_public_data",
    "confidence": "low",
    "geometry_role": "existing_condition",
    "redline_status": "reference_only_not_redline",
    "id": "CONST-ROAD-004",
    "layer": "EXISTING_PRIMARY_ROAD"
   },
   "geometry": {
    "type": "LineString",
    "coordinates": [
     [
      116.3417,
      40.006
     ],
     [
      116.3417,
      40.0265
     ]
    ]
   }
  },
  {
   "type": "Feature",
   "id": "CONST-RAIL-001",
   "properties": {
    "name_zh": "京张铁路遗址线与地铁13号线走廊（现状参照）",
    "name_en": "Jing-Zhang railway heritage corridor & Metro Line 13 (existing context)",
    "source_type": "agent_inferred_from_public_data",
    "confidence": "medium",
    "geometry_role": "existing_condition",
    "redline_status": "reference_only_not_redline",
    "id": "CONST-RAIL-001",
    "layer": "EXISTING_RAIL"
   },
   "geometry": {
    "type": "LineString",
    "coordinates": [
     [
      116.3475,
      39.9395
     ],
     [
      116.3475,
      40.0265
     ]
    ]
   }
  },
  {
   "type": "Feature",
   "id": "CONST-WATER-001",
   "properties": {
    "name_zh": "小月河（现状参照）",
    "name_en": "Xiaoyue River (existing context)",
    "source_type": "agent_inferred_from_public_data",
    "confidence": "medium",
    "geometry_role": "existing_condition",
    "redline_status": "reference_only_not_redline",
    "id": "CONST-WATER-001",
    "layer": "EXISTING_WATER"
   },
   "geometry": {
    "type": "LineString",
    "coordinates": [
     [
      116.3528,
      39.9395
     ],
     [
      116.3528,
      40.006
     ]
    ]
   }
  },
  {
   "type": "Feature",
   "id": "CONST-WATER-002",
   "properties": {
    "name_zh": "清河（现状参照）",
    "name_en": "Qing River (existing context)",
    "source_type": "agent_inferred_from_public_data",
    "confidence": "medium",
    "geometry_role": "existing_condition",
    "redline_status": "reference_only_not_redline",
    "id": "CONST-WATER-002",
    "layer": "EXISTING_WATER"
   },
   "geometry": {
    "type": "LineString",
    "coordinates": [
     [
      116.3417,
      40.0265
     ],
     [
      116.3553,
      40.0265
     ]
    ]
   }
  },
  {
   "type": "Feature",
   "id": "CONST-HERITAGE-001",
   "properties": {
    "name_zh": "京张铁路历史走廊风貌协调区（概念示意，非文保红线）",
    "name_en": "Jing-Zhang railway heritage corridor character zone (concept, not heritage redline)",
    "source_type": "agent_inferred_from_public_data",
    "confidence": "low",
    "geometry_role": "provisional_constraint",
    "official_boundary": false,
    "boundary_precision": "provisional_rough",
    "id": "CONST-HERITAGE-001",
    "layer": "HERITAGE_PROTECTION"
   },
   "geometry": {
    "type": "Polygon",
    "coordinates": [
     [
      [
       116.3457,
       39.9395
      ],
      [
       116.3457,
       40.026
      ],
      [
       116.3493,
       40.026
      ],
      [
       116.3493,
       39.9395
      ],
      [
       116.3457,
       39.9395
      ]
     ]
    ]
   }
  }
 ]
}