{
  "type": "FeatureCollection",
  "name": "land_use",
  "crs": {
    "type": "name",
    "properties": {
      "name": "urn:ogc:def:crs:OGC:1.3:CRS84"
    }
  },
  "note": "概念性用地结构建议（design_proposal）。分区完整覆盖临时 site_boundary；用地代码依据自然资发〔2023〕234号数字代码子集，不构成法定控规调整结论。",
  "features": [
    {
      "type": "Feature",
      "id": "LU-001",
      "properties": {
        "id": "LU-001",
        "layer": "LAND_USE",
        "source_type": "agent_generated_design",
        "confidence": "low",
        "geometry_role": "design_proposal",
        "land_use_code": "1401",
        "name_zh": "京张遗址公园活力带·公园绿地",
        "transect_id": "ALL",
        "corridor_side": "corridor",
        "design_intent_zh": "以京张遗址公园为南北连续公共空间主轴，承担 CROSS（穿越）与 USE（使用）两类关系动作的空间载体。",
        "dominant_existing_use_osm": "construction",
        "status_zh": "概念建议·待与官方控规核对",
        "area_sqm_declared": 463889.687
      },
      "geometry": {
        "type": "Polygon",
        "coordinates": [
          [
            [
              116.340827237,
              39.955996361
            ],
            [
              116.340823098,
              39.956003981
            ],
            [
              116.340420219,
              39.956753642
            ],
            [
              116.340195506,
              39.95716769
            ],
            [
              116.339885558,
              39.968323478
            ],
            [
              116.340002027,
              39.968080871
            ],
            [
              116.34004108,
              39.967986397
            ],
            [
              116.340204372,
              39.967517995
            ],
            [
              116.340218083,
              39.967475193
            ],
            [
              116.340387272,
              39.96689649
            ],
            [
              116.340411833,
              39.966785987
            ],
            [
              116.341067437,
              39.962511816
            ],
            [
              116.341216191,
              39.961626241
            ],
            [
              116.341308877,
              39.961221511
            ],
            [
              116.341518011,
              39.960586846
            ],
            [
              116.341727167,
              39.960041739
            ],
            [
              116.342338806,
              39.958826932
            ],
            [
              116.343012857,
              39.957584876
            ],
            [
              116.34301473,
              39.957581409
            ],
            [
              116.343416467,
              39.956833821
            ],
            [
              116.344472349,
              39.954910613
            ],
            [
              116.344534628,
              39.954771405
            ],
            [
              116.347542272,
              39.946187469
            ],
            [
              116.347571574,
              39.946083839
            ],
            [
              116.347587539,
              39.945978497
            ],
            [
              116.347590011,
              39.945872458
            ],
            [
              116.347578968,
              39.945766743
            ],
            [
              116.347554516,
              39.94566237
            ],
            [
              116.34751689,
              39.945560345
            ],
            [
              116.347466453,
              39.945461649
            ],
            [
              116.34740369,
              39.945367234
            ],
            [
              116.347329207,
              39.945278008
            ],
            [
              116.34724372,
              39.945194831
            ],
            [
              116.347148052,
              39.945118504
            ],
            [
              116.347043126,
              39.945049762
            ],
            [
              116.346929951,
              39.944989267
            ],
            [
              116.346809617,
              39.944937602
            ],
            [
              116.346683284,
              39.944895263
            ],
            [
              116.346552167,
              39.94486266
            ],
            [
              116.34641753,
              39.944840105
            ],
            [
              116.34628067,
              39.944827816
            ],
            [
              116.346142903,
              39.944825911
            ],
            [
              116.346005557,
              39.944834409
            ],
            [
              116.345869955,
              39.944853228
            ],
            [
              116.345737402,
              39.944882186
            ],
            [
              116.345609174,
              39.944921005
            ],
            [
              116.345486508,
              39.944969311
            ],
            [
              116.345370583,
              39.945026639
            ],
            [
              116.345262517,
              39.945092436
            ],
            [
              116.34516335,
              39.945166069
            ],
            [
              116.345074037,
              39.945246829
            ],
            [
              116.344995439,
              39.945333938
            ],
            [
              116.344928311,
              39.945426558
            ],
            [
              116.344873302,
              39.945523796
            ],
            [
              116.344830939,
              39.945624715
            ],
            [
              116.34184795,
              39.95413734
            ],
            [
              116.340827237,
              39.955996361
            ]
          ]
        ]
      }
    },
    {
      "type": "Feature",
      "id": "LU-002",
      "properties": {
        "id": "LU-002",
        "layer": "LAND_USE",
        "source_type": "agent_generated_design",
        "confidence": "low",
        "geometry_role": "design_proposal",
        "land_use_code": "0802",
        "name_zh": "众智园AI自主创新加速区·科研与转化功能方向（概念）",
        "transect_id": "T4",
        "corridor_side": "key_area",
        "design_intent_zh": "对应公告重点区域一。本方案不建议改变用地性质，只提出功能方向与界面组织：以科研与中试转化为主导功能方向，把面向京张廊道的一侧作为公共界面优先段。",
        "dominant_existing_use_osm": "residential",
        "status_zh": "概念建议·待与官方控规核对",
        "area_sqm_declared": 1929201.877,
        "proposes_land_use_change": false,
        "code_basis_zh": "代码仅用于分区完整覆盖与阅读，依据公告对该重点区域的定位命名推导，并非本方案建议的法定用地性质；同一要素的 dominant_existing_use_osm 记录的是开放地图观测到的现状主导用途，两者口径不同、不应互相印证。"
      },
      "geometry": {
        "type": "Polygon",
        "coordinates": [
          [
            [
              116.354,
              40.026
            ],
            [
              116.354,
              40.0075
            ],
            [
              116.343,
              40.0075
            ],
            [
              116.343,
              40.026
            ],
            [
              116.354,
              40.026
            ]
          ]
        ]
      }
    },
    {
      "type": "Feature",
      "id": "LU-003",
      "properties": {
        "id": "LU-003",
        "layer": "LAND_USE",
        "source_type": "agent_generated_design",
        "confidence": "low",
        "geometry_role": "design_proposal",
        "land_use_code": "07",
        "name_zh": "北京AI原点社区·交换关系重组片区（概念）",
        "transect_id": "T2",
        "corridor_side": "key_area",
        "design_intent_zh": "对应公告重点区域二。本方案不建议改变用地性质，以既有高校、创新资源、社区与京张公共空间之间的交换关系为基础，以运营激活和界面组织为主要方式，补足日常服务与到达关系，并在既有横穿设施处组织停留与交换空间。",
        "dominant_existing_use_osm": "commercial",
        "status_zh": "概念建议·待与官方控规核对",
        "area_sqm_declared": 1043236.909,
        "proposes_land_use_change": false,
        "code_basis_zh": "代码仅用于分区完整覆盖与阅读，依据公告对该重点区域的定位命名推导，并非本方案建议的法定用地性质；同一要素的 dominant_existing_use_osm 记录的是开放地图观测到的现状主导用途，两者口径不同、不应互相印证。"
      },
      "geometry": {
        "type": "Polygon",
        "coordinates": [
          [
            [
              116.353,
              39.9935
            ],
            [
              116.353,
              39.9835
            ],
            [
              116.342,
              39.9835
            ],
            [
              116.342,
              39.9935
            ],
            [
              116.353,
              39.9935
            ]
          ]
        ]
      }
    },
    {
      "type": "Feature",
      "id": "LU-004",
      "properties": {
        "id": "LU-004",
        "layer": "LAND_USE",
        "source_type": "agent_generated_design",
        "confidence": "low",
        "geometry_role": "design_proposal",
        "land_use_code": "09",
        "name_zh": "大钟寺AI产业聚集区·产业服务功能方向（概念）",
        "transect_id": "T1",
        "corridor_side": "key_area",
        "design_intent_zh": "对应公告重点区域三。本方案不建议改变用地性质，在此完成 T1 站前空间深化：以既有京张跨三环公共空间与大钟寺站为骨架，重组到达、换层、面向与横向公共空间关系。",
        "dominant_existing_use_osm": "residential",
        "status_zh": "概念建议·待与官方控规核对",
        "area_sqm_declared": 589287.726,
        "proposes_land_use_change": false,
        "code_basis_zh": "代码仅用于分区完整覆盖与阅读，依据公告对该重点区域的定位命名推导，并非本方案建议的法定用地性质；同一要素的 dominant_existing_use_osm 记录的是开放地图观测到的现状主导用途，两者口径不同、不应互相印证。"
      },
      "geometry": {
        "type": "Polygon",
        "coordinates": [
          [
            [
              116.343353896,
              39.949840068
            ],
            [
              116.344830939,
              39.945624715
            ],
            [
              116.344873302,
              39.945523796
            ],
            [
              116.344928311,
              39.945426558
            ],
            [
              116.344995439,
              39.945333938
            ],
            [
              116.345074037,
              39.945246829
            ],
            [
              116.34516335,
              39.945166069
            ],
            [
              116.345262517,
              39.945092436
            ],
            [
              116.345370583,
              39.945026639
            ],
            [
              116.345486508,
              39.944969311
            ],
            [
              116.345609174,
              39.944921005
            ],
            [
              116.345737402,
              39.944882186
            ],
            [
              116.345869955,
              39.944853228
            ],
            [
              116.346005557,
              39.944834409
            ],
            [
              116.346142903,
              39.944825911
            ],
            [
              116.34628067,
              39.944827816
            ],
            [
              116.34641753,
              39.944840105
            ],
            [
              116.346552167,
              39.94486266
            ],
            [
              116.346683284,
              39.944895263
            ],
            [
              116.346809617,
              39.944937602
            ],
            [
              116.346929951,
              39.944989267
            ],
            [
              116.347043126,
              39.945049762
            ],
            [
              116.347148052,
              39.945118504
            ],
            [
              116.34724372,
              39.945194831
            ],
            [
              116.347329207,
              39.945278008
            ],
            [
              116.34740369,
              39.945367234
            ],
            [
              116.347466453,
              39.945461649
            ],
            [
              116.34751689,
              39.945560345
            ],
            [
              116.347554516,
              39.94566237
            ],
            [
              116.347578968,
              39.945766743
            ],
            [
              116.347590011,
              39.945872458
            ],
            [
              116.347587539,
              39.945978497
            ],
            [
              116.347571574,
              39.946083839
            ],
            [
              116.347542272,
              39.946187469
            ],
            [
              116.346262538,
              39.949840161
            ],
            [
              116.355,
              39.94984
            ],
            [
              116.355,
              39.944
            ],
            [
              116.342,
              39.944
            ],
            [
              116.342,
              39.94984
            ],
            [
              116.343353896,
              39.949840068
            ]
          ]
        ]
      }
    },
    {
      "type": "Feature",
      "id": "LU-005",
      "properties": {
        "id": "LU-005",
        "layer": "LAND_USE",
        "source_type": "agent_generated_design",
        "confidence": "low",
        "geometry_role": "design_proposal",
        "land_use_code": "09",
        "name_zh": "北京北站段西侧·商业服务业用地",
        "transect_id": "T5",
        "corridor_side": "west",
        "design_intent_zh": "T5 断面西侧城市街区。该段已诊断的关系问题：站场与铁路设施造成东西向分隔，京张端点尚未形成连接两侧城市、组织到达的门户节点。用地建议为概念性结构判断，不构成法定用地调整结论。",
        "dominant_existing_use_osm": "residential",
        "status_zh": "概念建议·待与官方控规核对",
        "area_sqm_declared": 529834.355
      },
      "geometry": {
        "type": "Polygon",
        "coordinates": [
          [
            [
              116.348605838,
              39.939000228
            ],
            [
              116.3407,
              39.939
            ],
            [
              116.340238966,
              39.955603106
            ],
            [
              116.341043137,
              39.955603154
            ],
            [
              116.34184795,
              39.95413734
            ],
            [
              116.343353896,
              39.949840068
            ],
            [
              116.342,
              39.94984
            ],
            [
              116.342,
              39.944
            ],
            [
              116.34685433,
              39.944000171
            ],
            [
              116.348605838,
              39.939000228
            ]
          ]
        ]
      }
    },
    {
      "type": "Feature",
      "id": "LU-006",
      "properties": {
        "id": "LU-006",
        "layer": "LAND_USE",
        "source_type": "agent_generated_design",
        "confidence": "low",
        "geometry_role": "design_proposal",
        "land_use_code": "08",
        "name_zh": "北京北站段东侧·公共管理与公共服务用地",
        "transect_id": "T5",
        "corridor_side": "east",
        "design_intent_zh": "T5 断面东侧城市街区。该段已诊断的关系问题：站场与铁路设施造成东西向分隔，京张端点尚未形成连接两侧城市、组织到达的门户节点。用地建议为概念性结构判断，不构成法定用地调整结论。",
        "dominant_existing_use_osm": "residential",
        "status_zh": "概念建议·待与官方控规核对",
        "area_sqm_declared": 925813.01
      },
      "geometry": {
        "type": "Polygon",
        "coordinates": [
          [
            [
              116.3553,
              39.939
            ],
            [
              116.348605838,
              39.939000228
            ],
            [
              116.34685433,
              39.944000171
            ],
            [
              116.355,
              39.944
            ],
            [
              116.355,
              39.94984
            ],
            [
              116.346262538,
              39.949840161
            ],
            [
              116.347542272,
              39.946187469
            ],
            [
              116.344534628,
              39.954771405
            ],
            [
              116.344472349,
              39.954910613
            ],
            [
              116.344092066,
              39.955603283
            ],
            [
              116.355300015,
              39.955603071
            ],
            [
              116.3553,
              39.939
            ]
          ]
        ]
      }
    },
    {
      "type": "Feature",
      "id": "LU-007",
      "properties": {
        "id": "LU-007",
        "layer": "LAND_USE",
        "source_type": "agent_generated_design",
        "confidence": "low",
        "geometry_role": "design_proposal",
        "land_use_code": "09",
        "name_zh": "大钟寺段西侧·商业服务业用地",
        "transect_id": "T1",
        "corridor_side": "west",
        "design_intent_zh": "T1 断面西侧城市街区。该段已诊断的关系问题：站城之间到达关系断裂，北三环上跨造成南北阻隔。用地建议为概念性结构判断，不构成法定用地调整结论。",
        "dominant_existing_use_osm": "residential",
        "status_zh": "概念建议·待与官方控规核对",
        "area_sqm_declared": 5955.493
      },
      "geometry": {
        "type": "Polygon",
        "coordinates": [
          [
            [
              116.340195506,
              39.95716769
            ],
            [
              116.340420219,
              39.956753642
            ],
            [
              116.340823098,
              39.956003981
            ],
            [
              116.340827237,
              39.955996361
            ],
            [
              116.341043137,
              39.955603154
            ],
            [
              116.340238966,
              39.955603106
            ],
            [
              116.340195506,
              39.95716769
            ]
          ]
        ]
      }
    },
    {
      "type": "Feature",
      "id": "LU-008",
      "properties": {
        "id": "LU-008",
        "layer": "LAND_USE",
        "source_type": "agent_generated_design",
        "confidence": "low",
        "geometry_role": "design_proposal",
        "land_use_code": "0701",
        "name_zh": "大钟寺段东侧·城镇住宅用地",
        "transect_id": "T1",
        "corridor_side": "east",
        "design_intent_zh": "T1 断面东侧城市街区。该段已诊断的关系问题：站城之间到达关系断裂，北三环上跨造成南北阻隔。用地建议为概念性结构判断，不构成法定用地调整结论。",
        "dominant_existing_use_osm": "residential",
        "status_zh": "概念建议·待与官方控规核对",
        "area_sqm_declared": 2752148.638
      },
      "geometry": {
        "type": "Polygon",
        "coordinates": [
          [
            [
              116.3553,
              39.965
            ],
            [
              116.355300015,
              39.955603071
            ],
            [
              116.344092066,
              39.955603283
            ],
            [
              116.343416467,
              39.956833821
            ],
            [
              116.34301473,
              39.957581409
            ],
            [
              116.343012857,
              39.957584876
            ],
            [
              116.342338806,
              39.958826932
            ],
            [
              116.341727167,
              39.960041739
            ],
            [
              116.341518011,
              39.960586846
            ],
            [
              116.341308877,
              39.961221511
            ],
            [
              116.341216191,
              39.961626241
            ],
            [
              116.341067437,
              39.962511816
            ],
            [
              116.340411833,
              39.966785987
            ],
            [
              116.340387272,
              39.96689649
            ],
            [
              116.340218083,
              39.967475193
            ],
            [
              116.340204372,
              39.967517995
            ],
            [
              116.34004108,
              39.967986397
            ],
            [
              116.340002027,
              39.968080871
            ],
            [
              116.339885558,
              39.968323478
            ],
            [
              116.3397,
              39.975
            ],
            [
              116.339767914,
              39.976053076
            ],
            [
              116.354415946,
              39.976053127
            ],
            [
              116.3553,
              39.965
            ]
          ]
        ]
      }
    },
    {
      "type": "Feature",
      "id": "LU-009",
      "properties": {
        "id": "LU-009",
        "layer": "LAND_USE",
        "source_type": "agent_generated_design",
        "confidence": "low",
        "geometry_role": "design_proposal",
        "land_use_code": "0804",
        "name_zh": "学院路高校段东侧·教育用地",
        "transect_id": "T3",
        "corridor_side": "east",
        "design_intent_zh": "T3 断面东侧城市街区。该段已诊断的关系问题：高校用地连续但空间可达与制度开放不一致。用地建议为概念性结构判断，不构成法定用地调整结论。",
        "dominant_existing_use_osm": "residential",
        "status_zh": "概念建议·待与官方控规核对",
        "area_sqm_declared": 1112643.166
      },
      "geometry": {
        "type": "Polygon",
        "coordinates": [
          [
            [
              116.354415946,
              39.976053127
            ],
            [
              116.339767914,
              39.976053076
            ],
            [
              116.340612903,
              39.989153129
            ],
            [
              116.342000002,
              39.989153204
            ],
            [
              116.342,
              39.9835
            ],
            [
              116.353,
              39.9835
            ],
            [
              116.353000002,
              39.989153204
            ],
            [
              116.353367771,
              39.989153186
            ],
            [
              116.354415946,
              39.976053127
            ]
          ]
        ]
      }
    },
    {
      "type": "Feature",
      "id": "LU-010",
      "properties": {
        "id": "LU-010",
        "layer": "LAND_USE",
        "source_type": "agent_generated_design",
        "confidence": "low",
        "geometry_role": "design_proposal",
        "land_use_code": "09",
        "name_zh": "五道口段东侧·商业服务业用地",
        "transect_id": "T2",
        "corridor_side": "east",
        "design_intent_zh": "T2 断面东侧城市街区。该段已诊断的关系问题：轨道与商业高强度叠加，横穿与停留空间不足。用地建议为概念性结构判断，不构成法定用地调整结论。",
        "dominant_existing_use_osm": "residential",
        "status_zh": "概念建议·待与官方控规核对",
        "area_sqm_declared": 1144982.506
      },
      "geometry": {
        "type": "Polygon",
        "coordinates": [
          [
            [
              116.3533,
              39.99
            ],
            [
              116.353367771,
              39.989153186
            ],
            [
              116.353000002,
              39.989153204
            ],
            [
              116.353,
              39.9935
            ],
            [
              116.342,
              39.9935
            ],
            [
              116.342000002,
              39.989153204
            ],
            [
              116.340612903,
              39.989153129
            ],
            [
              116.341477544,
              40.002553178
            ],
            [
              116.353987632,
              40.002553153
            ],
            [
              116.3533,
              39.99
            ]
          ]
        ]
      }
    },
    {
      "type": "Feature",
      "id": "LU-011",
      "properties": {
        "id": "LU-011",
        "layer": "LAND_USE",
        "source_type": "agent_generated_design",
        "confidence": "low",
        "geometry_role": "design_proposal",
        "land_use_code": "0701",
        "name_zh": "众智园段东侧·城镇住宅用地",
        "transect_id": "T4",
        "corridor_side": "east",
        "design_intent_zh": "T4 断面东侧城市街区。该段已诊断的关系问题：创新用地集聚但公共界面与日常服务错位。用地建议为概念性结构判断，不构成法定用地调整结论。",
        "dominant_existing_use_osm": "residential",
        "status_zh": "概念建议·待与官方控规核对",
        "area_sqm_declared": 915832.111
      },
      "geometry": {
        "type": "Polygon",
        "coordinates": [
          [
            [
              116.3427,
              40.0265
            ],
            [
              116.3553,
              40.0265
            ],
            [
              116.353987632,
              40.002553153
            ],
            [
              116.341477544,
              40.002553178
            ],
            [
              116.3417,
              40.006
            ],
            [
              116.3427,
              40.0265
            ]
          ],
          [
            [
              116.354,
              40.026
            ],
            [
              116.343,
              40.026
            ],
            [
              116.343,
              40.0075
            ],
            [
              116.354,
              40.0075
            ],
            [
              116.354,
              40.026
            ]
          ]
        ]
      }
    }
  ]
}
