{
  "type": "FeatureCollection",
  "name": "phasing",
  "crs": {
    "type": "name",
    "properties": {
      "name": "urn:ogc:def:crs:OGC:1.3:CRS84"
    }
  },
  "note": "概念性分期建议（design_proposal），不构成开发时序或投资安排。",
  "features": [
    {
      "type": "Feature",
      "id": "PHASE-001",
      "properties": {
        "id": "PHASE-001",
        "layer": "PHASE",
        "source_type": "agent_generated_design",
        "confidence": "low",
        "geometry_role": "design_proposal",
        "phase": "phase_1",
        "name_zh": "一期：京张遗址公园公共空间连续化与到达关系修复",
        "description_zh": "以廊道与三处重点区的到达界面为先，恢复 ARRIVE 与 USE 两类关系动作。",
        "status_zh": "概念性时序建议·不构成开发时序、投资或审批安排",
        "area_sqm_declared": 463889.687
      },
      "geometry": {
        "type": "Polygon",
        "coordinates": [
          [
            [
              116.340827237,
              39.955996361
            ],
            [
              116.340823098,
              39.956003981
            ],
            [
              116.340420219,
              39.956753642
            ],
            [
              116.340195506,
              39.95716769
            ],
            [
              116.339885558,
              39.968323478
            ],
            [
              116.340002027,
              39.968080871
            ],
            [
              116.34004108,
              39.967986397
            ],
            [
              116.340204372,
              39.967517995
            ],
            [
              116.340218083,
              39.967475193
            ],
            [
              116.340387272,
              39.96689649
            ],
            [
              116.340411833,
              39.966785987
            ],
            [
              116.341067437,
              39.962511816
            ],
            [
              116.341216191,
              39.961626241
            ],
            [
              116.341308877,
              39.961221511
            ],
            [
              116.341518011,
              39.960586846
            ],
            [
              116.341727167,
              39.960041739
            ],
            [
              116.342338806,
              39.958826932
            ],
            [
              116.343012857,
              39.957584876
            ],
            [
              116.34301473,
              39.957581409
            ],
            [
              116.343416467,
              39.956833821
            ],
            [
              116.344472349,
              39.954910613
            ],
            [
              116.344534628,
              39.954771405
            ],
            [
              116.347542272,
              39.946187469
            ],
            [
              116.347571574,
              39.946083839
            ],
            [
              116.347587539,
              39.945978497
            ],
            [
              116.347590011,
              39.945872458
            ],
            [
              116.347578968,
              39.945766743
            ],
            [
              116.347554516,
              39.94566237
            ],
            [
              116.34751689,
              39.945560345
            ],
            [
              116.347466453,
              39.945461649
            ],
            [
              116.34740369,
              39.945367234
            ],
            [
              116.347329207,
              39.945278008
            ],
            [
              116.34724372,
              39.945194831
            ],
            [
              116.347148052,
              39.945118504
            ],
            [
              116.347043126,
              39.945049762
            ],
            [
              116.346929951,
              39.944989267
            ],
            [
              116.346809617,
              39.944937602
            ],
            [
              116.346683284,
              39.944895263
            ],
            [
              116.346552167,
              39.94486266
            ],
            [
              116.34641753,
              39.944840105
            ],
            [
              116.34628067,
              39.944827816
            ],
            [
              116.346142903,
              39.944825911
            ],
            [
              116.346005557,
              39.944834409
            ],
            [
              116.345869955,
              39.944853228
            ],
            [
              116.345737402,
              39.944882186
            ],
            [
              116.345609174,
              39.944921005
            ],
            [
              116.345486508,
              39.944969311
            ],
            [
              116.345370583,
              39.945026639
            ],
            [
              116.345262517,
              39.945092436
            ],
            [
              116.34516335,
              39.945166069
            ],
            [
              116.345074037,
              39.945246829
            ],
            [
              116.344995439,
              39.945333938
            ],
            [
              116.344928311,
              39.945426558
            ],
            [
              116.344873302,
              39.945523796
            ],
            [
              116.344830939,
              39.945624715
            ],
            [
              116.34184795,
              39.95413734
            ],
            [
              116.340827237,
              39.955996361
            ]
          ]
        ]
      }
    },
    {
      "type": "Feature",
      "id": "PHASE-002",
      "properties": {
        "id": "PHASE-002",
        "layer": "PHASE",
        "source_type": "agent_generated_design",
        "confidence": "low",
        "geometry_role": "design_proposal",
        "phase": "phase_2",
        "name_zh": "二期：三处重点区域界面与穿越关系补强",
        "description_zh": "以三处官方重点区域为单元，补强 FACE 与 CROSS 两类关系动作。",
        "status_zh": "概念性时序建议·不构成开发时序、投资或审批安排",
        "area_sqm_declared": 3561726.512
      },
      "geometry": {
        "type": "MultiPolygon",
        "coordinates": [
          [
            [
              [
                116.344830939,
                39.945624715
              ],
              [
                116.344873302,
                39.945523796
              ],
              [
                116.344928311,
                39.945426558
              ],
              [
                116.344995439,
                39.945333938
              ],
              [
                116.345074037,
                39.945246829
              ],
              [
                116.34516335,
                39.945166069
              ],
              [
                116.345262517,
                39.945092436
              ],
              [
                116.345370583,
                39.945026639
              ],
              [
                116.345486508,
                39.944969311
              ],
              [
                116.345609174,
                39.944921005
              ],
              [
                116.345737402,
                39.944882186
              ],
              [
                116.345869955,
                39.944853228
              ],
              [
                116.346005557,
                39.944834409
              ],
              [
                116.346142903,
                39.944825911
              ],
              [
                116.34628067,
                39.944827816
              ],
              [
                116.34641753,
                39.944840105
              ],
              [
                116.346552167,
                39.94486266
              ],
              [
                116.346683284,
                39.944895263
              ],
              [
                116.346809617,
                39.944937602
              ],
              [
                116.346929951,
                39.944989267
              ],
              [
                116.347043126,
                39.945049762
              ],
              [
                116.347148052,
                39.945118504
              ],
              [
                116.34724372,
                39.945194831
              ],
              [
                116.347329207,
                39.945278008
              ],
              [
                116.34740369,
                39.945367234
              ],
              [
                116.347466453,
                39.945461649
              ],
              [
                116.34751689,
                39.945560345
              ],
              [
                116.347554516,
                39.94566237
              ],
              [
                116.347578968,
                39.945766743
              ],
              [
                116.347590011,
                39.945872458
              ],
              [
                116.347587539,
                39.945978497
              ],
              [
                116.347571574,
                39.946083839
              ],
              [
                116.347542272,
                39.946187469
              ],
              [
                116.346262538,
                39.949840161
              ],
              [
                116.355,
                39.94984
              ],
              [
                116.355,
                39.944
              ],
              [
                116.342,
                39.944
              ],
              [
                116.342,
                39.94984
              ],
              [
                116.343353896,
                39.949840068
              ],
              [
                116.344830939,
                39.945624715
              ]
            ]
          ],
          [
            [
              [
                116.342,
                39.9835
              ],
              [
                116.342,
                39.9935
              ],
              [
                116.353,
                39.9935
              ],
              [
                116.353,
                39.9835
              ],
              [
                116.342,
                39.9835
              ]
            ]
          ],
          [
            [
              [
                116.343,
                40.0075
              ],
              [
                116.343,
                40.026
              ],
              [
                116.354,
                40.026
              ],
              [
                116.354,
                40.0075
              ],
              [
                116.343,
                40.0075
              ]
            ]
          ]
        ]
      }
    },
    {
      "type": "Feature",
      "id": "PHASE-003",
      "properties": {
        "id": "PHASE-003",
        "layer": "PHASE",
        "source_type": "agent_generated_design",
        "confidence": "low",
        "geometry_role": "design_proposal",
        "phase": "phase_3",
        "name_zh": "三期：断面段城市街区更新与日常服务补足",
        "description_zh": "在五个断面段的街区侧逐步补足日常服务、公共界面与慢行连接。",
        "status_zh": "概念性时序建议·不构成开发时序、投资或审批安排",
        "area_sqm_declared": 7387209.257
      },
      "geometry": {
        "type": "Polygon",
        "coordinates": [
          [
            [
              116.3417,
              40.006
            ],
            [
              116.3427,
              40.0265
            ],
            [
              116.3553,
              40.0265
            ],
            [
              116.3533,
              39.99
            ],
            [
              116.3553,
              39.965
            ],
            [
              116.3553,
              39.939
            ],
            [
              116.3407,
              39.939
            ],
            [
              116.340195506,
              39.95716769
            ],
            [
              116.340420219,
              39.956753642
            ],
            [
              116.340823098,
              39.956003981
            ],
            [
              116.340827237,
              39.955996361
            ],
            [
              116.34184795,
              39.95413734
            ],
            [
              116.343353896,
              39.949840068
            ],
            [
              116.342,
              39.94984
            ],
            [
              116.342,
              39.944
            ],
            [
              116.355,
              39.944
            ],
            [
              116.355,
              39.94984
            ],
            [
              116.346262538,
              39.949840161
            ],
            [
              116.347542272,
              39.946187469
            ],
            [
              116.344534628,
              39.954771405
            ],
            [
              116.344472349,
              39.954910613
            ],
            [
              116.343416467,
              39.956833821
            ],
            [
              116.34301473,
              39.957581409
            ],
            [
              116.343012857,
              39.957584876
            ],
            [
              116.342338806,
              39.958826932
            ],
            [
              116.341727167,
              39.960041739
            ],
            [
              116.341518011,
              39.960586846
            ],
            [
              116.341308877,
              39.961221511
            ],
            [
              116.341216191,
              39.961626241
            ],
            [
              116.341067437,
              39.962511816
            ],
            [
              116.340411833,
              39.966785987
            ],
            [
              116.340387272,
              39.96689649
            ],
            [
              116.340218083,
              39.967475193
            ],
            [
              116.340204372,
              39.967517995
            ],
            [
              116.34004108,
              39.967986397
            ],
            [
              116.340002027,
              39.968080871
            ],
            [
              116.339885558,
              39.968323478
            ],
            [
              116.3397,
              39.975
            ],
            [
              116.3417,
              40.006
            ]
          ],
          [
            [
              116.353,
              39.9835
            ],
            [
              116.353,
              39.9935
            ],
            [
              116.342,
              39.9935
            ],
            [
              116.342,
              39.9835
            ],
            [
              116.353,
              39.9835
            ]
          ],
          [
            [
              116.354,
              40.0075
            ],
            [
              116.354,
              40.026
            ],
            [
              116.343,
              40.026
            ],
            [
              116.343,
              40.0075
            ],
            [
              116.354,
              40.0075
            ]
          ]
        ]
      }
    }
  ]
}
