{
  "type": "FeatureCollection",
  "name": "public_space",
  "crs": {
    "type": "name",
    "properties": {
      "name": "urn:ogc:def:crs:OGC:1.3:CRS84"
    }
  },
  "note": "概念性公共空间骨架（design_proposal），由京张廊道与站前到达空间构成。",
  "features": [
    {
      "type": "Feature",
      "id": "PUBLIC-001",
      "properties": {
        "id": "PUBLIC-001",
        "layer": "PUBLIC_SPACE",
        "source_type": "agent_generated_design",
        "confidence": "low",
        "geometry_role": "design_proposal",
        "name_zh": "京张遗址公园连续公共空间骨架（廊道 ±120m 概念控制带）",
        "relation_action_zh": "ARRIVE / CROSS / USE",
        "status_zh": "概念建议·可供专业团队深化研究，非法定公共空间控制线",
        "area_sqm_declared": 463889.687
      },
      "geometry": {
        "type": "Polygon",
        "coordinates": [
          [
            [
              116.340827237,
              39.955996361
            ],
            [
              116.340823098,
              39.956003981
            ],
            [
              116.340420219,
              39.956753642
            ],
            [
              116.340195506,
              39.95716769
            ],
            [
              116.339885558,
              39.968323478
            ],
            [
              116.340002027,
              39.968080871
            ],
            [
              116.34004108,
              39.967986397
            ],
            [
              116.340204372,
              39.967517995
            ],
            [
              116.340218083,
              39.967475193
            ],
            [
              116.340387272,
              39.96689649
            ],
            [
              116.340411833,
              39.966785987
            ],
            [
              116.341067437,
              39.962511816
            ],
            [
              116.341216191,
              39.961626241
            ],
            [
              116.341308877,
              39.961221511
            ],
            [
              116.341518011,
              39.960586846
            ],
            [
              116.341727167,
              39.960041739
            ],
            [
              116.342338806,
              39.958826932
            ],
            [
              116.343012857,
              39.957584876
            ],
            [
              116.34301473,
              39.957581409
            ],
            [
              116.343416467,
              39.956833821
            ],
            [
              116.344472349,
              39.954910613
            ],
            [
              116.344534628,
              39.954771405
            ],
            [
              116.347542272,
              39.946187469
            ],
            [
              116.347571574,
              39.946083839
            ],
            [
              116.347587539,
              39.945978497
            ],
            [
              116.347590011,
              39.945872458
            ],
            [
              116.347578968,
              39.945766743
            ],
            [
              116.347554516,
              39.94566237
            ],
            [
              116.34751689,
              39.945560345
            ],
            [
              116.347466453,
              39.945461649
            ],
            [
              116.34740369,
              39.945367234
            ],
            [
              116.347329207,
              39.945278008
            ],
            [
              116.34724372,
              39.945194831
            ],
            [
              116.347148052,
              39.945118504
            ],
            [
              116.347043126,
              39.945049762
            ],
            [
              116.346929951,
              39.944989267
            ],
            [
              116.346809617,
              39.944937602
            ],
            [
              116.346683284,
              39.944895263
            ],
            [
              116.346552167,
              39.94486266
            ],
            [
              116.34641753,
              39.944840105
            ],
            [
              116.34628067,
              39.944827816
            ],
            [
              116.346142903,
              39.944825911
            ],
            [
              116.346005557,
              39.944834409
            ],
            [
              116.345869955,
              39.944853228
            ],
            [
              116.345737402,
              39.944882186
            ],
            [
              116.345609174,
              39.944921005
            ],
            [
              116.345486508,
              39.944969311
            ],
            [
              116.345370583,
              39.945026639
            ],
            [
              116.345262517,
              39.945092436
            ],
            [
              116.34516335,
              39.945166069
            ],
            [
              116.345074037,
              39.945246829
            ],
            [
              116.344995439,
              39.945333938
            ],
            [
              116.344928311,
              39.945426558
            ],
            [
              116.344873302,
              39.945523796
            ],
            [
              116.344830939,
              39.945624715
            ],
            [
              116.34184795,
              39.95413734
            ],
            [
              116.340827237,
              39.955996361
            ]
          ]
        ]
      }
    },
    {
      "type": "Feature",
      "id": "PUBLIC-002",
      "properties": {
        "id": "PUBLIC-002",
        "layer": "PUBLIC_SPACE",
        "source_type": "agent_generated_design",
        "confidence": "low",
        "geometry_role": "design_proposal",
        "name_zh": "西直门站前到达与集散公共空间（概念控制带）",
        "relation_action_zh": "ARRIVE / CROSS / USE",
        "status_zh": "概念建议·可供专业团队深化研究，非法定公共空间控制线",
        "area_sqm_declared": 86475.971
      },
      "geometry": {
        "type": "Polygon",
        "coordinates": [
          [
            [
              116.351791283,
              39.939000168
            ],
            [
              116.346676886,
              39.939000222
            ],
            [
              116.346675191,
              39.939008597
            ],
            [
              116.34666095,
              39.939202724
            ],
            [
              116.346671497,
              39.939396991
            ],
            [
              116.34670673,
              39.939589527
            ],
            [
              116.346766311,
              39.939778477
            ],
            [
              116.346849664,
              39.939962022
            ],
            [
              116.346955989,
              39.940138394
            ],
            [
              116.347084261,
              39.940305895
            ],
            [
              116.347233244,
              39.94046291
            ],
            [
              116.347401505,
              39.940607929
            ],
            [
              116.347587422,
              39.940739555
            ],
            [
              116.347789205,
              39.940856519
            ],
            [
              116.348004912,
              39.940957695
            ],
            [
              116.348232464,
              39.941042109
            ],
            [
              116.348469669,
              39.941108948
            ],
            [
              116.348714244,
              39.941157567
            ],
            [
              116.348963833,
              39.941187499
            ],
            [
              116.349216031,
              39.941198456
            ],
            [
              116.34946841,
              39.941190332
            ],
            [
              116.349718539,
              39.941163204
            ],
            [
              116.349964009,
              39.941117336
            ],
            [
              116.350202456,
              39.941053167
            ],
            [
              116.350431583,
              39.940971316
            ],
            [
              116.350649183,
              39.940872572
            ],
            [
              116.350853162,
              39.940757886
            ],
            [
              116.351041553,
              39.940628362
            ],
            [
              116.351212544,
              39.940485247
            ],
            [
              116.351364486,
              39.94032992
            ],
            [
              116.351495918,
              39.940163877
            ],
            [
              116.351605572,
              39.939988717
            ],
            [
              116.351692395,
              39.939806127
            ],
            [
              116.351755548,
              39.939617866
            ],
            [
              116.351794425,
              39.939425746
            ],
            [
              116.351808651,
              39.939231618
            ],
            [
              116.35179809,
              39.939037352
            ],
            [
              116.351791283,
              39.939000168
            ]
          ]
        ]
      }
    },
    {
      "type": "Feature",
      "id": "PUBLIC-003",
      "properties": {
        "id": "PUBLIC-003",
        "layer": "PUBLIC_SPACE",
        "source_type": "agent_generated_design",
        "confidence": "low",
        "geometry_role": "design_proposal",
        "name_zh": "西土城站前到达与集散公共空间（概念控制带）",
        "relation_action_zh": "ARRIVE / CROSS / USE",
        "status_zh": "概念建议·可供专业团队深化研究，非法定公共空间控制线",
        "area_sqm_declared": 80295.644
      },
      "geometry": {
        "type": "Polygon",
        "coordinates": [
          [
            [
              116.349614042,
              39.974595115
            ],
            [
              116.349570684,
              39.974457698
            ],
            [
              116.349510028,
              39.974324213
            ],
            [
              116.349432658,
              39.974195944
            ],
            [
              116.349339321,
              39.974074128
            ],
            [
              116.349230913,
              39.973959937
            ],
            [
              116.34910848,
              39.97385447
            ],
            [
              116.348973201,
              39.973758745
            ],
            [
              116.348826378,
              39.973673681
            ],
            [
              116.348669425,
              39.9736001
            ],
            [
              116.348503854,
              39.973538708
            ],
            [
              116.34833126,
              39.973490098
            ],
            [
              116.348153304,
              39.973454737
            ],
            [
              116.3479717,
              39.973432966
            ],
            [
              116.347788197,
              39.973424995
            ],
            [
              116.347604562,
              39.973430901
            ],
            [
              116.347422564,
              39.973450625
            ],
            [
              116.347243955,
              39.97348398
            ],
            [
              116.347070455,
              39.973530643
            ],
            [
              116.346903735,
              39.973590165
            ],
            [
              116.3467454,
              39.973661972
            ],
            [
              116.346596976,
              39.973745374
            ],
            [
              116.346459891,
              39.973839568
            ],
            [
              116.346335466,
              39.973943645
            ],
            [
              116.3462249,
              39.974056604
            ],
            [
              116.346129256,
              39.974177357
            ],
            [
              116.346049456,
              39.974304741
            ],
            [
              116.345986269,
              39.974437529
            ],
            [
              116.345940304,
              39.974574443
            ],
            [
              116.345912002,
              39.974714164
            ],
            [
              116.345901638,
              39.974855347
            ],
            [
              116.345909309,
              39.974996631
            ],
            [
              116.345934944,
              39.975136656
            ],
            [
              116.345978295,
              39.975274074
            ],
            [
              116.346038945,
              39.975407561
            ],
            [
              116.346116309,
              39.975535832
            ],
            [
              116.346209644,
              39.975657651
            ],
            [
              116.346318049,
              39.975771845
            ],
            [
              116.346440481,
              39.975877314
            ],
            [
              116.346575761,
              39.975973042
            ],
            [
              116.346722586,
              39.976058109
            ],
            [
              116.346879542,
              39.976131693
            ],
            [
              116.347045117,
              39.976193087
            ],
            [
              116.347217718,
              39.976241699
            ],
            [
              116.34739568,
              39.976277061
            ],
            [
              116.347577291,
              39.976298833
            ],
            [
              116.347760802,
              39.976306804
            ],
            [
              116.347944445,
              39.976300899
            ],
            [
              116.34812645,
              39.976281173
            ],
            [
              116.348305066,
              39.976247817
            ],
            [
              116.348478572,
              39.976201153
            ],
            [
              116.348645297,
              39.976141629
            ],
            [
              116.348803636,
              39.976069819
            ],
            [
              116.348952063,
              39.975986414
            ],
            [
              116.349089148,
              39.975892218
            ],
            [
              116.349213572,
              39.975788138
            ],
            [
              116.349324137,
              39.975675176
            ],
            [
              116.349419777,
              39.97555442
            ],
            [
              116.349499572,
              39.975427034
            ],
            [
              116.349562753,
              39.975294243
            ],
            [
              116.349608712,
              39.975157328
            ],
            [
              116.349637006,
              39.975017606
            ],
            [
              116.349647363,
              39.974876423
            ],
            [
              116.349639684,
              39.974735139
            ],
            [
              116.349614042,
              39.974595115
            ]
          ]
        ]
      }
    },
    {
      "type": "Feature",
      "id": "PUBLIC-004",
      "properties": {
        "id": "PUBLIC-004",
        "layer": "PUBLIC_SPACE",
        "source_type": "agent_generated_design",
        "confidence": "low",
        "geometry_role": "design_proposal",
        "name_zh": "六道口站前到达与集散公共空间（概念控制带）",
        "relation_action_zh": "ARRIVE / CROSS / USE",
        "status_zh": "概念建议·可供专业团队深化研究，非法定公共空间控制线",
        "area_sqm_declared": 80295.637
      },
      "geometry": {
        "type": "Polygon",
        "coordinates": [
          [
            [
              116.348483012,
              39.999395139
            ],
            [
              116.348439642,
              39.999257723
            ],
            [
              116.348378967,
              39.999124237
            ],
            [
              116.348301572,
              39.998995968
            ],
            [
              116.348208203,
              39.998874151
            ],
            [
              116.348099759,
              39.998759959
            ],
            [
              116.347977284,
              39.998654492
            ],
            [
              116.347841958,
              39.998558765
            ],
            [
              116.347695083,
              39.9984737
            ],
            [
              116.347538076,
              39.998400117
            ],
            [
              116.347372446,
              39.998338723
            ],
            [
              116.34719979,
              39.998290111
            ],
            [
              116.347021771,
              39.998254748
            ],
            [
              116.346840102,
              39.998232975
            ],
            [
              116.346656533,
              39.998225002
            ],
            [
              116.346472831,
              39.998230905
            ],
            [
              116.346290767,
              39.998250627
            ],
            [
              116.346112093,
              39.998283979
            ],
            [
              116.345938529,
              39.99833064
            ],
            [
              116.345771747,
              39.998390159
            ],
            [
              116.345613354,
              39.998461965
            ],
            [
              116.345464874,
              39.998545364
            ],
            [
              116.345327738,
              39.998639555
            ],
            [
              116.345203266,
              39.998743631
            ],
            [
              116.345092657,
              39.998856588
            ],
            [
              116.344996976,
              39.998977339
            ],
            [
              116.344917145,
              39.999104721
            ],
            [
              116.344853932,
              39.999237508
            ],
            [
              116.344807947,
              39.999374421
            ],
            [
              116.344779632,
              39.999514141
            ],
            [
              116.344769261,
              39.999655323
            ],
            [
              116.344776932,
              39.999796607
            ],
            [
              116.344802573,
              39.999936632
            ],
            [
              116.344845937,
              40.000074049
            ],
            [
              116.344906606,
              40.000207537
            ],
            [
              116.344983995,
              40.000335808
            ],
            [
              116.345077361,
              40.000457627
            ],
            [
              116.345185803,
              40.000571822
            ],
            [
              116.345308277,
              40.000677292
            ],
            [
              116.345443604,
              40.000773022
            ],
            [
              116.34559048,
              40.00085809
            ],
            [
              116.345747491,
              40.000931676
            ],
            [
              116.345913125,
              40.000993072
            ],
            [
              116.346085787,
              40.001041686
            ],
            [
              116.346263813,
              40.00107705
            ],
            [
              116.34644549,
              40.001098824
            ],
            [
              116.346629066,
              40.001106798
            ],
            [
              116.346812775,
              40.001100895
            ],
            [
              116.346994847,
              40.001081171
            ],
            [
              116.347173529,
              40.001047818
            ],
            [
              116.347347098,
              40.001001156
            ],
            [
              116.347513885,
              40.000941634
            ],
            [
              116.347672282,
              40.000869826
            ],
            [
              116.347820764,
              40.000786424
            ],
            [
              116.347957902,
              40.00069223
            ],
            [
              116.348082373,
              40.000588152
            ],
            [
              116.34819298,
              40.000475192
            ],
            [
              116.348288657,
              40.000354438
            ],
            [
              116.348368484,
              40.000227053
            ],
            [
              116.348431691,
              40.000094264
            ],
            [
              116.348477669,
              39.99995735
            ],
            [
              116.348505976,
              39.999817629
            ],
            [
              116.34851634,
              39.999676447
            ],
            [
              116.348508661,
              39.999535163
            ],
            [
              116.348483012,
              39.999395139
            ]
          ]
        ]
      }
    },
    {
      "type": "Feature",
      "id": "PUBLIC-005",
      "properties": {
        "id": "PUBLIC-005",
        "layer": "PUBLIC_SPACE",
        "source_type": "agent_generated_design",
        "confidence": "low",
        "geometry_role": "design_proposal",
        "name_zh": "北京北站前到达与集散公共空间（概念控制带）",
        "relation_action_zh": "ARRIVE / CROSS / USE",
        "status_zh": "概念建议·可供专业团队深化研究，非法定公共空间控制线",
        "area_sqm_declared": 129391.345
      },
      "geometry": {
        "type": "Polygon",
        "coordinates": [
          [
            [
              116.349174594,
              39.945466088
            ],
            [
              116.349104168,
              39.945242784
            ],
            [
              116.349005644,
              39.94502587
            ],
            [
              116.348879973,
              39.944817432
            ],
            [
              116.348728365,
              39.944619479
            ],
            [
              116.348552279,
              39.944433917
            ],
            [
              116.348353411,
              39.944262533
            ],
            [
              116.348133678,
              39.944106978
            ],
            [
              116.347895195,
              39.943968748
            ],
            [
              116.347640258,
              39.943849176
            ],
            [
              116.347371323,
              39.943749412
            ],
            [
              116.34709098,
              39.943670418
            ],
            [
              116.346801928,
              39.943612955
            ],
            [
              116.346506951,
              39.943577575
            ],
            [
              116.346208888,
              39.943564619
            ],
            [
              116.345910612,
              39.943574212
            ],
            [
              116.345614992,
              39.943606261
            ],
            [
              116.345324878,
              39.943660459
            ],
            [
              116.345043061,
              39.943736283
            ],
            [
              116.344772256,
              39.943833002
            ],
            [
              116.344515071,
              39.943949686
            ],
            [
              116.344273982,
              39.944085211
            ],
            [
              116.344051311,
              39.944238272
            ],
            [
              116.343849203,
              39.944407395
            ],
            [
              116.343669603,
              39.944590951
            ],
            [
              116.343514243,
              39.944787173
            ],
            [
              116.343384617,
              39.94499417
            ],
            [
              116.343281975,
              39.94520995
            ],
            [
              116.343207305,
              39.945432435
            ],
            [
              116.343161327,
              39.945659482
            ],
            [
              116.343144484,
              39.945888904
            ],
            [
              116.343156937,
              39.946118492
            ],
            [
              116.343198569,
              39.946346035
            ],
            [
              116.343268977,
              39.946569342
            ],
            [
              116.343367484,
              39.946786261
            ],
            [
              116.343493142,
              39.946994704
            ],
            [
              116.343644741,
              39.947192664
            ],
            [
              116.34382082,
              39.947378233
            ],
            [
              116.344019685,
              39.947549625
            ],
            [
              116.344129293,
              39.947627223
            ],
            [
              116.344830939,
              39.945624715
            ],
            [
              116.344873302,
              39.945523796
            ],
            [
              116.344928311,
              39.945426558
            ],
            [
              116.344995439,
              39.945333938
            ],
            [
              116.345074037,
              39.945246829
            ],
            [
              116.34516335,
              39.945166069
            ],
            [
              116.345262517,
              39.945092436
            ],
            [
              116.345370583,
              39.945026639
            ],
            [
              116.345486508,
              39.944969311
            ],
            [
              116.345609174,
              39.944921005
            ],
            [
              116.345737402,
              39.944882186
            ],
            [
              116.345869955,
              39.944853228
            ],
            [
              116.346005557,
              39.944834409
            ],
            [
              116.346142903,
              39.944825911
            ],
            [
              116.34628067,
              39.944827816
            ],
            [
              116.34641753,
              39.944840105
            ],
            [
              116.346552167,
              39.94486266
            ],
            [
              116.346683284,
              39.944895263
            ],
            [
              116.346809617,
              39.944937602
            ],
            [
              116.346929951,
              39.944989267
            ],
            [
              116.347043126,
              39.945049762
            ],
            [
              116.347148052,
              39.945118504
            ],
            [
              116.34724372,
              39.945194831
            ],
            [
              116.347329207,
              39.945278008
            ],
            [
              116.34740369,
              39.945367234
            ],
            [
              116.347466453,
              39.945461649
            ],
            [
              116.34751689,
              39.945560345
            ],
            [
              116.347554516,
              39.94566237
            ],
            [
              116.347578968,
              39.945766743
            ],
            [
              116.347590011,
              39.945872458
            ],
            [
              116.347587539,
              39.945978497
            ],
            [
              116.347571574,
              39.946083839
            ],
            [
              116.347542272,
              39.946187469
            ],
            [
              116.346840496,
              39.94819057
            ],
            [
              116.347048378,
              39.948151734
            ],
            [
              116.347330211,
              39.948075906
            ],
            [
              116.347601029,
              39.94797918
            ],
            [
              116.347858224,
              39.94786249
            ],
            [
              116.348099319,
              39.947726957
            ],
            [
              116.348321993,
              39.947573889
            ],
            [
              116.348524099,
              39.947404758
            ],
            [
              116.348703693,
              39.947221195
            ],
            [
              116.348859045,
              39.947024966
            ],
            [
              116.348988658,
              39.946817962
            ],
            [
              116.349091285,
              39.946602177
            ],
            [
              116.349165937,
              39.946379689
            ],
            [
              116.349211896,
              39.946152639
            ],
            [
              116.349228719,
              39.945923216
            ],
            [
              116.349216245,
              39.945693629
            ],
            [
              116.349174594,
              39.945466088
            ]
          ]
        ]
      }
    },
    {
      "type": "Feature",
      "id": "PUBLIC-006",
      "properties": {
        "id": "PUBLIC-006",
        "layer": "PUBLIC_SPACE",
        "source_type": "agent_generated_design",
        "confidence": "low",
        "geometry_role": "design_proposal",
        "name_zh": "学院桥站前到达与集散公共空间（概念控制带）",
        "relation_action_zh": "ARRIVE / CROSS / USE",
        "status_zh": "概念建议·可供专业团队深化研究，非法定公共空间控制线",
        "area_sqm_declared": 101624.166
      },
      "geometry": {
        "type": "Polygon",
        "coordinates": [
          [
            [
              116.349321346,
              39.986496677
            ],
            [
              116.349272561,
              39.986342084
            ],
            [
              116.349204313,
              39.986191913
            ],
            [
              116.349117258,
              39.986047611
            ],
            [
              116.349012236,
              39.985910567
            ],
            [
              116.348890257,
              39.985782102
            ],
            [
              116.348752497,
              39.985663452
            ],
            [
              116.348600282,
              39.98555576
            ],
            [
              116.348435079,
              39.985460063
            ],
            [
              116.348258478,
              39.985377283
            ],
            [
              116.348072179,
              39.985308217
            ],
            [
              116.347877978,
              39.985253529
            ],
            [
              116.347677743,
              39.985213748
            ],
            [
              116.347473404,
              39.985189254
            ],
            [
              116.347266928,
              39.985180286
            ],
            [
              116.347060303,
              39.985186928
            ],
            [
              116.34685552,
              39.985209117
            ],
            [
              116.34665455,
              39.98524664
            ],
            [
              116.346459328,
              39.985299134
            ],
            [
              116.346271735,
              39.985366095
            ],
            [
              116.346093577,
              39.985446877
            ],
            [
              116.34592657,
              39.985540703
            ],
            [
              116.345772322,
              39.985646669
            ],
            [
              116.345632319,
              39.985763754
            ],
            [
              116.345507908,
              39.985890832
            ],
            [
              116.345400289,
              39.986026678
            ],
            [
              116.345310497,
              39.986169984
            ],
            [
              116.345239397,
              39.98631937
            ],
            [
              116.345187675,
              39.986473398
            ],
            [
              116.345155828,
              39.986630583
            ],
            [
              116.345144163,
              39.986789413
            ],
            [
              116.345152794,
              39.986948357
            ],
            [
              116.345181636,
              39.987105886
            ],
            [
              116.345230412,
              39.987260481
            ],
            [
              116.345298653,
              39.987410654
            ],
            [
              116.345385701,
              39.987554959
            ],
            [
              116.345490719,
              39.987692006
            ],
            [
              116.345612694,
              39.987820474
            ],
            [
              116.345750453,
              39.987939128
            ],
            [
              116.345902668,
              39.988046824
            ],
            [
              116.346067875,
              39.988142524
            ],
            [
              116.34624448,
              39.988225308
            ],
            [
              116.346430785,
              39.988294377
            ],
            [
              116.346624994,
              39.988349067
            ],
            [
              116.346825237,
              39.98838885
            ],
            [
              116.347029585,
              39.988413345
            ],
            [
              116.347236071,
              39.988422314
            ],
            [
              116.347442705,
              39.988415671
            ],
            [
              116.347647498,
              39.988393481
            ],
            [
              116.347848477,
              39.988355957
            ],
            [
              116.348043706,
              39.988303461
            ],
            [
              116.348231305,
              39.988236497
            ],
            [
              116.348409468,
              39.988155712
            ],
            [
              116.348576478,
              39.988061882
            ],
            [
              116.348730728,
              39.987955913
            ],
            [
              116.34887073,
              39.987838823
            ],
            [
              116.348995138,
              39.987711742
            ],
            [
              116.349102754,
              39.987575893
            ],
            [
              116.349192539,
              39.987432584
            ],
            [
              116.349263632,
              39.987283195
            ],
            [
              116.349315345,
              39.987129166
            ],
            [
              116.349347183,
              39.986971979
            ],
            [
              116.349358838,
              39.986813149
            ],
            [
              116.349350198,
              39.986654205
            ],
            [
              116.349321346,
              39.986496677
            ]
          ]
        ]
      }
    },
    {
      "type": "Feature",
      "id": "PUBLIC-007",
      "properties": {
        "id": "PUBLIC-007",
        "layer": "PUBLIC_SPACE",
        "source_type": "agent_generated_design",
        "confidence": "low",
        "geometry_role": "design_proposal",
        "name_zh": "学知园站前到达与集散公共空间（概念控制带）",
        "relation_action_zh": "ARRIVE / CROSS / USE",
        "status_zh": "概念建议·可供专业团队深化研究，非法定公共空间控制线",
        "area_sqm_declared": 101624.166
      },
      "geometry": {
        "type": "Polygon",
        "coordinates": [
          [
            [
              116.347823464,
              40.013325612
            ],
            [
              116.347774665,
              40.013171018
            ],
            [
              116.347706393,
              40.013020847
            ],
            [
              116.347619309,
              40.012876544
            ],
            [
              116.347514249,
              40.0127395
            ],
            [
              116.347392226,
              40.012611033
            ],
            [
              116.347254415,
              40.012492381
            ],
            [
              116.347102144,
              40.012384688
            ],
            [
              116.346936878,
              40.012288989
            ],
            [
              116.34676021,
              40.012206206
            ],
            [
              116.346573841,
              40.012137137
            ],
            [
              116.346379565,
              40.012082447
            ],
            [
              116.346179253,
              40.012042662
            ],
            [
              116.345974835,
              40.012018166
            ],
            [
              116.345768278,
              40.012009194
            ],
            [
              116.345561572,
              40.012015833
            ],
            [
              116.345356708,
              40.012038018
            ],
            [
              116.345155658,
              40.012075537
            ],
            [
              116.344960359,
              40.012128028
            ],
            [
              116.344772691,
              40.012194986
            ],
            [
              116.344594461,
              40.012275765
            ],
            [
              116.344427386,
              40.012369587
            ],
            [
              116.344273075,
              40.01247555
            ],
            [
              116.344133013,
              40.012592633
            ],
            [
              116.344008551,
              40.012719708
            ],
            [
              116.343900885,
              40.012855552
            ],
            [
              116.343811054,
              40.012998856
            ],
            [
              116.343739923,
              40.01314824
            ],
            [
              116.343688176,
              40.013302266
            ],
            [
              116.343656313,
              40.01345945
            ],
            [
              116.343644639,
              40.013618279
            ],
            [
              116.343653269,
              40.013777223
            ],
            [
              116.343682118,
              40.013934751
            ],
            [
              116.343730909,
              40.014089346
            ],
            [
              116.343799172,
              40.01423952
            ],
            [
              116.343886251,
              40.014383825
            ],
            [
              116.343991306,
              40.014520873
            ],
            [
              116.344113325,
              40.014649343
            ],
            [
              116.344251135,
              40.014767998
            ],
            [
              116.344403407,
              40.014875696
            ],
            [
              116.344568675,
              40.014971399
            ],
            [
              116.344745348,
              40.015054185
            ],
            [
              116.344931723,
              40.015123256
            ],
            [
              116.345126007,
              40.015177949
            ],
            [
              116.345326327,
              40.015217736
            ],
            [
              116.345530754,
              40.015242233
            ],
            [
              116.345737321,
              40.015251206
            ],
            [
              116.345944036,
              40.015244567
            ],
            [
              116.34614891,
              40.01522238
            ],
            [
              116.346349968,
              40.015184859
            ],
            [
              116.346545275,
              40.015132366
            ],
            [
              116.34673295,
              40.015065406
            ],
            [
              116.346911185,
              40.014984624
            ],
            [
              116.347078263,
              40.014890798
            ],
            [
              116.347232575,
              40.014784831
            ],
            [
              116.347372636,
              40.014667744
            ],
            [
              116.347497096,
              40.014540666
            ],
            [
              116.347604757,
              40.014404819
            ],
            [
              116.347694582,
              40.014261512
            ],
            [
              116.347765706,
              40.014112125
            ],
            [
              116.347817444,
              40.013958097
            ],
            [
              116.347849298,
              40.013800912
            ],
            [
              116.347860962,
              40.013642083
            ],
            [
              116.347852323,
              40.013483139
            ],
            [
              116.347823464,
              40.013325612
            ]
          ]
        ]
      }
    }
  ]
}
