{
  "type": "FeatureCollection",
  "name": "provisional_reference_constraints",
  "features": [
    {
      "type": "Feature",
      "id": "CONSTRAINT-001",
      "properties": {
        "id": "CONSTRAINT-001",
        "layer": "HERITAGE_PROTECTION",
        "source_type": "agent_inferred_from_public_data",
        "confidence": "low",
        "geometry_role": "provisional_constraint",
        "name_zh": "京张铁路遗产廊道参考线",
        "name_en": "Jing-Zhang heritage corridor reference",
        "constraint_type": "heritage",
        "official_boundary": false,
        "boundary_precision": "provisional_rough",
        "source_id": "DATA-SRC-PROVISIONAL-BOUNDARIES-20260605",
        "usage_note": "仅作概念设计与风险提示；不得替代官方红线、控规或工程审查。",
        "phase": "pre_design_audit",
        "owner": "professional_team_to_confirm",
        "trigger": "official attachment or field survey release",
        "dependency": "licensed spatial evidence"
      },
      "geometry": {
        "type": "LineString",
        "coordinates": [
          [
            116.3478,
            39.9435
          ],
          [
            116.3478,
            40.0245
          ]
        ]
      }
    },
    {
      "type": "Feature",
      "id": "CONSTRAINT-002",
      "properties": {
        "id": "CONSTRAINT-002",
        "layer": "WATER_SYSTEM",
        "source_type": "agent_inferred_from_public_data",
        "confidence": "low",
        "geometry_role": "provisional_constraint",
        "name_zh": "清河水系与防洪参考线",
        "name_en": "Qinghe water and flood reference",
        "constraint_type": "water_flood",
        "official_boundary": false,
        "boundary_precision": "provisional_rough",
        "source_id": "DATA-SRC-PROVISIONAL-BOUNDARIES-20260605",
        "usage_note": "仅作概念设计与风险提示；不得替代官方红线、控规或工程审查。",
        "phase": "pre_design_audit",
        "owner": "professional_team_to_confirm",
        "trigger": "official attachment or field survey release",
        "dependency": "licensed spatial evidence"
      },
      "geometry": {
        "type": "LineString",
        "coordinates": [
          [
            116.3408,
            40.02
          ],
          [
            116.354,
            40.02
          ]
        ]
      }
    },
    {
      "type": "Feature",
      "id": "CONSTRAINT-003",
      "properties": {
        "id": "CONSTRAINT-003",
        "layer": "REGULATORY_CONTROL",
        "source_type": "agent_inferred_from_public_data",
        "confidence": "low",
        "geometry_role": "provisional_constraint",
        "name_zh": "轨道站点步行影响参考线",
        "name_en": "Rail station walkshed reference",
        "constraint_type": "rail_walkshed",
        "official_boundary": false,
        "boundary_precision": "provisional_rough",
        "source_id": "DATA-SRC-PROVISIONAL-BOUNDARIES-20260605",
        "usage_note": "仅作概念设计与风险提示；不得替代官方红线、控规或工程审查。",
        "phase": "pre_design_audit",
        "owner": "professional_team_to_confirm",
        "trigger": "official attachment or field survey release",
        "dependency": "licensed spatial evidence"
      },
      "geometry": {
        "type": "LineString",
        "coordinates": [
          [
            116.352,
            39.946
          ],
          [
            116.352,
            39.955
          ]
        ]
      }
    },
    {
      "type": "Feature",
      "id": "CONSTRAINT-004",
      "properties": {
        "id": "CONSTRAINT-004",
        "layer": "REGULATORY_CONTROL",
        "source_type": "agent_inferred_from_public_data",
        "confidence": "low",
        "geometry_role": "provisional_constraint",
        "name_zh": "市政与消防复核走廊",
        "name_en": "Utility and fire review corridor",
        "constraint_type": "utility_fire",
        "official_boundary": false,
        "boundary_precision": "provisional_rough",
        "source_id": "DATA-SRC-PROVISIONAL-BOUNDARIES-20260605",
        "usage_note": "仅作概念设计与风险提示；不得替代官方红线、控规或工程审查。",
        "phase": "pre_design_audit",
        "owner": "professional_team_to_confirm",
        "trigger": "official attachment or field survey release",
        "dependency": "licensed spatial evidence"
      },
      "geometry": {
        "type": "LineString",
        "coordinates": [
          [
            116.342,
            39.992
          ],
          [
            116.3535,
            39.992
          ]
        ]
      }
    },
    {
      "type": "Feature",
      "id": "CONSTRAINT-005",
      "properties": {
        "id": "CONSTRAINT-005",
        "layer": "REGULATORY_CONTROL",
        "source_type": "agent_inferred_from_public_data",
        "confidence": "low",
        "geometry_role": "provisional_constraint",
        "name_zh": "安静公园声环境参考线",
        "name_en": "Quiet-park acoustic reference",
        "constraint_type": "quiet_zone",
        "official_boundary": false,
        "boundary_precision": "provisional_rough",
        "source_id": "DATA-SRC-PROVISIONAL-BOUNDARIES-20260605",
        "usage_note": "仅作概念设计与风险提示；不得替代官方红线、控规或工程审查。",
        "phase": "pre_design_audit",
        "owner": "professional_team_to_confirm",
        "trigger": "official attachment or field survey release",
        "dependency": "licensed spatial evidence"
      },
      "geometry": {
        "type": "LineString",
        "coordinates": [
          [
            116.342,
            39.96
          ],
          [
            116.351,
            39.96
          ]
        ]
      }
    }
  ]
}
