{
  "type": "FeatureCollection",
  "name": "green_space_design_network",
  "features": [
    {
      "type": "Feature",
      "id": "GREEN-001",
      "properties": {
        "id": "GREEN-001",
        "layer": "GREEN_SPACE",
        "source_type": "agent_generated_design",
        "confidence": "medium",
        "geometry_role": "design_proposal",
        "name_zh": "清河创新生态段",
        "name_en": "Qinghe innovation ecology segment",
        "area_id": "zhongzhiyuan_ai_acceleration_area",
        "land_use_code": "1401",
        "program": "continuous park / habitat + cooling corridor",
        "phase": "phase_1_to_2",
        "owner": "professional_team + district_green_space_operator",
        "metric": "green_ratio",
        "trigger": "official boundary or ecological survey update",
        "dependency": "heritage/water/flood constraints confirmation",
        "area_sqm_declared": 344133.101,
        "area_sqm_calculated": 344133.101
      },
      "geometry": {
        "type": "Polygon",
        "coordinates": [
          [
            [
              116.3445,
              40.0075
            ],
            [
              116.3467,
              40.0075
            ],
            [
              116.3467,
              40.024
            ],
            [
              116.3445,
              40.024
            ],
            [
              116.3445,
              40.0075
            ]
          ]
        ]
      }
    },
    {
      "type": "Feature",
      "id": "GREEN-002",
      "properties": {
        "id": "GREEN-002",
        "layer": "GREEN_SPACE",
        "source_type": "agent_generated_design",
        "confidence": "medium",
        "geometry_role": "design_proposal",
        "name_zh": "学院路共享公园段",
        "name_en": "Xueyuan Road shared park segment",
        "area_id": "beijing_ai_origin_community",
        "land_use_code": "1401",
        "program": "continuous park / habitat + cooling corridor",
        "phase": "phase_1_to_2",
        "owner": "professional_team + district_green_space_operator",
        "metric": "green_ratio",
        "trigger": "official boundary or ecological survey update",
        "dependency": "heritage/water/flood constraints confirmation",
        "area_sqm_declared": 588014.946,
        "area_sqm_calculated": 588014.946
      },
      "geometry": {
        "type": "Polygon",
        "coordinates": [
          [
            [
              116.3448,
              39.972
            ],
            [
              116.3468,
              39.972
            ],
            [
              116.3468,
              40.003
            ],
            [
              116.3448,
              40.003
            ],
            [
              116.3448,
              39.972
            ]
          ]
        ]
      }
    },
    {
      "type": "Feature",
      "id": "GREEN-003",
      "properties": {
        "id": "GREEN-003",
        "layer": "GREEN_SPACE",
        "source_type": "agent_generated_design",
        "confidence": "medium",
        "geometry_role": "design_proposal",
        "name_zh": "京张遗址静谧段",
        "name_en": "Jing-Zhang heritage quiet segment",
        "area_id": "dazhongsi_ai_industry_cluster",
        "land_use_code": "1401",
        "program": "continuous park / habitat + cooling corridor",
        "phase": "phase_1_to_2",
        "owner": "professional_team + district_green_space_operator",
        "metric": "green_ratio",
        "trigger": "official boundary or ecological survey update",
        "dependency": "heritage/water/flood constraints confirmation",
        "area_sqm_declared": 464927.405,
        "area_sqm_calculated": 464927.405
      },
      "geometry": {
        "type": "Polygon",
        "coordinates": [
          [
            [
              116.3443,
              39.9445
            ],
            [
              116.3463,
              39.9445
            ],
            [
              116.3463,
              39.969
            ],
            [
              116.3443,
              39.969
            ],
            [
              116.3443,
              39.9445
            ]
          ]
        ]
      }
    }
  ]
}
