{
  "type": "FeatureCollection",
  "name": "evidence_gated_phasing",
  "features": [
    {
      "type": "Feature",
      "id": "PHASE-001",
      "properties": {
        "id": "PHASE-001",
        "layer": "PHASE",
        "source_type": "agent_generated_design",
        "confidence": "medium",
        "geometry_role": "design_proposal",
        "name_zh": "P1 安全可逆首发",
        "name_en": "P1 Safe reversible launch",
        "phase": "phase_1",
        "projects": "URBAN SERVICE HUB + quiet heritage loop",
        "owner": "district_operator",
        "gate": "CREATE→VERIFY→LAUNCH; stop and restore on safety breach",
        "budget_status": "to_be_costed",
        "metric": "phase_gate_pass_rate",
        "trigger": "quarterly evidence review",
        "dependency": "official boundary + ownership + utility audit",
        "resource_release_rule_zh": "按证据门分段释放；未过门不扩容，保留回滚和人工接管",
        "resource_release_rule_en": "Release resources by evidence gate; no gate, no scale; rollback and human takeover remain available.",
        "area_sqm_declared": 2177550.841,
        "area_sqm_calculated": 2177550.841
      },
      "geometry": {
        "type": "Polygon",
        "coordinates": [
          [
            [
              116.344,
              39.9445
            ],
            [
              116.353,
              39.9445
            ],
            [
              116.353,
              39.97
            ],
            [
              116.344,
              39.97
            ],
            [
              116.344,
              39.9445
            ]
          ]
        ]
      }
    },
    {
      "type": "Feature",
      "id": "PHASE-002",
      "properties": {
        "id": "PHASE-002",
        "layer": "PHASE",
        "source_type": "agent_generated_design",
        "confidence": "medium",
        "geometry_role": "design_proposal",
        "name_zh": "P2 原点社区扩展",
        "name_en": "P2 Origin community expansion",
        "phase": "phase_2",
        "projects": "campus-community interfaces + health navigator",
        "owner": "community_operator",
        "gate": "LAUNCH→ADOPT after human baseline comparison",
        "budget_status": "to_be_costed",
        "metric": "phase_gate_pass_rate",
        "trigger": "quarterly evidence review",
        "dependency": "official boundary + ownership + utility audit",
        "resource_release_rule_zh": "按证据门分段释放；未过门不扩容，保留回滚和人工接管",
        "resource_release_rule_en": "Release resources by evidence gate; no gate, no scale; rollback and human takeover remain available.",
        "area_sqm_declared": 2838108.668,
        "area_sqm_calculated": 2838108.668
      },
      "geometry": {
        "type": "Polygon",
        "coordinates": [
          [
            [
              116.3435,
              39.972
            ],
            [
              116.353,
              39.972
            ],
            [
              116.353,
              40.0035
            ],
            [
              116.3435,
              40.0035
            ],
            [
              116.3435,
              39.972
            ]
          ]
        ]
      }
    },
    {
      "type": "Feature",
      "id": "PHASE-003",
      "properties": {
        "id": "PHASE-003",
        "layer": "PHASE",
        "source_type": "agent_generated_design",
        "confidence": "medium",
        "geometry_role": "design_proposal",
        "name_zh": "P3 众智园受控试验",
        "name_en": "P3 Zhongzhiyuan controlled test",
        "phase": "phase_3",
        "projects": "test yard + R&D-to-market loop",
        "owner": "innovation_operator",
        "gate": "ADOPT→SCALE only after independent review",
        "budget_status": "to_be_costed",
        "metric": "phase_gate_pass_rate",
        "trigger": "quarterly evidence review",
        "dependency": "official boundary + ownership + utility audit",
        "resource_release_rule_zh": "按证据门分段释放；未过门不扩容，保留回滚和人工接管",
        "resource_release_rule_en": "Release resources by evidence gate; no gate, no scale; rollback and human takeover remain available.",
        "area_sqm_declared": 1621127.709,
        "area_sqm_calculated": 1621127.709
      },
      "geometry": {
        "type": "Polygon",
        "coordinates": [
          [
            [
              116.3435,
              40.0065
            ],
            [
              116.353,
              40.0065
            ],
            [
              116.353,
              40.0245
            ],
            [
              116.3435,
              40.0245
            ],
            [
              116.3435,
              40.0065
            ]
          ]
        ]
      }
    }
  ]
}
