{
  "type": "FeatureCollection",
  "name": "building_footprints_design",
  "features": [
    {
      "type": "Feature",
      "id": "BLDG-001",
      "properties": {
        "id": "BLDG-001",
        "layer": "BUILDING_FOOTPRINT",
        "source_type": "agent_generated_design",
        "confidence": "medium",
        "geometry_role": "design_proposal",
        "building_type": "ai_r_and_d",
        "name_zh": "众智园全栈自主创新示范建筑基底",
        "name_en": "Zhongzhiyuan full-stack R&D demonstration footprints",
        "building_count": 56,
        "note_zh": "示意设计建筑基底（design_proposal），非现状建筑调查，不构成拆改留或工程结论",
        "area_sqm_declared": 175200
      },
      "geometry": {
        "type": "MultiPolygon",
        "coordinates": [
          [
            [
              [
                116.3438040751884,
                40.00774436777857
              ],
              [
                116.34382168359411,
                40.00799616745544
              ],
              [
                116.34333051608694,
                40.008016477335396
              ],
              [
                116.3433129094828,
                40.007764677599305
              ],
              [
                116.3438040751884,
                40.00774436777857
              ]
            ]
          ],
          [
            [
              [
                116.35007187923006,
                40.007738339163076
              ],
              [
                116.3500990317084,
                40.008126109477786
              ],
              [
                116.34915949929103,
                40.008165008463266
              ],
              [
                116.34913235211964,
                40.00777723797345
              ],
              [
                116.35007187923006,
                40.007738339163076
              ]
            ]
          ],
          [
            [
              [
                116.35130569267429,
                40.007812481855865
              ],
              [
                116.35133716041784,
                40.008261762767496
              ],
              [
                116.35056181713362,
                40.00829387269728
              ],
              [
                116.3505303544643,
                40.00784459161808
              ],
              [
                116.35130569267429,
                40.007812481855865
              ]
            ]
          ],
          [
            [
              [
                116.35288551857745,
                40.00791634626008
              ],
              [
                116.35292017228124,
                40.00841095055448
              ],
              [
                116.35241005890725,
                40.00843208382009
              ],
              [
                116.35237540887869,
                40.007937479404184
              ],
              [
                116.35288551857745,
                40.00791634626008
              ]
            ]
          ],
          [
            [
              [
                116.34648941464192,
                40.00904250035926
              ],
              [
                116.34651677377902,
                40.009433508687124
              ],
              [
                116.3455582763677,
                40.009473162164085
              ],
              [
                116.34553092269019,
                40.00908215365647
              ],
              [
                116.34648941464192,
                40.00904250035926
              ]
            ]
          ],
          [
            [
              [
                116.34933829789453,
                40.00876280229711
              ],
              [
                116.34937768619722,
                40.00932539309196
              ],
              [
                116.34833709505435,
                40.00936846829913
              ],
              [
                116.3482977152797,
                40.008805877223
              ],
              [
                116.34933829789453,
                40.00876280229711
              ]
            ]
          ],
          [
            [
              [
                116.3506589287255,
                40.008920818052964
              ],
              [
                116.3506851780159,
                40.00929563853021
              ],
              [
                116.34984667164653,
                40.009330358692374
              ],
              [
                116.34982042693441,
                40.00895553806398
              ],
              [
                116.3506589287255,
                40.008920818052964
              ]
            ]
          ],
          [
            [
              [
                116.35225065539773,
                40.00899521066631
              ],
              [
                116.35228848013965,
                40.00953513876923
              ],
              [
                116.35142471097042,
                40.009570916731704
              ],
              [
                116.35138689302225,
                40.00903098840428
              ],
              [
                116.35225065539773,
                40.00899521066631
              ]
            ]
          ],
          [
            [
              [
                116.34992144119472,
                40.010253763003476
              ],
              [
                116.34993975268303,
                40.01051527406733
              ],
              [
                116.34936015540308,
                40.01053926993874
              ],
              [
                116.34934184612284,
                40.01027775880201
              ],
              [
                116.34992144119472,
                40.010253763003476
              ]
            ]
          ],
          [
            [
              [
                116.3514476831909,
                40.010063060197176
              ],
              [
                116.35147779212147,
                40.010492916446395
              ],
              [
                116.35084767370573,
                40.010519012199545
              ],
              [
                116.35081756872097,
                40.01008915581998
              ],
              [
                116.3514476831909,
                40.010063060197176
              ]
            ]
          ],
          [
            [
              [
                116.35269147271136,
                40.01002566666225
              ],
              [
                116.35271115565314,
                40.010306601836945
              ],
              [
                116.35197999613877,
                40.01033688969354
              ],
              [
                116.3519603161893,
                40.01005595441991
              ],
              [
                116.35269147271136,
                40.01002566666225
              ]
            ]
          ],
          [
            [
              [
                116.34619952841763,
                40.011306163190405
              ],
              [
                116.34622371537655,
                40.011651847568004
              ],
              [
                116.34562516139964,
                40.01167660847034
              ],
              [
                116.3456009774551,
                40.011330923993484
              ],
              [
                116.34619952841763,
                40.011306163190405
              ]
            ]
          ],
          [
            [
              [
                116.34929321742449,
                40.01129172927818
              ],
              [
                116.34932421992568,
                40.01173453554736
              ],
              [
                116.34859304395758,
                40.01176480189316
              ],
              [
                116.34856204617323,
                40.01132199546839
              ],
              [
                116.34929321742449,
                40.01129172927818
              ]
            ]
          ],
          [
            [
              [
                116.35084330827446,
                40.011169034882954
              ],
              [
                116.35087182664186,
                40.01157622930183
              ],
              [
                116.34979962543105,
                40.01162062496524
              ],
              [
                116.3497711134241,
                40.01121343033639
              ],
              [
                116.35084330827446,
                40.011169034882954
              ]
            ]
          ],
          [
            [
              [
                116.3520381156894,
                40.01127418090675
              ],
              [
                116.35207276464487,
                40.01176878513375
              ],
              [
                116.35156894138318,
                40.011789652895956
              ],
              [
                116.35153429605803,
                40.011295048549
              ],
              [
                116.3520381156894,
                40.01127418090675
              ]
            ]
          ],
          [
            [
              [
                116.34528394098776,
                40.012308550163816
              ],
              [
                116.34530246168582,
                40.012573299149764
              ],
              [
                116.3446975839558,
                40.012598316407
              ],
              [
                116.34467906559084,
                40.01233356734429
              ],
              [
                116.34528394098776,
                40.012308550163816
              ]
            ]
          ],
          [
            [
              [
                116.3499460452641,
                40.01227856667852
              ],
              [
                116.34998407999774,
                40.01282173251031
              ],
              [
                116.34911395296112,
                40.01285775436068
              ],
              [
                116.34907592511313,
                40.0123145883017
              ],
              [
                116.3499460452641,
                40.01227856667852
              ]
            ]
          ],
          [
            [
              [
                116.35151075842309,
                40.0122735935405
              ],
              [
                116.3515370134129,
                40.01264841365607
              ],
              [
                116.35071741259941,
                40.01268235510111
              ],
              [
                116.35069116208524,
                40.01230753483769
              ],
              [
                116.35151075842309,
                40.0122735935405
              ]
            ]
          ],
          [
            [
              [
                116.35289918653585,
                40.01238269620456
              ],
              [
                116.35292953223895,
                40.012815789393144
              ],
              [
                116.35228676203586,
                40.01284241606107
              ],
              [
                116.35225642038841,
                40.012409322738385
              ],
              [
                116.35289918653585,
                40.01238269620456
              ]
            ]
          ],
          [
            [
              [
                116.34481716131303,
                40.013416626246176
              ],
              [
                116.34484587105914,
                40.013827059129824
              ],
              [
                116.3437483692552,
                40.01387244323618
              ],
              [
                116.34371966607205,
                40.01346201013669
              ],
              [
                116.34481716131303,
                40.013416626246176
              ]
            ]
          ],
          [
            [
              [
                116.34609008004263,
                40.013358517935295
              ],
              [
                116.34611404051469,
                40.01370096479742
              ],
              [
                116.34553441519118,
                40.01372494129387
              ],
              [
                116.34551045761108,
                40.01338249433653
              ],
              [
                116.34609008004263,
                40.013358517935295
              ]
            ]
          ],
          [
            [
              [
                116.34919637934829,
                40.01334194612766
              ],
              [
                116.3492273819717,
                40.013784752269046
              ],
              [
                116.34848986854607,
                40.013815279208224
              ],
              [
                116.34845887068072,
                40.01337247290991
              ],
              [
                116.34919637934829,
                40.01334194612766
              ]
            ]
          ],
          [
            [
              [
                116.35092827398768,
                40.013399946672976
              ],
              [
                116.35096246229932,
                40.01388807617574
              ],
              [
                116.34987127832338,
                40.013933256769995
              ],
              [
                116.34983709777201,
                40.01344512701103
              ],
              [
                116.35092827398768,
                40.013399946672976
              ]
            ]
          ],
          [
            [
              [
                116.35224463934,
                40.01331098668643
              ],
              [
                116.35227906380935,
                40.01380235329057
              ],
              [
                116.35116261979582,
                40.01384859244803
              ],
              [
                116.35112820331899,
                40.013357225579796
              ],
              [
                116.35224463934,
                40.01331098668643
              ]
            ]
          ],
          [
            [
              [
                116.3441427565023,
                40.014516638940535
              ],
              [
                116.34418051977302,
                40.015056568687605
              ],
              [
                116.34332299321005,
                40.015092024478975
              ],
              [
                116.34328523668549,
                40.01455209451012
              ],
              [
                116.3441427565023,
                40.014516638940535
              ]
            ]
          ],
          [
            [
              [
                116.34538883297246,
                40.01443791938792
              ],
              [
                116.34541890541954,
                40.01486777659798
              ],
              [
                116.34478874488639,
                40.01489383904404
              ],
              [
                116.34475867638609,
                40.01446398170413
              ],
              [
                116.34538883297246,
                40.01443791938792
              ]
            ]
          ],
          [
            [
              [
                116.34995755915571,
                40.01459504120596
              ],
              [
                116.3499853932932,
                40.01499252333949
              ],
              [
                116.34898892583566,
                40.015033773367826
              ],
              [
                116.34896109746907,
                40.01463629104388
              ],
              [
                116.34995755915571,
                40.01459504120596
              ]
            ]
          ],
          [
            [
              [
                116.35136279028642,
                40.01439048325662
              ],
              [
                116.35140174429013,
                40.01494659815987
              ],
              [
                116.3504305407235,
                40.01498681440142
              ],
              [
                116.35039159458906,
                40.01443069923829
              ],
              [
                116.35136279028642,
                40.01439048325662
              ]
            ]
          ],
          [
            [
              [
                116.35298843181701,
                40.014583732364066
              ],
              [
                116.35302603802005,
                40.01512042237199
              ],
              [
                116.35220640821362,
                40.01515437410438
              ],
              [
                116.35216880841979,
                40.01461768388457
              ],
              [
                116.35298843181701,
                40.014583732364066
              ]
            ]
          ],
          [
            [
              [
                116.34914554003593,
                40.015534005467515
              ],
              [
                116.34918288986921,
                40.016067458986825
              ],
              [
                116.34838219441724,
                40.01610059927852
              ],
              [
                116.34834485080759,
                40.015567145553966
              ],
              [
                116.34914554003593,
                40.015534005467515
              ]
            ]
          ],
          [
            [
              [
                116.35060651223553,
                40.015729929534665
              ],
              [
                116.35063707137327,
                40.016166260379805
              ],
              [
                116.34996269026799,
                40.01619418140714
              ],
              [
                116.34993213541775,
                40.015757850420464
              ],
              [
                116.35060651223553,
                40.015729929534665
              ]
            ]
          ],
          [
            [
              [
                116.35199601578987,
                40.01566337535235
              ],
              [
                116.35201592398988,
                40.01594754777018
              ],
              [
                116.351265756827,
                40.01597861535034
              ],
              [
                116.35124585173311,
                40.01569444282988
              ],
              [
                116.35199601578987,
                40.01566337535235
              ]
            ]
          ],
          [
            [
              [
                116.35352061905768,
                40.015754089131846
              ],
              [
                116.35355369241576,
                40.01622603080527
              ],
              [
                116.35260141895614,
                40.016265480102696
              ],
              [
                116.35256835214635,
                40.01579353821271
              ],
              [
                116.35352061905768,
                40.015754089131846
              ]
            ]
          ],
          [
            [
              [
                116.3498774033776,
                40.01688435588582
              ],
              [
                116.349895942834,
                40.01714910408117
              ],
              [
                116.34928471019451,
                40.017174406417055
              ],
              [
                116.34926617309608,
                40.01690965814391
              ],
              [
                116.3498774033776,
                40.01688435588582
              ]
            ]
          ],
          [
            [
              [
                116.3515314237064,
                40.016984575774046
              ],
              [
                116.35155337135129,
                40.01729788485983
              ],
              [
                116.35057581865436,
                40.01733836359224
              ],
              [
                116.35055387547231,
                40.01702505435903
              ],
              [
                116.3515314237064,
                40.016984575774046
              ]
            ]
          ],
          [
            [
              [
                116.3527218304174,
                40.016816602986424
              ],
              [
                116.35275784762726,
                40.01733063103089
              ],
              [
                116.35209608744569,
                40.0173580411425
              ],
              [
                116.35206007519243,
                40.01684401293417
              ],
              [
                116.3527218304174,
                40.016816602986424
              ]
            ]
          ],
          [
            [
              [
                116.34481717437141,
                40.01805671152272
              ],
              [
                116.34484248862346,
                40.018418582836674
              ],
              [
                116.34411755565385,
                40.01844855913094
              ],
              [
                116.34409224522454,
                40.01808668769126
              ],
              [
                116.34481717437141,
                40.01805671152272
              ]
            ]
          ],
          [
            [
              [
                116.34630470672907,
                40.017944487064675
              ],
              [
                116.34632640416345,
                40.018254559484426
              ],
              [
                116.34537409913428,
                40.01829394911626
              ],
              [
                116.34535240600277,
                40.017983876554865
              ],
              [
                116.34630470672907,
                40.017944487064675
              ]
            ]
          ],
          [
            [
              [
                116.3489016265182,
                40.017914831860345
              ],
              [
                116.34893648219192,
                40.01841267371684
              ],
              [
                116.3484073454402,
                40.01843457295276
              ],
              [
                116.34837249360513,
                40.01793673096969
              ],
              [
                116.3489016265182,
                40.017914831860345
              ]
            ]
          ],
          [
            [
              [
                116.3506472392455,
                40.01803268145607
              ],
              [
                116.3506789332053,
                40.018485199167806
              ],
              [
                116.34988452602312,
                40.01851808810033
              ],
              [
                116.3498528373017,
                40.01806557021566
              ],
              [
                116.3506472392455,
                40.01803268145607
              ]
            ]
          ],
          [
            [
              [
                116.35210934467779,
                40.01782939775816
              ],
              [
                116.35214898677239,
                40.018395224362465
              ],
              [
                116.3510893113466,
                40.018439107889854
              ],
              [
                116.35104967798914,
                40.017873280996895
              ],
              [
                116.35210934467779,
                40.01782939775816
              ]
            ]
          ],
          [
            [
              [
                116.35358143569195,
                40.01804145407458
              ],
              [
                116.3536172329902,
                40.018552244396666
              ],
              [
                116.35299967297748,
                40.01857782789932
              ],
              [
                116.35296388027581,
                40.01806703742521
              ],
              [
                116.35358143569195,
                40.01804145407458
              ]
            ]
          ],
          [
            [
              [
                116.34546411056661,
                40.01905278980022
              ],
              [
                116.34549214658136,
                40.01945350992907
              ],
              [
                116.34445139954244,
                40.01949654891235
              ],
              [
                116.34442336960518,
                40.01909582858353
              ],
              [
                116.34546411056661,
                40.01905278980022
              ]
            ]
          ],
          [
            [
              [
                116.34983172245155,
                40.01919997971794
              ],
              [
                116.34985661012817,
                40.019555375263124
              ],
              [
                116.34916956326,
                40.019583814309485
              ],
              [
                116.34914467914162,
                40.0192284186469
              ],
              [
                116.34983172245155,
                40.01919997971794
              ]
            ]
          ],
          [
            [
              [
                116.35122166528525,
                40.01909529253213
              ],
              [
                116.35124542626623,
                40.019434500809595
              ],
              [
                116.35069733407788,
                40.01945719504853
              ],
              [
                116.35067357580614,
                40.01911798668159
              ],
              [
                116.35122166528525,
                40.01909529253213
              ]
            ]
          ],
          [
            [
              [
                116.35255555131474,
                40.01893708084549
              ],
              [
                116.35259043397862,
                40.01943492173091
              ],
              [
                116.35205497422858,
                40.019457099174986
              ],
              [
                116.35202009544928,
                40.01895925816114
              ],
              [
                116.35255555131474,
                40.01893708084549
              ]
            ]
          ],
          [
            [
              [
                116.34541941334628,
                40.021357903424715
              ],
              [
                116.34545515114381,
                40.02186869550224
              ],
              [
                116.34483124246805,
                40.02189449641139
              ],
              [
                116.344795509315,
                40.02138370418103
              ],
              [
                116.34541941334628,
                40.021357903424715
              ]
            ]
          ],
          [
            [
              [
                116.34682391867815,
                40.02132475076496
              ],
              [
                116.34684380673714,
                40.02160892363587
              ],
              [
                116.34608094312603,
                40.0216404796932
              ],
              [
                116.34606105822643,
                40.02135630671824
              ],
              [
                116.34682391867815,
                40.02132475076496
              ]
            ]
          ],
          [
            [
              [
                116.34959588154494,
                40.02123438573779
              ],
              [
                116.34963074363027,
                40.02173222715506
              ],
              [
                116.34911421392339,
                40.021753606509634
              ],
              [
                116.34907935558567,
                40.02125576496873
              ],
              [
                116.34959588154494,
                40.02123438573779
              ]
            ]
          ],
          [
            [
              [
                116.35147426479563,
                40.02146399568
              ],
              [
                116.35149734730899,
                40.02179349156925
              ],
              [
                116.35039972135053,
                40.02183893762506
              ],
              [
                116.35037664410793,
                40.021509441561754
              ],
              [
                116.35147426479563,
                40.02146399568
              ]
            ]
          ],
          [
            [
              [
                116.35253742619042,
                40.02135124749835
              ],
              [
                116.35255643059756,
                40.02162246996287
              ],
              [
                116.35191357759479,
                40.02164909386183
              ],
              [
                116.35189457572861,
                40.02137787131333
              ],
              [
                116.35253742619042,
                40.02135124749835
              ]
            ]
          ],
          [
            [
              [
                116.34481142909223,
                40.02234181951144
              ],
              [
                116.34483878292512,
                40.022732827306896
              ],
              [
                116.34389273128122,
                40.02277194304189
              ],
              [
                116.34386538283955,
                40.022380935069116
              ],
              [
                116.34481142909223,
                40.02234181951144
              ]
            ]
          ],
          [
            [
              [
                116.34627611260125,
                40.022406790251836
              ],
              [
                116.3463141227533,
                40.02294995615369
              ],
              [
                116.34543123265813,
                40.022986471768334
              ],
              [
                116.3453932294953,
                40.0224433056364
              ],
              [
                116.34627611260125,
                40.022406790251836
              ]
            ]
          ],
          [
            [
              [
                116.34894699056767,
                40.02250214560198
              ],
              [
                116.34897119458648,
                40.02284782888321
              ],
              [
                116.3483599107894,
                40.022873125906735
              ],
              [
                116.34833570985032,
                40.022527442523945
              ],
              [
                116.34894699056767,
                40.02250214560198
              ]
            ]
          ],
          [
            [
              [
                116.35052566168575,
                40.02232855760145
              ],
              [
                116.35056121124066,
                40.02283611092123
              ],
              [
                116.34994992802216,
                40.02286141633817
              ],
              [
                116.34991438298901,
                40.022353862869146
              ],
              [
                116.35052566168575,
                40.02232855760145
              ]
            ]
          ],
          [
            [
              [
                116.35178977877743,
                40.02249582465423
              ],
              [
                116.35182465733645,
                40.02299366543559
              ],
              [
                116.35128916954964,
                40.02301583910387
              ],
              [
                116.35125429487593,
                40.02251799819416
              ],
              [
                116.35178977877743,
                40.02249582465423
              ]
            ]
          ]
        ]
      }
    },
    {
      "type": "Feature",
      "id": "BLDG-002",
      "properties": {
        "id": "BLDG-002",
        "layer": "BUILDING_FOOTPRINT",
        "source_type": "agent_generated_design",
        "confidence": "medium",
        "geometry_role": "design_proposal",
        "building_type": "incubator",
        "name_zh": "AI原点社区孵化与转化建筑基底",
        "name_en": "AI Origin Community incubator and transfer footprints",
        "building_count": 60,
        "note_zh": "示意设计建筑基底（design_proposal），非现状建筑调查，不构成拆改留或工程结论",
        "area_sqm_declared": 58600
      },
      "geometry": {
        "type": "MultiPolygon",
        "coordinates": [
          [
            [
              [
                116.34343037879556,
                39.983663827236114
              ],
              [
                116.34343843908404,
                39.98388888873583
              ],
              [
                116.3430300113323,
                39.98389754384296
              ],
              [
                116.3430219523838,
                39.98367248232602
              ],
              [
                116.34343037879556,
                39.983663827236114
              ]
            ]
          ],
          [
            [
              [
                116.34434303305885,
                39.98353575054655
              ],
              [
                116.34435516024043,
                39.98387424298696
              ],
              [
                116.34377119067646,
                39.98388662223287
              ],
              [
                116.34375906637636,
                39.98354812975538
              ],
              [
                116.34434303305885,
                39.98353575054655
              ]
            ]
          ],
          [
            [
              [
                116.34507543371348,
                39.98368204588845
              ],
              [
                116.34508201531288,
                39.983865696014504
              ],
              [
                116.34464550112075,
                39.98387495245538
              ],
              [
                116.34463892068996,
                39.98369130231426
              ],
              [
                116.34507543371348,
                39.98368204588845
              ]
            ]
          ],
          [
            [
              [
                116.34602201976227,
                39.98363252454994
              ],
              [
                116.34602873299497,
                39.98381977562637
              ],
              [
                116.34557115416187,
                39.98382948245838
              ],
              [
                116.34556444217817,
                39.98364223136581
              ],
              [
                116.34602201976227,
                39.98363252454994
              ]
            ]
          ],
          [
            [
              [
                116.34856002731487,
                39.98364774130884
              ],
              [
                116.34856875061142,
                39.98389080748954
              ],
              [
                116.34802691142916,
                39.98390231344496
              ],
              [
                116.34801819005251,
                39.98365924723935
              ],
              [
                116.34856002731487,
                39.98364774130884
              ]
            ]
          ],
          [
            [
              [
                116.3492184527615,
                39.98362495325795
              ],
              [
                116.34922595033579,
                39.98383381009922
              ],
              [
                116.34894391338264,
                39.983839801078155
              ],
              [
                116.34893641666702,
                39.98363094422572
              ],
              [
                116.3492184527615,
                39.98362495325795
              ]
            ]
          ],
          [
            [
              [
                116.35020988128849,
                39.983700489650374
              ],
              [
                116.35021718790637,
                39.9839039449802
              ],
              [
                116.34963321874724,
                39.98391635376791
              ],
              [
                116.34962591386133,
                39.98371289841556
              ],
              [
                116.35020988128849,
                39.983700489650374
              ]
            ]
          ],
          [
            [
              [
                116.35182397075253,
                39.983664810202946
              ],
              [
                116.35183218799769,
                39.983893472317284
              ],
              [
                116.35140620670181,
                39.983902530246496
              ],
              [
                116.35139799087659,
                39.98367386811366
              ],
              [
                116.35182397075253,
                39.983664810202946
              ]
            ]
          ],
          [
            [
              [
                116.352595063056,
                39.983624355602416
              ],
              [
                116.35260418899352,
                39.983878224527224
              ],
              [
                116.35233268454287,
                39.98388399970335
              ],
              [
                116.35232355961011,
                39.983630130765434
              ],
              [
                116.352595063056,
                39.983624355602416
              ]
            ]
          ],
          [
            [
              [
                116.34304658329818,
                39.984230486665524
              ],
              [
                116.34305805942662,
                39.984550974231475
              ],
              [
                116.3426110080783,
                39.98456044615175
              ],
              [
                116.34259953403846,
                39.98423995855892
              ],
              [
                116.34304658329818,
                39.984230486665524
              ]
            ]
          ],
          [
            [
              [
                116.34388878067291,
                39.98437432001533
              ],
              [
                116.3438964555482,
                39.984588578518945
              ],
              [
                116.34358281731814,
                39.98459522618906
              ],
              [
                116.34357514342248,
                39.98438096767283
              ],
              [
                116.34388878067291,
                39.98437432001533
              ]
            ]
          ],
          [
            [
              [
                116.34466700323622,
                39.984324959205665
              ],
              [
                116.34467377732572,
                39.98451401080033
              ],
              [
                116.34419863938123,
                39.98452408438504
              ],
              [
                116.34419186660118,
                39.984335032773515
              ],
              [
                116.34466700323622,
                39.984324959205665
              ]
            ]
          ],
          [
            [
              [
                116.3455593283873,
                39.98421511528193
              ],
              [
                116.34556959002157,
                39.98450139336487
              ],
              [
                116.34504530005589,
                39.98451251298754
              ],
              [
                116.34503504060963,
                39.98422623487635
              ],
              [
                116.3455593283873,
                39.98421511528193
              ]
            ]
          ],
          [
            [
              [
                116.34808469064804,
                39.98433432620449
              ],
              [
                116.34809302468317,
                39.98456658943857
              ],
              [
                116.34763895191988,
                39.98457622984902
              ],
              [
                116.34763061942219,
                39.98434396659502
              ],
              [
                116.34808469064804,
                39.98433432620449
              ]
            ]
          ],
          [
            [
              [
                116.34893757306317,
                39.98426422882371
              ],
              [
                116.34894707327678,
                39.98452890084002
              ],
              [
                116.3485842834498,
                39.98453660604844
              ],
              [
                116.34857478463597,
                39.98427193401398
              ],
              [
                116.34893757306317,
                39.98426422882371
              ]
            ]
          ],
          [
            [
              [
                116.34983026851981,
                39.984349926576726
              ],
              [
                116.34983679824373,
                39.98453177602468
              ],
              [
                116.34942485629499,
                39.984540528240196
              ],
              [
                116.34941832766309,
                39.98435867877805
              ],
              [
                116.34983026851981,
                39.984349926576726
              ]
            ]
          ],
          [
            [
              [
                116.35164020622362,
                39.984306474358384
              ],
              [
                116.3516508167483,
                39.98460175454603
              ],
              [
                116.35104577657627,
                39.984614618325494
              ],
              [
                116.35103516865597,
                39.984319338103916
              ],
              [
                116.35164020622362,
                39.984306474358384
              ]
            ]
          ],
          [
            [
              [
                116.35224223170638,
                39.98431343468582
              ],
              [
                116.35224850896844,
                39.98448808209514
              ],
              [
                116.3518822087236,
                39.984495872303235
              ],
              [
                116.35187593239411,
                39.98432122488175
              ],
              [
                116.35224223170638,
                39.98431343468582
              ]
            ]
          ],
          [
            [
              [
                116.34340801301224,
                39.98494456590668
              ],
              [
                116.34341446125534,
                39.98512461506925
              ],
              [
                116.34300602614069,
                39.9851332700305
              ],
              [
                116.34299957896961,
                39.98495322085414
              ],
              [
                116.34340801301224,
                39.98494456590668
              ]
            ]
          ],
          [
            [
              [
                116.34430882990216,
                39.98502889683294
              ],
              [
                116.3443154095283,
                39.98521254694448
              ],
              [
                116.34388590851314,
                39.98522165158939
              ],
              [
                116.34387933003691,
                39.98503800146303
              ],
              [
                116.34430882990216,
                39.98502889683294
              ]
            ]
          ],
          [
            [
              [
                116.34521619197267,
                39.98496898566432
              ],
              [
                116.34522290308578,
                39.98515623672771
              ],
              [
                116.344758293454,
                39.98516608919315
              ],
              [
                116.34475158360917,
                39.98497883811339
              ],
              [
                116.34521619197267,
                39.98496898566432
              ]
            ]
          ],
          [
            [
              [
                116.34842270657178,
                39.984976656296524
              ],
              [
                116.34843188178733,
                39.9852323258583
              ],
              [
                116.34814632813244,
                39.98523838940434
              ],
              [
                116.34813715398118,
                39.984982719828736
              ],
              [
                116.34842270657178,
                39.984976656296524
              ]
            ]
          ],
          [
            [
              [
                116.34931892148836,
                39.98506228349073
              ],
              [
                116.34932512670905,
                39.98523513048731
              ],
              [
                116.34898339860469,
                39.98524238941348
              ],
              [
                116.34897719424507,
                39.985069542405704
              ],
              [
                116.34931892148836,
                39.98506228349073
              ]
            ]
          ],
          [
            [
              [
                116.35028218768772,
                39.984909258213186
              ],
              [
                116.35029440900405,
                39.98524955067818
              ],
              [
                116.34969989567499,
                39.98526218354454
              ],
              [
                116.34968767730793,
                39.984921891041196
              ],
              [
                116.35028218768772,
                39.984909258213186
              ]
            ]
          ],
          [
            [
              [
                116.35180991577812,
                39.98497585837993
              ],
              [
                116.35182072120857,
                39.985276539990636
              ],
              [
                116.35152463483892,
                39.98528283583668
              ],
              [
                116.35151383070632,
                39.98498215420905
              ],
              [
                116.35180991577812,
                39.98497585837993
              ]
            ]
          ],
          [
            [
              [
                116.34381007509943,
                39.9854906877822
              ],
              [
                116.34382136144616,
                39.98580577375992
              ],
              [
                116.34341292230552,
                39.98581443012168
              ],
              [
                116.34340163783493,
                39.985499344119816
              ],
              [
                116.34381007509943,
                39.9854906877822
              ]
            ]
          ],
          [
            [
              [
                116.34473576254965,
                39.985607826896754
              ],
              [
                116.34474434340771,
                39.98584729219426
              ],
              [
                116.34422355400748,
                39.985858333568885
              ],
              [
                116.34421497496753,
                39.98561886824794
              ],
              [
                116.34473576254965,
                39.985607826896754
              ]
            ]
          ],
          [
            [
              [
                116.34549241177983,
                39.985568928712944
              ],
              [
                116.34549983359835,
                39.98577598514511
              ],
              [
                116.34523183219655,
                39.98578166915311
              ],
              [
                116.34522441118698,
                39.9855746127105
              ],
              [
                116.34549241177983,
                39.985568928712944
              ]
            ]
          ],
          [
            [
              [
                116.34814652437788,
                39.98561824171933
              ],
              [
                116.34815660312238,
                39.98589911812339
              ],
              [
                116.34767092307517,
                39.98590942950925
              ],
              [
                116.34766084631939,
                39.98562855307941
              ],
              [
                116.34814652437788,
                39.98561824171933
              ]
            ]
          ],
          [
            [
              [
                116.34892302485059,
                39.985582235004344
              ],
              [
                116.34893485172776,
                39.98591172458349
              ],
              [
                116.34842108413868,
                39.98592263567818
              ],
              [
                116.34840925972935,
                39.98559314606702
              ],
              [
                116.34892302485059,
                39.985582235004344
              ]
            ]
          ],
          [
            [
              [
                116.34973642798568,
                39.98564191140008
              ],
              [
                116.34974761228445,
                39.98595339603268
              ],
              [
                116.34937428214991,
                39.985961327438964
              ],
              [
                116.3493630995464,
                39.98564984278432
              ],
              [
                116.34973642798568,
                39.98564191140008
              ]
            ]
          ],
          [
            [
              [
                116.35144987403423,
                39.98571973936081
              ],
              [
                116.35145634344097,
                39.985899788221474
              ],
              [
                116.35105843715455,
                39.985908247586266
              ],
              [
                116.35105196879225,
                39.98572819871201
              ],
              [
                116.35144987403423,
                39.98571973936081
              ]
            ]
          ],
          [
            [
              [
                116.35230939988679,
                39.985609681657145
              ],
              [
                116.35232014285324,
                39.98590856271849
              ],
              [
                116.35204160847206,
                39.98591448649354
              ],
              [
                116.35203086671925,
                39.98561560541636
              ],
              [
                116.35230939988679,
                39.985609681657145
              ]
            ]
          ],
          [
            [
              [
                116.34353336739721,
                39.986202467598716
              ],
              [
                116.34354065436858,
                39.98640592310422
              ],
              [
                116.34296017412022,
                39.9864182236756
              ],
              [
                116.34295288887061,
                39.98621476814796
              ],
              [
                116.34353336739721,
                39.986202467598716
              ]
            ]
          ],
          [
            [
              [
                116.34421588460431,
                39.98628162358397
              ],
              [
                116.34422330261548,
                39.98648868004203
              ],
              [
                116.3439658312812,
                39.98649413781395
              ],
              [
                116.34395841404722,
                39.98628708134588
              ],
              [
                116.34421588460431,
                39.98628162358397
              ]
            ]
          ],
          [
            [
              [
                116.34521249463273,
                39.98619068814253
              ],
              [
                116.34522236781706,
                39.98646616320624
              ],
              [
                116.34478232610883,
                39.986475494483294
              ],
              [
                116.34477245469175,
                39.98620001939676
              ],
              [
                116.34521249463273,
                39.98619068814253
              ]
            ]
          ],
          [
            [
              [
                116.34584562826221,
                39.98622938694951
              ],
              [
                116.34585640765883,
                39.98653006884269
              ],
              [
                116.34557084845757,
                39.98653612599668
              ],
              [
                116.34556007031269,
                39.98623544408733
              ],
              [
                116.34584562826221,
                39.98622938694951
              ]
            ]
          ],
          [
            [
              [
                116.34855688620635,
                39.986320786407845
              ],
              [
                116.34856651436515,
                39.98658905933101
              ],
              [
                116.34817562580723,
                39.986597359643355
              ],
              [
                116.34816599917727,
                39.98632908670037
              ],
              [
                116.34855688620635,
                39.986320786407845
              ]
            ]
          ],
          [
            [
              [
                116.34931061451572,
                39.98620149531152
              ],
              [
                116.34932218476791,
                39.986523782875295
              ],
              [
                116.34886107720665,
                39.98653357713285
              ],
              [
                116.34884950912097,
                39.98621128954093
              ],
              [
                116.34931061451572,
                39.98620149531152
              ]
            ]
          ],
          [
            [
              [
                116.3502153392527,
                39.98632316551886
              ],
              [
                116.35022400396728,
                39.98656443102404
              ],
              [
                116.34969267674849,
                39.986575720764634
              ],
              [
                116.34968401390277,
                39.98633445523516
              ],
              [
                116.3502153392527,
                39.98632316551886
              ]
            ]
          ],
          [
            [
              [
                116.35188463409246,
                39.98622631701107
              ],
              [
                116.35189317526167,
                39.98646398146574
              ],
              [
                116.35139344769561,
                39.986474607063194
              ],
              [
                116.35138490825788,
                39.986236942585954
              ],
              [
                116.35188463409246,
                39.98622631701107
              ]
            ]
          ],
          [
            [
              [
                116.34301533033424,
                39.98692667093361
              ],
              [
                116.34302596843867,
                39.987223751972365
              ],
              [
                116.34276147226205,
                39.987229355827786
              ],
              [
                116.34275083530322,
                39.9869322747743
              ],
              [
                116.34301533033424,
                39.98692667093361
              ]
            ]
          ],
          [
            [
              [
                116.34370596439416,
                39.98688898387512
              ],
              [
                116.34371499319595,
                39.98714105260459
              ],
              [
                116.34345751938666,
                39.98714650922658
              ],
              [
                116.34344849153108,
                39.98689444048493
              ],
              [
                116.34370596439416,
                39.98688898387512
              ]
            ]
          ],
          [
            [
              [
                116.34464136163359,
                39.986880532009046
              ],
              [
                116.34464923258282,
                39.98710019186348
              ],
              [
                116.34428642885034,
                39.98710788350206
              ],
              [
                116.34427855906297,
                39.98688822363265
              ],
              [
                116.34464136163359,
                39.986880532009046
              ]
            ]
          ],
          [
            [
              [
                116.34557017806712,
                39.98695923032011
              ],
              [
                116.34557843924138,
                39.987189693073915
              ],
              [
                116.34513839291927,
                39.98719902566464
              ],
              [
                116.34513013322353,
                39.98696856289175
              ],
              [
                116.34557017806712,
                39.98695923032011
              ]
            ]
          ],
          [
            [
              [
                116.3479003849529,
                39.98691771744699
              ],
              [
                116.34790619909177,
                39.98707976150031
              ],
              [
                116.34764872571965,
                39.98708522743764
              ],
              [
                116.34764291218904,
                39.98692318337645
              ],
              [
                116.3479003849529,
                39.98691771744699
              ]
            ]
          ],
          [
            [
              [
                116.34893904716067,
                39.986921166805224
              ],
              [
                116.34894990482087,
                39.98722364897367
              ],
              [
                116.34864327685567,
                39.987230161099774
              ],
              [
                116.34863242054767,
                39.98692767891378
              ],
              [
                116.34893904716067,
                39.986921166805224
              ]
            ]
          ],
          [
            [
              [
                116.34969250288668,
                39.986891972322404
              ],
              [
                116.3496988384498,
                39.98706842023117
              ],
              [
                116.34932901323926,
                39.98707627684767
              ],
              [
                116.34932267862747,
                39.98689982892655
              ],
              [
                116.34969250288668,
                39.986891972322404
              ]
            ]
          ],
          [
            [
              [
                116.3515164870058,
                39.98684642372799
              ],
              [
                116.35152703254629,
                39.98713990330869
              ],
              [
                116.35093601396885,
                39.987152467733324
              ],
              [
                116.35092547095711,
                39.98685898811968
              ],
              [
                116.3515164870058,
                39.98684642372799
              ]
            ]
          ],
          [
            [
              [
                116.35239141142448,
                39.98697226482295
              ],
              [
                116.35239878945328,
                39.98717752044309
              ],
              [
                116.35179372663802,
                39.98719038794121
              ],
              [
                116.35178635041983,
                39.98698513229746
              ],
              [
                116.35239141142448,
                39.98697226482295
              ]
            ]
          ],
          [
            [
              [
                116.34597910579983,
                39.98762615876551
              ],
              [
                116.34598691653655,
                39.987844018046246
              ],
              [
                116.34564517520889,
                39.987851267019174
              ],
              [
                116.34563736555765,
                39.98763340772442
              ],
              [
                116.34597910579983,
                39.98762615876551
              ]
            ]
          ],
          [
            [
              [
                116.34849412396676,
                39.98758927075353
              ],
              [
                116.3485032996661,
                39.98784494019975
              ],
              [
                116.34821071305421,
                39.987851152928584
              ],
              [
                116.34820153844547,
                39.987595483468226
              ],
              [
                116.34849412396676,
                39.98758927075353
              ]
            ]
          ],
          [
            [
              [
                116.34943454745378,
                39.987546529738054
              ],
              [
                116.34944152881431,
                39.987740982523476
              ],
              [
                116.34892423653321,
                39.98775197032156
              ],
              [
                116.3489172566392,
                39.987557517517075
              ],
              [
                116.34943454745378,
                39.987546529738054
              ]
            ]
          ],
          [
            [
              [
                116.35013456031955,
                39.987554843049004
              ],
              [
                116.35014568196067,
                39.98786452706928
              ],
              [
                116.34978287456678,
                39.98787223588489
              ],
              [
                116.34977175456372,
                39.98756255184333
              ],
              [
                116.35013456031955,
                39.987554843049004
              ]
            ]
          ],
          [
            [
              [
                116.35107009458942,
                39.98749221036535
              ],
              [
                116.35108160856305,
                39.98781269726166
              ],
              [
                116.35063453663545,
                39.98782219996329
              ],
              [
                116.35062302475073,
                39.987501713039805
              ],
              [
                116.35107009458942,
                39.98749221036535
              ]
            ]
          ],
          [
            [
              [
                116.3517971867997,
                39.987638527837014
              ],
              [
                116.35180313959602,
                39.98780417272457
              ],
              [
                116.35151055334457,
                39.98781039378756
              ],
              [
                116.35150460125483,
                39.98764474889079
              ],
              [
                116.3517971867997,
                39.987638527837014
              ]
            ]
          ],
          [
            [
              [
                116.34801563802331,
                39.988245654534005
              ],
              [
                116.34802519962665,
                39.98851212690953
              ],
              [
                116.34765185543455,
                39.988520052650806
              ],
              [
                116.34764229528173,
                39.98825358025648
              ],
              [
                116.34801563802331,
                39.988245654534005
              ]
            ]
          ],
          [
            [
              [
                116.34889275580133,
                39.98819379986496
              ],
              [
                116.34890109286586,
                39.98842606291251
              ],
              [
                116.34844348354201,
                39.98843578083344
              ],
              [
                116.3484351480271,
                39.988203517765776
              ],
              [
                116.34889275580133,
                39.98819379986496
              ]
            ]
          ],
          [
            [
              [
                116.34970126912813,
                39.988278917054416
              ],
              [
                116.34970818664182,
                39.988471569317525
              ],
              [
                116.34920844423098,
                39.98848218537051
              ],
              [
                116.34920152812096,
                39.988289533089166
              ],
              [
                116.34970126912813,
                39.988278917054416
              ]
            ]
          ],
          [
            [
              [
                116.35158350589302,
                39.98827044763029
              ],
              [
                116.35159398715777,
                39.98856212664936
              ],
              [
                116.35102753385033,
                39.9885741688836
              ],
              [
                116.35101705499447,
                39.988282489833146
              ],
              [
                116.35158350589302,
                39.98827044763029
              ]
            ]
          ]
        ]
      }
    },
    {
      "type": "Feature",
      "id": "BLDG-003",
      "properties": {
        "id": "BLDG-003",
        "layer": "BUILDING_FOOTPRINT",
        "source_type": "agent_generated_design",
        "confidence": "medium",
        "geometry_role": "design_proposal",
        "building_type": "office",
        "name_zh": "大钟寺智能经济办公建筑基底",
        "name_en": "Dazhongsi intelligent-economy office footprints",
        "building_count": 26,
        "note_zh": "示意设计建筑基底（design_proposal），非现状建筑调查，不构成拆改留或工程结论",
        "area_sqm_declared": 79500
      },
      "geometry": {
        "type": "MultiPolygon",
        "coordinates": [
          [
            [
              [
                116.34265687318033,
                39.94412001712756
              ],
              [
                116.34267266130804,
                39.94438992177878
              ],
              [
                116.3422051147304,
                39.94440612382554
              ],
              [
                116.34218932843804,
                39.94413621912629
              ],
              [
                116.34265687318033,
                39.94412001712756
              ]
            ]
          ],
          [
            [
              [
                116.3440324384961,
                39.94419425796008
              ],
              [
                116.34405395986586,
                39.94456204782798
              ],
              [
                116.34333393663438,
                39.94458700676284
              ],
              [
                116.3433124191161,
                39.94421921679402
              ],
              [
                116.3440324384961,
                39.94419425796008
              ]
            ]
          ],
          [
            [
              [
                116.3450503223893,
                39.94401700680168
              ],
              [
                116.34508027457957,
                39.94452874554374
              ],
              [
                116.34436025198323,
                39.94455371085881
              ],
              [
                116.34433030515181,
                39.944041971976255
              ],
              [
                116.3450503223893,
                39.94401700680168
              ]
            ]
          ],
          [
            [
              [
                116.34607522148455,
                39.94418934687108
              ],
              [
                116.34609607959257,
                39.94454562053249
              ],
              [
                116.34548826843,
                39.944566700770544
              ],
              [
                116.34546741347143,
                39.94421042702649
              ],
              [
                116.34607522148455,
                39.94418934687108
              ]
            ]
          ],
          [
            [
              [
                116.35305193938633,
                39.94414032134294
              ],
              [
                116.35308228895265,
                39.944657816426584
              ],
              [
                116.35228512202823,
                39.94468551136822
              ],
              [
                116.35225477846157,
                39.944168016126305
              ],
              [
                116.35305193938633,
                39.94414032134294
              ]
            ]
          ],
          [
            [
              [
                116.35414021781341,
                39.94429666734601
              ],
              [
                116.3541595977956,
                39.94462702915502
              ],
              [
                116.35309593011522,
                39.944663991485356
              ],
              [
                116.35307655524356,
                39.9443336295414
              ],
              [
                116.35414021781341,
                39.94429666734601
              ]
            ]
          ],
          [
            [
              [
                116.35355887043656,
                39.944936800357254
              ],
              [
                116.35358956182957,
                39.94546005321095
              ],
              [
                116.35275731933723,
                39.945488969840795
              ],
              [
                116.35272663427774,
                39.94496571681992
              ],
              [
                116.35355887043656,
                39.944936800357254
              ]
            ]
          ],
          [
            [
              [
                116.3428550152315,
                39.9459213272942
              ],
              [
                116.34287989909808,
                39.94634669685935
              ],
              [
                116.34227908463257,
                39.94636751707234
              ],
              [
                116.34225420448317,
                39.94594214740991
              ],
              [
                116.3428550152315,
                39.9459213272942
              ]
            ]
          ],
          [
            [
              [
                116.3463176298528,
                39.94590135597832
              ],
              [
                116.34633730966642,
                39.94623747666025
              ],
              [
                116.34520347997118,
                39.946276798960604
              ],
              [
                116.3451838057006,
                39.94594067813322
              ],
              [
                116.3463176298528,
                39.94590135597832
              ]
            ]
          ],
          [
            [
              [
                116.34747442320048,
                39.946007135688454
              ],
              [
                116.34749259118361,
                39.94631734542459
              ],
              [
                116.34662526939395,
                39.94634743459402
              ],
              [
                116.3466071053241,
                39.946037224755095
              ],
              [
                116.34747442320048,
                39.946007135688454
              ]
            ]
          ],
          [
            [
              [
                116.35055893788451,
                39.945913019052625
              ],
              [
                116.3505789759526,
                39.94625489712684
              ],
              [
                116.35010440473626,
                39.946271374460714
              ],
              [
                116.35008436902797,
                39.94592949632435
              ],
              [
                116.35055893788451,
                39.945913019052625
              ]
            ]
          ],
          [
            [
              [
                116.35293359232621,
                39.945865763026916
              ],
              [
                116.35295685020792,
                39.94626234122752
              ],
              [
                116.35195627699353,
                39.946297099875885
              ],
              [
                116.35193302488315,
                39.94590052152302
              ],
              [
                116.35293359232621,
                39.945865763026916
              ]
            ]
          ],
          [
            [
              [
                116.3538406945838,
                39.94598022558377
              ],
              [
                116.35386497101821,
                39.946394077453206
              ],
              [
                116.35339741282115,
                39.946410324544885
              ],
              [
                116.35337313920107,
                39.94599647260112
              ],
              [
                116.3538406945838,
                39.94598022558377
              ]
            ]
          ],
          [
            [
              [
                116.34454447686466,
                39.94678435124058
              ],
              [
                116.34456970842422,
                39.94721547842607
              ],
              [
                116.3439127788698,
                39.94723825228922
              ],
              [
                116.34388755142973,
                39.94680712499578
              ],
              [
                116.34454447686466,
                39.94678435124058
              ]
            ]
          ],
          [
            [
              [
                116.34556840210053,
                39.946706166646884
              ],
              [
                116.34559262885952,
                39.947120019797104
              ],
              [
                116.34510402380158,
                39.94713696303854
              ],
              [
                116.3450797999838,
                39.94672310981117
              ],
              [
                116.34556840210053,
                39.946706166646884
              ]
            ]
          ],
          [
            [
              [
                116.34670747184887,
                39.946732251733046
              ],
              [
                116.34672529934892,
                39.947036703570106
              ],
              [
                116.34590004898365,
                39.947065327499736
              ],
              [
                116.34588222513807,
                39.946760875566746
              ],
              [
                116.34670747184887,
                39.946732251733046
              ]
            ]
          ],
          [
            [
              [
                116.35415863046413,
                39.94773227584081
              ],
              [
                116.35417784238527,
                39.9480597584918
              ],
              [
                116.35313516216345,
                39.94809598952055
              ],
              [
                116.35311595520895,
                39.94776850673842
              ],
              [
                116.35415863046413,
                39.94773227584081
              ]
            ]
          ],
          [
            [
              [
                116.34324860174671,
                39.948453025183795
              ],
              [
                116.34326927773618,
                39.94880642000423
              ],
              [
                116.34267545548175,
                39.948826999011835
              ],
              [
                116.34265478254484,
                39.94847360411146
              ],
              [
                116.34324860174671,
                39.948453025183795
              ]
            ]
          ],
          [
            [
              [
                116.34457437834722,
                39.94832761535719
              ],
              [
                116.34460095850017,
                39.94878177425707
              ],
              [
                116.34374061824583,
                39.948811598412426
              ],
              [
                116.34371404377649,
                39.94835743936359
              ],
              [
                116.34457437834722,
                39.94832761535719
              ]
            ]
          ],
          [
            [
              [
                116.34571856843304,
                39.94839181247043
              ],
              [
                116.34574953833736,
                39.94892082457446
              ],
              [
                116.34484711477883,
                39.94895211628572
              ],
              [
                116.34481615181872,
                39.94842310399953
              ],
              [
                116.34571856843304,
                39.94839181247043
              ]
            ]
          ],
          [
            [
              [
                116.34697498846687,
                39.9483383014078
              ],
              [
                116.34700293328402,
                39.9488154916921
              ],
              [
                116.345918156809,
                39.948853117493
              ],
              [
                116.3458902195215,
                39.94837592701101
              ],
              [
                116.34697498846687,
                39.9483383014078
              ]
            ]
          ],
          [
            [
              [
                116.35331274565866,
                39.94858928832851
              ],
              [
                116.35333279804334,
                39.94893116588521
              ],
              [
                116.35285820883257,
                39.94894765434211
              ],
              [
                116.35283815880796,
                39.94860577672315
              ],
              [
                116.35331274565866,
                39.94858928832851
              ]
            ]
          ],
          [
            [
              [
                116.34410562810045,
                39.94913789275193
              ],
              [
                116.34413725974596,
                39.949678421036126
              ],
              [
                116.34311559209091,
                39.94971383230707
              ],
              [
                116.34308396847857,
                39.949173303812444
              ],
              [
                116.34410562810045,
                39.94913789275193
              ]
            ]
          ],
          [
            [
              [
                116.34506455384185,
                39.9493459148397
              ],
              [
                116.34508709309074,
                39.949730978114005
              ],
              [
                116.34419167239122,
                39.94976202144368
              ],
              [
                116.34416913815787,
                39.94937695803788
              ],
              [
                116.34506455384185,
                39.9493459148397
              ]
            ]
          ],
          [
            [
              [
                116.34651049192207,
                39.949198130929815
              ],
              [
                116.34653877093726,
                39.949681079184465
              ],
              [
                116.34537682950929,
                39.94972137579255
              ],
              [
                116.34534855865697,
                39.94923842732367
              ],
              [
                116.34651049192207,
                39.949198130929815
              ]
            ]
          ],
          [
            [
              [
                116.34721640497847,
                39.94934032953151
              ],
              [
                116.34723743881902,
                39.94969948170774
              ],
              [
                116.34659451363231,
                39.94972178393943
              ],
              [
                116.34657348315066,
                39.94936263167498
              ],
              [
                116.34721640497847,
                39.94934032953151
              ]
            ]
          ]
        ]
      }
    },
    {
      "type": "Feature",
      "id": "BLDG-004",
      "properties": {
        "id": "BLDG-004",
        "layer": "BUILDING_FOOTPRINT",
        "source_type": "agent_generated_design",
        "confidence": "medium",
        "geometry_role": "design_proposal",
        "building_type": "mixed_use",
        "name_zh": "走廊站点复合功能建筑基底",
        "name_en": "Station-adjacent mixed-use footprints",
        "building_count": 16,
        "note_zh": "示意设计建筑基底（design_proposal），非现状建筑调查，不构成拆改留或工程结论",
        "area_sqm_declared": 19000
      },
      "geometry": {
        "type": "MultiPolygon",
        "coordinates": [
          [
            [
              [
                116.34791001074251,
                39.987062691712076
              ],
              [
                116.34792266383903,
                39.98727861346451
              ],
              [
                116.34764196104106,
                39.98728834614681
              ],
              [
                116.34762930882738,
                39.98707242437118
              ],
              [
                116.34791001074251,
                39.987062691712076
              ]
            ]
          ],
          [
            [
              [
                116.3458740498636,
                39.98784280416158
              ],
              [
                116.34588644372067,
                39.98805440761907
              ],
              [
                116.3452099416666,
                39.98807785027175
              ],
              [
                116.34519754989473,
                39.98786624675957
              ],
              [
                116.3458740498636,
                39.98784280416158
              ]
            ]
          ],
          [
            [
              [
                116.34858726490313,
                39.98778699398547
              ],
              [
                116.3486019450955,
                39.98803746312162
              ],
              [
                116.34805176159944,
                39.98805654171344
              ],
              [
                116.34803708341435,
                39.98780607252451
              ],
              [
                116.34858726490313,
                39.98778699398547
              ]
            ]
          ],
          [
            [
              [
                116.34812754411773,
                39.98835352859126
              ],
              [
                116.34814943552132,
                39.98872707310628
              ],
              [
                116.3474687167898,
                39.988750674896245
              ],
              [
                116.34744682909019,
                39.988377130283894
              ],
              [
                116.34812754411773,
                39.98835352859126
              ]
            ]
          ],
          [
            [
              [
                116.34904303547867,
                39.988554147568166
              ],
              [
                116.34905556578678,
                39.98876790995635
              ],
              [
                116.34835800435472,
                39.98879210111014
              ],
              [
                116.34834547621871,
                39.988578338664844
              ],
              [
                116.34904303547867,
                39.988554147568166
              ]
            ]
          ],
          [
            [
              [
                116.34570355192801,
                39.98919487235364
              ],
              [
                116.34571746302458,
                39.98943238640071
              ],
              [
                116.34526832401693,
                39.98944794969698
              ],
              [
                116.34525441447434,
                39.98921043560916
              ],
              [
                116.34570355192801,
                39.98919487235364
              ]
            ]
          ],
          [
            [
              [
                116.34856680058373,
                39.989116872383825
              ],
              [
                116.34858502446387,
                39.98942779951976
              ],
              [
                116.34797588036008,
                39.98944892189822
              ],
              [
                116.34795765923889,
                39.98913799468975
              ],
              [
                116.34856680058373,
                39.989116872383825
              ]
            ]
          ],
          [
            [
              [
                116.34805464682874,
                39.989777337114944
              ],
              [
                116.34806970502184,
                39.99003428386978
              ],
              [
                116.34746476611875,
                39.99005525751589
              ],
              [
                116.34744971018995,
                39.989798310701545
              ],
              [
                116.34805464682874,
                39.989777337114944
              ]
            ]
          ],
          [
            [
              [
                116.34589879967344,
                40.0214295611583
              ],
              [
                116.34590841490676,
                40.02159366088814
              ],
              [
                116.3456107206224,
                40.02160397107628
              ],
              [
                116.34560110610153,
                40.02143987132775
              ],
              [
                116.34589879967344,
                40.0214295611583
              ]
            ]
          ],
          [
            [
              [
                116.34682097447858,
                40.02135655240268
              ],
              [
                116.34683097155086,
                40.02152712969428
              ],
              [
                116.34647430056198,
                40.021539485219925
              ],
              [
                116.34646430437698,
                40.021368907905035
              ],
              [
                116.34682097447858,
                40.02135655240268
              ]
            ]
          ],
          [
            [
              [
                116.34959036764431,
                40.02138520767258
              ],
              [
                116.34960784297212,
                40.02168317780528
              ],
              [
                116.34909951595805,
                40.02170079870605
              ],
              [
                116.34908204283917,
                40.02140282851524
              ],
              [
                116.34959036764431,
                40.02138520767258
              ]
            ]
          ],
          [
            [
              [
                116.34640970287856,
                40.02206161797483
              ],
              [
                116.34642627875814,
                40.02234447399928
              ],
              [
                116.3460316891444,
                40.022358141424505
              ],
              [
                116.34601511489255,
                40.02207528535734
              ],
              [
                116.34640970287856,
                40.02206161797483
              ]
            ]
          ],
          [
            [
              [
                116.34910796415329,
                40.02197320206374
              ],
              [
                116.34912796987673,
                40.02231435630323
              ],
              [
                116.34869967929085,
                40.02232920098268
              ],
              [
                116.34867967569832,
                40.02198804668714
              ],
              [
                116.34910796415329,
                40.02197320206374
              ]
            ]
          ],
          [
            [
              [
                116.34982261512118,
                40.02191688952428
              ],
              [
                116.34984224446868,
                40.02225156606179
              ],
              [
                116.349472932054,
                40.02226436893035
              ],
              [
                116.3494533045091,
                40.0219296923454
              ],
              [
                116.34982261512118,
                40.02191688952428
              ]
            ]
          ],
          [
            [
              [
                116.34676052345883,
                40.02266806958943
              ],
              [
                116.34677659471743,
                40.02294228872411
              ],
              [
                116.34645783098337,
                40.02295333071409
              ],
              [
                116.3464417609996,
                40.022679111545955
              ],
              [
                116.34676052345883,
                40.02266806958943
              ]
            ]
          ],
          [
            [
              [
                116.34940842562861,
                40.02267846801266
              ],
              [
                116.34941880918313,
                40.02285552270595
              ],
              [
                116.34900736617172,
                40.022869784368226
              ],
              [
                116.3489969836796,
                40.02269272964699
              ],
              [
                116.34940842562861,
                40.02267846801266
              ]
            ]
          ]
        ]
      }
    }
  ]
}
