{
  "type": "FeatureCollection",
  "name": "constraints_and_controls",
  "features": [
    {
      "type": "Feature",
      "id": "CONSTRAINTS",
      "properties": {
        "id": "CONSTRAINTS",
        "layer": "REGULATORY_CONTROL",
        "source_type": "agent_inferred_from_public_data",
        "confidence": "medium",
        "geometry_role": "provisional_constraint",
        "name_zh": "provisional 边界精度约束",
        "constraint_type": "provisional_boundary_precision",
        "description_zh": "当前提交使用 provisional 粗略边界，所有空间结论受边界精度限制；待官方边界发布后须重新复算。",
        "usage_note": "不得作为 official redline、审批依据或精确面积复算依据。"
      },
      "geometry": {
        "type": "Polygon",
        "coordinates": [
          [
            [
              116.3407,
              39.939
            ],
            [
              116.3553,
              39.939
            ],
            [
              116.3553,
              40.0265
            ],
            [
              116.3427,
              40.0265
            ],
            [
              116.3407,
              39.939
            ]
          ]
        ]
      }
    },
    {
      "type": "Feature",
      "id": "CONSTRAINTS-002",
      "properties": {
        "id": "CONSTRAINTS-002",
        "layer": "HERITAGE_PROTECTION",
        "source_type": "agent_inferred_from_public_data",
        "confidence": "low",
        "geometry_role": "provisional_constraint",
        "constraint_type": "heritage_conservation_concept",
        "name_zh": "清华园车站旧址文保概念协调区（示意）",
        "name_en": "Qinghuayuan old-station heritage concept coordination area (schematic)",
        "description_zh": "清华园车站旧址为京张铁路历史资源（公开常识性事实）。本图仅为概念协调范围示意，官方文保范围、保护线与管控要求以文物部门公布为准；范围内仅建议保守的文化标识与解说，不做任何工程判断。",
        "usage_note": "不得作为 official heritage boundary、审批依据或工程依据。"
      },
      "geometry": {
        "type": "Polygon",
        "coordinates": [
          [
            [
              116.34789526211003,
              39.995805604115134
            ],
            [
              116.34789118330006,
              39.99573054720716
            ],
            [
              116.34787755888037,
              39.99565615920677
            ],
            [
              116.34785452009179,
              39.995583156508005
            ],
            [
              116.34782228883846,
              39.99551224216155
            ],
            [
              116.34778117554971,
              39.99544409910409
            ],
            [
              116.34773157618955,
              39.99537938358156
            ],
            [
              116.34767396844234,
              39.99531871882953
            ],
            [
              116.34760890711208,
              39.99526268907143
            ],
            [
              116.34753701877875,
              39.99521183389264
            ],
            [
              116.34745899576406,
              39.995166643044456
            ],
            [
              116.34737558946392,
              39.99512755172792
            ],
            [
              116.34728760311248,
              39.99509493640303
            ],
            [
              116.34719588404718,
              39.99506911116376
            ],
            [
              116.34710131554894,
              39.99505032471337
            ],
            [
              116.34700480833685,
              39.995038757969645
            ],
            [
              116.34690729179833,
              39.99503452232281
            ],
            [
              116.34680970503983,
              39.995037658562836
            ],
            [
              116.34671298784389,
              39.995048136486794
            ],
            [
              116.34661807161976,
              39.99506585518957
            ],
            [
              116.34652587043448,
              39.99509064403563
            ],
            [
              116.34643727221115,
              39.99512226430205
            ],
            [
              116.3463531301786,
              39.99516041147733
            ],
            [
              116.34627425465514,
              39.995204718193605
            ],
            [
              116.3462014052453,
              39.9952547577643
            ],
            [
              116.34613528352482,
              39.995310048292765
            ],
            [
              116.34607652628436,
              39.99537005731291
            ],
            [
              116.34602569939662,
              39.9954342069166
            ],
            [
              116.34598329236637,
              39.99550187931877
            ],
            [
              116.3459497136158,
              39.995572422806696
            ],
            [
              116.34592528655033,
              39.99564515801592
            ],
            [
              116.3459102464433,
              39.995719384472594
            ],
            [
              116.34590473816891,
              39.99579438733923
            ],
            [
              116.345908814806,
              39.995869444298826
            ],
            [
              116.34592243712561,
              39.99594383251109
            ],
            [
              116.34594547396759,
              39.99601683557382
            ],
            [
              116.34597770350263,
              39.99608775042237
            ],
            [
              116.34601881536737,
              39.99615589410077
            ],
            [
              116.34606841365263,
              39.99622061033917
            ],
            [
              116.34612602071525,
              39.99628127587454
            ],
            [
              116.34619108177762,
              39.996337306453306
            ],
            [
              116.34626297027,
              39.99638816245859
            ],
            [
              116.3463409938646,
              39.99643335410731
            ],
            [
              116.34642440114324,
              39.99647244616767
            ],
            [
              116.3465123888341,
              39.99650506215108
            ],
            [
              116.34660410954835,
              39.99653088793827
            ],
            [
              116.34669867994161,
              39.99654967480491
            ],
            [
              116.34679518922205,
              39.996561241817226
            ],
            [
              116.3468927079227,
              39.99656547757467
            ],
            [
              116.34699029685406,
              39.99656234128302
            ],
            [
              116.34708701615011,
              39.99655186314719
            ],
            [
              116.34718193432084,
              39.996534144080435
            ],
            [
              116.34727413722445,
              39.99650935473229
            ],
            [
              116.34736273687174,
              39.99647773384495
            ],
            [
              116.3474468799792,
              39.99643958595379
            ],
            [
              116.34752575618725,
              39.996395278454166
            ],
            [
              116.34759860586502,
              39.99634523806281
            ],
            [
              116.3476647274264,
              39.996289946707854
            ],
            [
              116.34772348408693,
              39.99622993688716
            ],
            [
              116.34777430999621,
              39.996165786539656
            ],
            [
              116.34781671568705,
              39.996098113478965
            ],
            [
              116.34785029278869,
              39.99602756944312
            ],
            [
              116.3478747179591,
              39.99595483381766
            ],
            [
              116.34788975599778,
              39.99588060709239
            ],
            [
              116.34789526211003,
              39.995805604115134
            ]
          ]
        ]
      }
    },
    {
      "type": "Feature",
      "id": "CONSTRAINTS-003",
      "properties": {
        "id": "CONSTRAINTS-003",
        "layer": "REGULATORY_CONTROL",
        "source_type": "agent_generated_design",
        "confidence": "medium",
        "geometry_role": "design_proposal",
        "constraint_type": "rail_corridor_sound_concept",
        "name_zh": "轨道走廊声环境概念控制参考线（非退线结论）",
        "name_en": "Rail-corridor acoustic concept reference lines (not a setback conclusion)",
        "description_zh": "沿绿脉两侧外缘约25米处作声环境概念控制参考线，提示临近轨道界面的声环境与界面设计议题；非退线、非工程、非法定管控结论。",
        "usage_note": "仅作设计提示；法定退线与噪声管控以官方数据与规范为准。"
      },
      "geometry": {
        "type": "MultiLineString",
        "coordinates": [
          [
            [
              116.35073441271265,
              39.9390415166581
            ],
            [
              116.35071441877787,
              39.9393081837584
            ],
            [
              116.35069442467388,
              39.93957485084175
            ],
            [
              116.3506744304007,
              39.939841517908214
            ],
            [
              116.35065443595833,
              39.94010818495775
            ],
            [
              116.35061444656598,
              39.94064151900608
            ],
            [
              116.35059445161599,
              39.94090818600486
            ],
            [
              116.35057445649679,
              39.941174852986734
            ],
            [
              116.35055446120839,
              39.94144151995168
            ],
            [
              116.35053446575077,
              39.94170818689972
            ],
            [
              116.35051447012391,
              39.94197485383084
            ],
            [
              116.35049447432786,
              39.94224152074503
            ],
            [
              116.35047447836256,
              39.94250818764231
            ],
            [
              116.35045448222802,
              39.94277485452267
            ],
            [
              116.35043448592428,
              39.943041521386114
            ],
            [
              116.35041448945128,
              39.94330818823264
            ],
            [
              116.35039449280906,
              39.94357485506224
            ],
            [
              116.35037449599757,
              39.943841521874944
            ],
            [
              116.35035449901686,
              39.944108188670704
            ],
            [
              116.35033450186688,
              39.94437485544955
            ],
            [
              116.35031450454765,
              39.944641522211484
            ],
            [
              116.35029450705917,
              39.9449081889565
            ],
            [
              116.35027450940146,
              39.945174855684584
            ],
            [
              116.35025451157446,
              39.945441522395754
            ],
            [
              116.35021451541267,
              39.945974855767346
            ],
            [
              116.35019451707785,
              39.94624152242776
            ],
            [
              116.35017451857378,
              39.94650818907126
            ],
            [
              116.35015451990046,
              39.946774855697825
            ],
            [
              116.35013452105781,
              39.947041522307494
            ],
            [
              116.35013379502229,
              39.947050276602724
            ],
            [
              116.35010941249789,
              39.94731856988962
            ],
            [
              116.35008502976883,
              39.94758686315747
            ],
            [
              116.35003626369684,
              39.9481234496361
            ],
            [
              116.35001188035386,
              39.948391742846844
            ],
            [
              116.34996311305396,
              39.94892832921129
            ],
            [
              116.34993872909705,
              39.94919662236496
            ],
            [
              116.34986557599827,
              39.95000150171179
            ],
            [
              116.34984119122268,
              39.95026979478933
            ],
            [
              116.34979242105743,
              39.95080638088732
            ],
            [
              116.3497680356678,
              39.95107467390776
            ],
            [
              116.34971926427446,
              39.95161125989158
            ],
            [
              116.34969487827074,
              39.95187955285491
            ],
            [
              116.34964610564919,
              39.95241613872451
            ],
            [
              116.34962171903135,
              39.95268443163075
            ],
            [
              116.34957294518155,
              39.95322101738615
            ],
            [
              116.34954855794957,
              39.95348931023531
            ],
            [
              116.34949978287145,
              39.9540258958765
            ],
            [
              116.34947539502527,
              39.95429418866854
            ],
            [
              116.34942661871874,
              39.95483077419553
            ],
            [
              116.34940223025836,
              39.95509906693046
            ],
            [
              116.34932906364871,
              39.95590394502108
            ],
            [
              116.34930467436931,
              39.956172237679866
            ],
            [
              116.34925589519622,
              39.956708822940364
            ],
            [
              116.34923150530251,
              39.95697711554204
            ],
            [
              116.34918272490079,
              39.95751370068834
            ],
            [
              116.34915833439275,
              39.957781993232906
            ],
            [
              116.3491341340822,
              39.958048191383575
            ],
            [
              116.34908987942141,
              39.95857943070434
            ],
            [
              116.34906766454233,
              39.958846097934476
            ],
            [
              116.34904544947665,
              39.95911276514674
            ],
            [
              116.34900101878559,
              39.95964609951763
            ],
            [
              116.34897880316015,
              39.95991276667631
            ],
            [
              116.3488899387925,
              39.9609794351322
            ],
            [
              116.34886772223406,
              39.96124610220152
            ],
            [
              116.34880107143911,
              39.962046103302214
            ],
            [
              116.34877885413421,
              39.96231277030005
            ],
            [
              116.34873441896457,
              39.9628461042421
            ],
            [
              116.34871220109979,
              39.96311277118633
            ],
            [
              116.34868998304839,
              39.96337943811267
            ],
            [
              116.34866776481033,
              39.96364610502116
            ],
            [
              116.34860110897631,
              39.964446105639354
            ],
            [
              116.34857888999169,
              39.96471277247636
            ],
            [
              116.34855667082039,
              39.96497943929548
            ],
            [
              116.34853445146243,
              39.96524610609674
            ],
            [
              116.34849001218653,
              39.96577943964564
            ],
            [
              116.34846779226858,
              39.9660461063933
            ],
            [
              116.34840113139464,
              39.96684610652896
            ],
            [
              116.34837891072996,
              39.96711277320514
            ],
            [
              116.34829002620435,
              39.96817943973101
            ],
            [
              116.3482678046062,
              39.96844610631781
            ],
            [
              116.34822336084977,
              39.968979439437774
            ],
            [
              116.34820113869146,
              39.96924610597095
            ],
            [
              116.34817891634647,
              39.969512772486254
            ],
            [
              116.34813555202307,
              39.97003313469314
            ],
            [
              116.3481262735719,
              39.97028843543169
            ],
            [
              116.34811652284945,
              39.97055672848423
            ],
            [
              116.34810677203653,
              39.97082502152298
            ],
            [
              116.3480970211331,
              39.971093314547915
            ],
            [
              116.34808727013922,
              39.97136160755903
            ],
            [
              116.34806776788,
              39.97189819353985
            ],
            [
              116.34805801661467,
              39.97216648650956
            ],
            [
              116.34803851381257,
              39.97270307240751
            ],
            [
              116.34802876227576,
              39.97297136533579
            ],
            [
              116.34801901064849,
              39.97323965825024
            ],
            [
              116.34799950712244,
              39.97377624403775
            ],
            [
              116.34798975522368,
              39.97404453691078
            ],
            [
              116.34797025115466,
              39.97458112261544
            ],
            [
              116.34796049898442,
              39.97484941544705
            ],
            [
              116.34794099437242,
              39.97538600106885
            ],
            [
              116.34793124193065,
              39.97565429385903
            ],
            [
              116.34791173677559,
              39.97619087939798
            ],
            [
              116.3479019840623,
              39.976459172146754
            ],
            [
              116.34788247836421,
              39.97699575760284
            ],
            [
              116.34787272537939,
              39.977264050310154
            ],
            [
              116.34785321913817,
              39.9778006356834
            ],
            [
              116.34784346588181,
              39.97806892834931
            ],
            [
              116.34783371253491,
              39.978337221001404
            ],
            [
              116.34781420556955,
              39.97887380626417
            ],
            [
              116.34780445195108,
              39.97914209887484
            ],
            [
              116.34778494444257,
              39.97967868405475
            ],
            [
              116.3477751905525,
              39.97994697662398
            ],
            [
              116.3477654365719,
              39.98021526917942
            ],
            [
              116.34775568250078,
              39.980483561721044
            ],
            [
              116.34774592833914,
              39.980751854248844
            ],
            [
              116.34773633892532,
              39.98101561287296
            ],
            [
              116.34772591236162,
              39.9815373941261
            ],
            [
              116.34772065368728,
              39.98180055229747
            ],
            [
              116.34771539495888,
              39.98206371045639
            ],
            [
              116.3477048773399,
              39.982590026736794
            ],
            [
              116.34769961844931,
              39.98285318485828
            ],
            [
              116.34768910050602,
              39.983379501063894
            ],
            [
              116.34768384145326,
              39.98364265914797
            ],
            [
              116.34767858234648,
              39.98390581721959
            ],
            [
              116.34766280470168,
              39.98469529135963
            ],
            [
              116.34765754537862,
              39.98495844938137
            ],
            [
              116.34765228600152,
              39.985221607390635
            ],
            [
              116.34763650754577,
              39.98601108134365
            ],
            [
              116.34763124795239,
              39.98627423930303
            ],
            [
              116.34762072860342,
              39.986800555184416
            ],
            [
              116.34761546884783,
              39.9870637131064
            ],
            [
              116.34761020903817,
              39.9873268710159
            ],
            [
              116.34759442928473,
              39.98811634466963
            ],
            [
              116.34758916925877,
              39.988379502529256
            ],
            [
              116.34758390917872,
              39.98864266037642
            ],
            [
              116.34757338885643,
              39.98916897603334
            ],
            [
              116.34756812861417,
              39.989432133843074
            ],
            [
              116.3475576079674,
              39.98995844942519
            ],
            [
              116.34755234756288,
              39.99022160719754
            ],
            [
              116.34754708710429,
              39.990484764957394
            ],
            [
              116.34753692290195,
              39.99099322789245
            ],
            [
              116.3475478967182,
              39.99124008968666
            ],
            [
              116.34755966384334,
              39.99150479569805
            ],
            [
              116.3475714310455,
              39.99176950169691
            ],
            [
              116.34758319832463,
              39.99203420768326
            ],
            [
              116.34759496568077,
              39.99229891365711
            ],
            [
              116.34760673311392,
              39.99256361961845
            ],
            [
              116.34761850062408,
              39.99282832556727
            ],
            [
              116.34763026821125,
              39.99309303150357
            ],
            [
              116.34764203587541,
              39.99335773742736
            ],
            [
              116.3476538036166,
              39.99362244333864
            ],
            [
              116.3476655714348,
              39.99388714923741
            ],
            [
              116.34768910730226,
              39.994416560997394
            ],
            [
              116.3477008753515,
              39.99468126685863
            ],
            [
              116.34771264347776,
              39.99494597270733
            ],
            [
              116.34772441168104,
              39.99521067854353
            ],
            [
              116.34773617996137,
              39.99547538436721
            ],
            [
              116.3477479483187,
              39.99574009017837
            ],
            [
              116.34775971675307,
              39.99600479597703
            ],
            [
              116.34777148526446,
              39.99626950176317
            ],
            [
              116.3477832538529,
              39.996534207536804
            ],
            [
              116.34780679126082,
              39.99706361904651
            ],
            [
              116.34781856008036,
              39.9973283247826
            ],
            [
              116.34783032897691,
              39.99759303050616
            ],
            [
              116.3478420979505,
              39.99785773621722
            ],
            [
              116.34785386700113,
              39.99812244191577
            ],
            [
              116.34786563612882,
              39.998387147601804
            ],
            [
              116.34787740533355,
              39.99865185327531
            ],
            [
              116.34788917461532,
              39.998916558936315
            ],
            [
              116.34790094397414,
              39.9991812645848
            ],
            [
              116.34791271341,
              39.99944597022076
            ],
            [
              116.3479244829229,
              39.99971067584422
            ],
            [
              116.34793625251288,
              39.99997538145517
            ],
            [
              116.34793649190145,
              39.99998153508817
            ],
            [
              116.34794538322114,
              40.00024820198485
            ],
            [
              116.34795427459595,
              40.000514868869196
            ],
            [
              116.34796316602588,
              40.00078153574119
            ],
            [
              116.34798094905109,
              40.001314869448095
            ],
            [
              116.3479898406464,
              40.00158153628302
            ],
            [
              116.34799873229683,
              40.00184820310559
            ],
            [
              116.34800762400238,
              40.002114869915815
            ],
            [
              116.34801651576305,
              40.002381536713656
            ],
            [
              116.34802540757889,
              40.00264820349916
            ],
            [
              116.3480431913759,
              40.00318153703309
            ],
            [
              116.34805208335712,
              40.003448203781545
            ],
            [
              116.34806097539348,
              40.00371487051761
            ],
            [
              116.34807875963159,
              40.00424820395271
            ],
            [
              116.34808765183334,
              40.00451487065171
            ],
            [
              116.34809654409025,
              40.00478153733838
            ],
            [
              116.3481143287695,
              40.005314870674624
            ],
            [
              116.34812322119183,
              40.00558153732421
            ],
            [
              116.34813211366932,
              40.00584820396145
            ],
            [
              116.34814100620194,
              40.00611487058633
            ],
            [
              116.34814989878971,
              40.00638153719885
            ],
            [
              116.34815879143265,
              40.00664820379901
            ],
            [
              116.34817657688394,
              40.00718153696228
            ],
            [
              116.34818546969234,
              40.00744820352539
            ],
            [
              116.34819436255587,
              40.00771487007612
            ],
            [
              116.34821214844841,
              40.00824820314053
            ],
            [
              116.34822104147744,
              40.00851486965421
            ],
            [
              116.3482299345616,
              40.00878153615553
            ],
            [
              116.34824772089542,
              40.0093148691211
            ],
            [
              116.3482566141451,
              40.00958153558535
            ],
            [
              116.34826550744991,
              40.009848202037226
            ],
            [
              116.3482744008099,
              40.01011486847678
            ],
            [
              116.34828329422507,
              40.01038153490395
            ],
            [
              116.34829218769538,
              40.01064820131878
            ],
            [
              116.34830997480155,
              40.01118153411135
            ],
            [
              116.34831886843739,
              40.011448200489106
            ],
            [
              116.34832776212839,
              40.0117148668545
            ],
            [
              116.3483366558746,
              40.01198153320753
            ],
            [
              116.348336752972,
              40.01198471950615
            ],
            [
              116.34834416288984,
              40.01225323832371
            ],
            [
              116.34835157285151,
              40.01252175712885
            ],
            [
              116.34835898285702,
              40.01279027592159
            ],
            [
              116.34836639290636,
              40.0130587947019
            ],
            [
              116.34837380299952,
              40.01332731346982
            ],
            [
              116.3483812131365,
              40.01359583222533
            ],
            [
              116.34839603354202,
              40.014132869699125
            ],
            [
              116.34840344381051,
              40.01440138841741
            ],
            [
              116.34841085412286,
              40.01466990712328
            ],
            [
              116.34841826447904,
              40.014938425816744
            ],
            [
              116.34842567487904,
              40.01520694449781
            ],
            [
              116.34844790634216,
              40.01601250046654
            ],
            [
              116.34845531691755,
              40.016281019097974
            ],
            [
              116.34846272753678,
              40.01654953771698
            ],
            [
              116.34847013819989,
              40.01681805632358
            ],
            [
              116.34847754890679,
              40.017086574917805
            ],
            [
              116.34849237045219,
              40.01762361206896
            ],
            [
              116.34849978129067,
              40.01789213062595
            ],
            [
              116.348507192173,
              40.018160649170525
            ],
            [
              116.34851460309919,
              40.018429167702664
            ],
            [
              116.34852201406922,
              40.01869768622242
            ],
            [
              116.34852942508309,
              40.01896620472977
            ],
            [
              116.34854424724243,
              40.019503241707234
            ],
            [
              116.3485516583879,
              40.01977176017734
            ],
            [
              116.34855906957722,
              40.020040278635044
            ],
            [
              116.3485664808104,
              40.02030879708034
            ],
            [
              116.34857389208742,
              40.02057731551323
            ],
            [
              116.34858130340832,
              40.02084583393371
            ],
            [
              116.34859612618172,
              40.02138287073745
            ],
            [
              116.3486035376342,
              40.02165138912069
            ],
            [
              116.34861094913056,
              40.02191990749153
            ],
            [
              116.34861836067077,
              40.022188425849976
            ],
            [
              116.34862577225488,
              40.02245694419601
            ],
            [
              116.34864800727038,
              40.02326249915963
            ],
            [
              116.34865541902995,
              40.02353101745602
            ],
            [
              116.34866283083339,
              40.02379953573999
            ],
            [
              116.34867024268073,
              40.02406805401156
            ],
            [
              116.34867765457192,
              40.02433657227072
            ],
            [
              116.34869247848596,
              40.024873608751825
            ],
            [
              116.34869989050878,
              40.025142126973755
            ],
            [
              116.34870730257549,
              40.02541064518327
            ],
            [
              116.3487147146861,
              40.02567916338038
            ],
            [
              116.34872212684057,
              40.02594768156509
            ],
            [
              116.34872953903893,
              40.02621619973739
            ],
            [
              116.34873695128118,
              40.026484717897276
            ]
          ],
          [
            [
              116.34886558851862,
              39.938958475819504
            ],
            [
              116.34884558736222,
              39.93922514254318
            ],
            [
              116.34882558603657,
              39.93949180924993
            ],
            [
              116.34880558454157,
              39.93975847593977
            ],
            [
              116.34878558287733,
              39.940025142612676
            ],
            [
              116.34874557904091,
              39.940558475907736
            ],
            [
              116.34872557686874,
              39.940825142529874
            ],
            [
              116.34870557452729,
              39.941091809135095
            ],
            [
              116.3486855720165,
              39.941358475723376
            ],
            [
              116.34866556933642,
              39.94162514229475
            ],
            [
              116.34864556648702,
              39.9418918088492
            ],
            [
              116.34862556346829,
              39.94215847538671
            ],
            [
              116.34860556028025,
              39.942425141907314
            ],
            [
              116.34858555692287,
              39.94269180841099
            ],
            [
              116.34856555339617,
              39.942958474897736
            ],
            [
              116.34854554970016,
              39.94322514136758
            ],
            [
              116.34852554583479,
              39.94349180782047
            ],
            [
              116.3485055418001,
              39.943758474256455
            ],
            [
              116.34848553759606,
              39.94402514067551
            ],
            [
              116.34846553322267,
              39.94429180707762
            ],
            [
              116.34844552867995,
              39.94455847346284
            ],
            [
              116.34842552396786,
              39.9448251398311
            ],
            [
              116.34840551908641,
              39.945091806182475
            ],
            [
              116.34838551403561,
              39.94535847251687
            ],
            [
              116.34834550342595,
              39.94589180513497
            ],
            [
              116.34832549786704,
              39.94615847141861
            ],
            [
              116.3483054921388,
              39.94642513768534
            ],
            [
              116.34828548624117,
              39.94669180393514
            ],
            [
              116.34826580868888,
              39.94695409132558
            ],
            [
              116.34824181667248,
              39.9472180087266
            ],
            [
              116.34821742669371,
              39.9474863015479
            ],
            [
              116.34816864612195,
              39.948022887133405
            ],
            [
              116.34814425552895,
              39.948291179897566
            ],
            [
              116.34809547372872,
              39.948827765368854
            ],
            [
              116.34807108252147,
              39.94909605807593
            ],
            [
              116.34799790767119,
              39.949900936082926
            ],
            [
              116.3479735156449,
              39.95016922871384
            ],
            [
              116.34792473097798,
              39.95070581391856
            ],
            [
              116.34790033833737,
              39.95097410649237
            ],
            [
              116.34785155244175,
              39.95151069158285
            ],
            [
              116.34782715918676,
              39.95177898409952
            ],
            [
              116.34777837206236,
              39.952315569075765
            ],
            [
              116.34775397819296,
              39.95258386153532
            ],
            [
              116.34770518983974,
              39.953120446397314
            ],
            [
              116.34768079535591,
              39.95338873879974
            ],
            [
              116.34763200577379,
              39.95392532354749
            ],
            [
              116.3476076106755,
              39.9541936158928
            ],
            [
              116.34755881986437,
              39.9547302005263
            ],
            [
              116.34753442415156,
              39.95499849281447
            ],
            [
              116.34746123578404,
              39.95580336956477
            ],
            [
              116.34743683925183,
              39.95607166177677
            ],
            [
              116.34738804557281,
              39.95660824614367
            ],
            [
              116.34736364842601,
              39.956876538298545
            ],
            [
              116.3473148535178,
              39.95741312255118
            ],
            [
              116.34729045575638,
              39.95768141464893
            ],
            [
              116.34726605779007,
              39.95794970672764
            ],
            [
              116.34726569273676,
              39.957953896288856
            ],
            [
              116.34722124910009,
              39.9584872299786
            ],
            [
              116.34719902700178,
              39.95875389679667
            ],
            [
              116.34717680471677,
              39.95902056359689
            ],
            [
              116.34713235958671,
              39.95955389714362
            ],
            [
              116.34711013674168,
              39.95982056389021
            ],
            [
              116.34702124349458,
              39.9608872306977
            ],
            [
              116.34699901971604,
              39.96115389735491
            ],
            [
              116.34693234726024,
              39.96195389721921
            ],
            [
              116.34691012273487,
              39.9622205638049
            ],
            [
              116.34686567312396,
              39.962753896922635
            ],
            [
              116.34684344803843,
              39.96302056345471
            ],
            [
              116.34682122276614,
              39.96328722996888
            ],
            [
              116.34679899730715,
              39.96355389646519
            ],
            [
              116.3467323198097,
              39.96435389584683
            ],
            [
              116.3467100936037,
              39.96462056227163
            ],
            [
              116.346687867211,
              39.96488722867852
            ],
            [
              116.3466656406315,
              39.96515389506758
            ],
            [
              116.34662118691226,
              39.96568722779202
            ],
            [
              116.34659895977248,
              39.96595389412743
            ],
            [
              116.34653227723253,
              39.96675389302635
            ],
            [
              116.34651004934565,
              39.96702055929026
            ],
            [
              116.34642113593027,
              39.96808722416701
            ],
            [
              116.34639890710946,
              39.96835389034152
            ],
            [
              116.34635444890738,
              39.96888722263684
            ],
            [
              116.34633221952615,
              39.96915388875771
            ],
            [
              116.34630998995807,
              39.96942055486069
            ],
            [
              116.34626553026152,
              39.96995388701298
            ],
            [
              116.3462639764484,
              39.96997985008042
            ],
            [
              116.346254218507,
              39.97024814293224
            ],
            [
              116.34624446047505,
              39.97051643577026
            ],
            [
              116.34623470235253,
              39.97078472859447
            ],
            [
              116.34622494413944,
              39.97105302140488
            ],
            [
              116.34621518583575,
              39.97132131420145
            ],
            [
              116.34619566895665,
              39.97185789975318
            ],
            [
              116.34618591038122,
              39.972126192508334
            ],
            [
              116.34616639295866,
              39.972662777977206
            ],
            [
              116.3461566341115,
              39.972931070690926
            ],
            [
              116.34614687517373,
              39.97319936339083
            ],
            [
              116.34612735702646,
              39.97373594874921
            ],
            [
              116.34611759781693,
              39.974004241407684
            ],
            [
              116.3460980791261,
              39.97454082668318
            ],
            [
              116.34608831964476,
              39.97480911930023
            ],
            [
              116.34606880041034,
              39.975345704492874
            ],
            [
              116.34605904065721,
              39.975613997068464
            ],
            [
              116.34603952087919,
              39.97615058217823
            ],
            [
              116.34602976085424,
              39.97641887471241
            ],
            [
              116.34601024053254,
              39.976955459739294
            ],
            [
              116.34600048023577,
              39.97722375223204
            ],
            [
              116.3459809593704,
              39.97776033717605
            ],
            [
              116.34597119880178,
              39.97802862962734
            ],
            [
              116.34596143814255,
              39.97829692206483
            ],
            [
              116.34594191655222,
              39.978833506898354
            ],
            [
              116.34593215562114,
              39.9791017992944
            ],
            [
              116.34591263348706,
              39.979638384045046
            ],
            [
              116.34590287228409,
              39.97990667639966
            ],
            [
              116.34589311099047,
              39.98017496874046
            ],
            [
              116.34588334960624,
              39.98044326106745
            ],
            [
              116.34587358813135,
              39.98071155338061
            ],
            [
              116.34586382656585,
              39.98097984567997
            ],
            [
              116.34586357085725,
              39.98098891469082
            ],
            [
              116.34585303930815,
              39.98151523078735
            ],
            [
              116.34584777345238,
              39.981778388816885
            ],
            [
              116.34584250754244,
              39.98204154683397
            ],
            [
              116.34583197556016,
              39.982567862830734
            ],
            [
              116.34582670948781,
              39.982831020810394
            ],
            [
              116.34581617718062,
              39.98335733673232
            ],
            [
              116.34581091094579,
              39.98362049467457
            ],
            [
              116.34580564465679,
              39.98388365260435
            ],
            [
              116.34578984546495,
              39.9846731263189
            ],
            [
              116.34578457895933,
              39.98493628419878
            ],
            [
              116.34577931239957,
              39.98519944206622
            ],
            [
              116.34576351239532,
              39.98598891559369
            ],
            [
              116.34575824561891,
              39.986252073411215
            ],
            [
              116.3457477119036,
              39.9867783890089
            ],
            [
              116.34574244496471,
              39.987041546789015
            ],
            [
              116.34573717797166,
              39.98730470455668
            ],
            [
              116.34572137666743,
              39.98809417778483
            ],
            [
              116.34571610945771,
              39.98835733550259
            ],
            [
              116.34571084219381,
              39.98862049320788
            ],
            [
              116.34570030750346,
              39.98914680858109
            ],
            [
              116.34569504007703,
              39.98940996624895
            ],
            [
              116.34568450506167,
              39.98993628154731
            ],
            [
              116.34567923747271,
              39.99019943917777
            ],
            [
              116.34567396982959,
              39.990462596795766
            ],
            [
              116.34566343438081,
              39.990988911994364
            ],
            [
              116.34566386976059,
              39.99102460877044
            ],
            [
              116.34567562958425,
              39.99128931492406
            ],
            [
              116.34568738948481,
              39.991554021065184
            ],
            [
              116.34569914946226,
              39.99181872719379
            ],
            [
              116.34571090951663,
              39.99208343330989
            ],
            [
              116.34572266964793,
              39.99234813941348
            ],
            [
              116.34573442985611,
              39.99261284550455
            ],
            [
              116.34574619014118,
              39.99287755158312
            ],
            [
              116.3457579505032,
              39.99314225764919
            ],
            [
              116.34576971094211,
              39.99340696370274
            ],
            [
              116.34578147145797,
              39.993671669743776
            ],
            [
              116.34579323205072,
              39.99393637577231
            ],
            [
              116.345816753467,
              39.99446578779184
            ],
            [
              116.3458285142905,
              39.99473049378283
            ],
            [
              116.34584027519095,
              39.99499519976132
            ],
            [
              116.34585203616832,
              39.9952599057273
            ],
            [
              116.3458637972226,
              39.995524611680764
            ],
            [
              116.34587555835384,
              39.99578931762173
            ],
            [
              116.34588731956202,
              39.99605402355017
            ],
            [
              116.34589908084712,
              39.99631872946612
            ],
            [
              116.34591084220912,
              39.99658343536955
            ],
            [
              116.34593436516398,
              39.997112847138865
            ],
            [
              116.34594612675683,
              39.99737755300477
            ],
            [
              116.34595788842661,
              39.99764225885815
            ],
            [
              116.34596965017334,
              39.99790696469903
            ],
            [
              116.34598141199702,
              39.99817167052739
            ],
            [
              116.34599317389761,
              39.99843637634326
            ],
            [
              116.34600493587517,
              39.998701082146596
            ],
            [
              116.34601669792971,
              39.99896578793742
            ],
            [
              116.34602846006116,
              39.99923049371574
            ],
            [
              116.34604022226958,
              39.99949519948155
            ],
            [
              116.34605198455498,
              39.99975990523486
            ],
            [
              116.34606361021402,
              40.000021534550946
            ],
            [
              116.34607239173091,
              40.000285124320335
            ],
            [
              116.34608127582003,
              40.000551791288125
            ],
            [
              116.34609015996422,
              40.000818458243586
            ],
            [
              116.34610792841761,
              40.00135179211741
            ],
            [
              116.34611681272686,
              40.00161845903579
            ],
            [
              116.34612569709114,
              40.001885125941826
            ],
            [
              116.34613458151043,
              40.00215179283553
            ],
            [
              116.34614346598478,
              40.00241845971686
            ],
            [
              116.34615235051413,
              40.00268512658583
            ],
            [
              116.34617011973799,
              40.003218460286725
            ],
            [
              116.34617900443247,
              40.00348512711866
            ],
            [
              116.346187889182,
              40.00375179393822
            ],
            [
              116.34620565884615,
              40.0042851275403
            ],
            [
              116.3462145437608,
              40.00455179432279
            ],
            [
              116.3462234287305,
              40.00481846109297
            ],
            [
              116.34624119883499,
              40.005351794596216
            ],
            [
              116.34625008396982,
              40.00561846132931
            ],
            [
              116.34625896915969,
              40.00588512805005
            ],
            [
              116.3462678544046,
              40.006151794758445
            ],
            [
              116.3462767397046,
              40.00641846145449
            ],
            [
              116.34628562505961,
              40.00668512813817
            ],
            [
              116.34630339593484,
              40.00721846146848
            ],
            [
              116.34631228145503,
              40.00748512811511
            ],
            [
              116.34632116703028,
              40.00775179474937
            ],
            [
              116.34633893834598,
              40.00828512798084
            ],
            [
              116.3463478240864,
              40.00855179457806
            ],
            [
              116.3463567098819,
              40.00881846116293
            ],
            [
              116.3463744816381,
              40.009351794295576
            ],
            [
              116.34638336759878,
              40.00961846084337
            ],
            [
              116.34639225361455,
              40.00988512737881
            ],
            [
              116.34640113968538,
              40.0101517939019
            ],
            [
              116.34641002581128,
              40.01041846041264
            ],
            [
              116.34641891199225,
              40.01068512691101
            ],
            [
              116.34643668451943,
              40.011218459870705
            ],
            [
              116.34644557086563,
              40.01148512633204
            ],
            [
              116.34645445726689,
              40.011751792781
            ],
            [
              116.34646329063531,
              40.0120168661504
            ],
            [
              116.3464706492886,
              40.01228379179513
            ],
            [
              116.34647805190798,
              40.01255231065973
            ],
            [
              116.34648545457112,
              40.01282082951193
            ],
            [
              116.34649285727797,
              40.01308934835173
            ],
            [
              116.34650026002855,
              40.013357867179096
            ],
            [
              116.34650766282289,
              40.01362638599408
            ],
            [
              116.34652246854273,
              40.01416342358681
            ],
            [
              116.34652987146828,
              40.01443194236458
            ],
            [
              116.34653727443755,
              40.01470046112993
            ],
            [
              116.34654467745055,
              40.014968979882866
            ],
            [
              116.34655208050731,
              40.01523749862342
            ],
            [
              116.34657428994004,
              40.0160430547706
            ],
            [
              116.34658169317177,
              40.016311573461515
            ],
            [
              116.34658909644726,
              40.016580092140025
            ],
            [
              116.34659649976648,
              40.016848610806136
            ],
            [
              116.34660390312943,
              40.01711712945984
            ],
            [
              116.34661870998664,
              40.017654166730004
            ],
            [
              116.34662611348088,
              40.0179226853465
            ],
            [
              116.34663351701884,
              40.01819120395057
            ],
            [
              116.34664092060058,
              40.01845972254224
            ],
            [
              116.34664832422607,
              40.01872824112149
            ],
            [
              116.34665572789532,
              40.018996759688356
            ],
            [
              116.34667053536509,
              40.01953379678485
            ],
            [
              116.34667793916559,
              40.019802315314486
            ],
            [
              116.34668534300988,
              40.02007083383172
            ],
            [
              116.34669274689792,
              40.02033935233653
            ],
            [
              116.3467001508297,
              40.02060787082895
            ],
            [
              116.34670755480529,
              40.02087638930896
            ],
            [
              116.3467223628877,
              40.02141342623175
            ],
            [
              116.34672976699459,
              40.02168194467454
            ],
            [
              116.34673717114521,
              40.02195046310493
            ],
            [
              116.34674457533961,
              40.022218981522904
            ],
            [
              116.34675197957777,
              40.02248749992849
            ],
            [
              116.3467741925549,
              40.023293055070745
            ],
            [
              116.34678159696817,
              40.02356157342668
            ],
            [
              116.34678900142521,
              40.02383009177022
            ],
            [
              116.34679640592601,
              40.02409861010134
            ],
            [
              116.34680381047059,
              40.02436712842007
            ],
            [
              116.3468186196911,
              40.024904165020274
            ],
            [
              116.34682602436705,
              40.02517268330179
            ],
            [
              116.34683342908676,
              40.02544120157088
            ],
            [
              116.34684083385024,
              40.02570971982755
            ],
            [
              116.34684823865751,
              40.02597823807182
            ],
            [
              116.34685564350858,
              40.0262467563037
            ],
            [
              116.3468630484034,
              40.02651527452317
            ]
          ]
        ]
      }
    },
    {
      "type": "Feature",
      "id": "CONSTRAINTS-004",
      "properties": {
        "id": "CONSTRAINTS-004",
        "layer": "REGULATORY_CONTROL",
        "source_type": "agent_inferred_from_public_data",
        "confidence": "low",
        "geometry_role": "provisional_constraint",
        "constraint_type": "waterway_blue_line_gap",
        "name_zh": "清河/小月河蓝线与防洪协调缺口标记（待官方数据）",
        "name_en": "Qinghe/Xiaoyue blue-line and flood-control data gap marker (awaiting official data)",
        "description_zh": "总体范围北缘临清河、中段临小月河的蓝线、防洪与生态管控资料缺失；两条参考线标记需官方蓝线数据后复算的界面位置，不代表蓝线本身。",
        "usage_note": "不得作为蓝线、防洪或生态管控依据。"
      },
      "geometry": {
        "type": "MultiLineString",
        "coordinates": [
          [
            [
              116.33946753350531,
              40.02344044182403
            ],
            [
              116.35509368449274,
              40.023528459913116
            ]
          ],
          [
            [
              116.34006314962109,
              39.96158361018726
            ],
            [
              116.34688187331484,
              39.9616222279461
            ]
          ]
        ]
      }
    }
  ]
}
