{
  "type": "FeatureCollection",
  "name": "implementation_phasing",
  "features": [
    {
      "type": "Feature",
      "id": "PHASE-001",
      "properties": {
        "id": "PHASE-001",
        "layer": "PHASE",
        "source_type": "agent_generated_design",
        "confidence": "medium",
        "geometry_role": "design_proposal",
        "phase": "phase_1",
        "name_zh": "一期：重点区场景启动（大钟寺·原点与绿脉南段）",
        "name_en": "Phase 1: key-area scenario launch (Dazhongsi, Origin, south vein)",
        "note_zh": "轻量设施、运营活动与服务平台先行；含 JZ-03 原点转化街、JZ-04 大钟寺步行连通与 JZ-06 活动周路线试点；不指向具体拆改留；分期为概念建议，实施时序以专业团队与实施主体确认为准",
        "area_sqm_declared": 2407400
      },
      "geometry": {
        "type": "Polygon",
        "coordinates": [
          [
            [
              116.34200000000001,
              39.94984
            ],
            [
              116.34829668236993,
              39.949840182047936
            ],
            [
              116.3482897304599,
              39.94991665144308
            ],
            [
              116.34826533956652,
              39.950184944143814
            ],
            [
              116.34821655716549,
              39.95072152948814
            ],
            [
              116.3481921656578,
              39.95098982213174
            ],
            [
              116.34814338202818,
              39.95152640736184
            ],
            [
              116.34811898990617,
              39.95179469994832
            ],
            [
              116.34807020504786,
              39.9523312850642
            ],
            [
              116.3480458123115,
              39.95259957759357
            ],
            [
              116.34799702622442,
              39.95313616259519
            ],
            [
              116.3479726328737,
              39.95340445506743
            ],
            [
              116.34792384555779,
              39.95394103995483
            ],
            [
              116.34789945159264,
              39.95420933236995
            ],
            [
              116.34785066304785,
              39.95474591714309
            ],
            [
              116.34782626846822,
              39.955014209501094
            ],
            [
              116.34775308350034,
              39.95581908646087
            ],
            [
              116.34772868810137,
              39.956087378742716
            ],
            [
              116.34767989668889,
              39.95662396324927
            ],
            [
              116.34765550067539,
              39.95689225547398
            ],
            [
              116.3476067080338,
              39.95742883986628
            ],
            [
              116.34758231140569,
              39.95769713203386
            ],
            [
              116.34755791457272,
              39.9579654241824
            ],
            [
              116.34755766361074,
              39.957968304506466
            ],
            [
              116.34751322223006,
              39.958501638325025
            ],
            [
              116.34749100125973,
              39.958768305207485
            ],
            [
              116.34746878010274,
              39.95903497207209
            ],
            [
              116.34742433722877,
              39.959568305747666
            ],
            [
              116.34740211551178,
              39.959834972558646
            ],
            [
              116.34731322677706,
              39.960901639623785
            ],
            [
              116.34729100412667,
              39.961168306345385
            ],
            [
              116.34722433505536,
              39.961968306402945
            ],
            [
              116.34720211165818,
              39.96223497305305
            ],
            [
              116.3471576643037,
              39.96276830629963
            ],
            [
              116.3471354403464,
              39.9630349728961
            ],
            [
              116.34711321620237,
              39.96330163947471
            ],
            [
              116.34709099187167,
              39.96356830603542
            ],
            [
              116.3470243177591,
              39.96436830561033
            ],
            [
              116.34700209268144,
              39.96463497209955
            ],
            [
              116.34697986741706,
              39.96490163857089
            ],
            [
              116.34695764196593,
              39.96516830502438
            ],
            [
              116.34691319050344,
              39.965701637877665
            ],
            [
              116.34689096449208,
              39.9659683042775
            ],
            [
              116.3468242853374,
              39.966768303369726
            ],
            [
              116.34680205857899,
              39.96703496969806
            ],
            [
              116.34671314967761,
              39.96810163483257
            ],
            [
              116.34669092198533,
              39.9683683010715
            ],
            [
              116.34664646604038,
              39.96890163349573
            ],
            [
              116.34662423778771,
              39.96916829968104
            ],
            [
              116.34660200934825,
              39.969434965848464
            ],
            [
              116.34655755190892,
              39.96996829812965
            ],
            [
              116.34655648373818,
              39.96998614774177
            ],
            [
              116.3465467269389,
              39.970254440627144
            ],
            [
              116.34653697004903,
              39.970522733498704
            ],
            [
              116.34652721306864,
              39.970791026356444
            ],
            [
              116.34651745599766,
              39.971059319200386
            ],
            [
              116.34650769883615,
              39.97132761203052
            ],
            [
              116.34648818424141,
              39.971864197649325
            ],
            [
              116.34647842680818,
              39.972132490438014
            ],
            [
              116.34645891167006,
              39.972669075973975
            ],
            [
              116.34644915396512,
              39.97293736872123
            ],
            [
              116.34643939616961,
              39.97320566145468
            ],
            [
              116.34641988030691,
              39.973742246880136
            ],
            [
              116.34641012223967,
              39.974010539572156
            ],
            [
              116.34639060583349,
              39.974547124914764
            ],
            [
              116.34638084749452,
              39.97481541756535
            ],
            [
              116.34636133054485,
              39.975352002825076
            ],
            [
              116.34635157193412,
              39.975620295434226
            ],
            [
              116.34633205444091,
              39.97615688061108
            ],
            [
              116.34632229555841,
              39.97642517317881
            ],
            [
              116.34630277752166,
              39.97696175827281
            ],
            [
              116.34629301836739,
              39.977230050799086
            ],
            [
              116.34627349978703,
              39.97776663581022
            ],
            [
              116.34626374036094,
              39.97803492829505
            ],
            [
              116.34625398084427,
              39.9783032207661
            ],
            [
              116.34623446153908,
              39.97883980566674
            ],
            [
              116.34622470175059,
              39.979108098096326
            ],
            [
              116.34620518190175,
              39.979644682914085
            ],
            [
              116.3461954218414,
              39.97991297530225
            ],
            [
              116.34618566169046,
              39.98018126767661
            ],
            [
              116.34617590144887,
              39.98044956003714
            ],
            [
              116.34616614111668,
              39.980717852383876
            ],
            [
              116.34615638069388,
              39.98098614471679
            ],
            [
              116.34615620492077,
              39.980992379662396
            ],
            [
              116.34614567561583,
              39.981518695803274
            ],
            [
              116.34614041088216,
              39.98178185385499
            ],
            [
              116.34613514609435,
              39.98204501189426
            ],
            [
              116.34612461635633,
              39.98257132793538
            ],
            [
              116.34611935140612,
              39.982834485937225
            ],
            [
              116.34610882134328,
              39.9833608019035
            ],
            [
              116.34610603391172,
              39.98350012211382
            ],
            [
              116.34200000000001,
              39.98349999999999
            ],
            [
              116.34200000000001,
              39.99349999999999
            ],
            [
              116.34606674279871,
              39.993500121641965
            ],
            [
              116.3460740235079,
              39.9936639801133
            ],
            [
              116.34608578522962,
              39.99392868612158
            ],
            [
              116.34610930890389,
              39.994458098100594
            ],
            [
              116.34612107085644,
              39.994722804071344
            ],
            [
              116.34613283288591,
              39.99498751002957
            ],
            [
              116.34614459499235,
              39.99525221597529
            ],
            [
              116.34615635717572,
              39.9955169219085
            ],
            [
              116.34616811943602,
              39.995781627829196
            ],
            [
              116.34617988177328,
              39.99604633373739
            ],
            [
              116.34619164418747,
              39.996311039633056
            ],
            [
              116.34620340667864,
              39.996575745516225
            ],
            [
              116.3462269318918,
              39.99710515724502
            ],
            [
              116.3462386946138,
              39.997369863090654
            ],
            [
              116.3462504574128,
              39.997634568923765
            ],
            [
              116.34626222028872,
              39.997899274744384
            ],
            [
              116.3462739832416,
              39.99816398055247
            ],
            [
              116.34628574627143,
              39.99842868634808
            ],
            [
              116.34629750937825,
              39.998693392131145
            ],
            [
              116.34630927256204,
              39.99895809790171
            ],
            [
              116.34632103582278,
              39.99922280365977
            ],
            [
              116.34633279916048,
              39.99948750940531
            ],
            [
              116.34634456257517,
              39.999752215138344
            ],
            [
              116.3463562320743,
              40.00001480581706
            ],
            [
              116.34636504675714,
              40.000279357201855
            ],
            [
              116.34637393198469,
              40.00054602415664
            ],
            [
              116.34638281726725,
              40.00081269109906
            ],
            [
              116.34640058799752,
              40.001346024946855
            ],
            [
              116.34640947344519,
              40.001612691852216
            ],
            [
              116.34641835894793,
              40.00187935874523
            ],
            [
              116.3464272445057,
              40.00214602562589
            ],
            [
              116.34643613011855,
              40.0024126924942
            ],
            [
              116.34644501578644,
              40.002679359350154
            ],
            [
              116.34646278728735,
              40.003212693025006
            ],
            [
              116.34647167312039,
              40.0034793598439
            ],
            [
              116.34648055900848,
              40.00374602665044
            ],
            [
              116.3464983309498,
              40.00427936022646
            ],
            [
              116.34650721700308,
              40.00454602699594
            ],
            [
              116.3465161031114,
              40.00481269375307
            ],
            [
              116.34653387549322,
              40.00534602723027
            ],
            [
              116.34654276176671,
              40.00561269395033
            ],
            [
              116.34655164809529,
              40.00587936065805
            ],
            [
              116.34656053447891,
              40.00614602735341
            ],
            [
              116.34656942091759,
              40.00641269403641
            ],
            [
              116.34657830741136,
              40.00667936070707
            ],
            [
              116.3465960805641,
              40.00721269401131
            ],
            [
              116.34660496722309,
              40.00747936064491
            ],
            [
              116.34660501881295,
              40.0074809087244
            ],
            [
              116.34789392427906,
              40.007488168444375
            ],
            [
              116.34789278413626,
              40.007453974989495
            ],
            [
              116.34788389246665,
              40.00718730841331
            ],
            [
              116.34786610929287,
              40.006653975223905
            ],
            [
              116.34785721778867,
              40.00638730861068
            ],
            [
              116.3478483263396,
              40.0061206419851
            ],
            [
              116.34783943494568,
              40.005853975347144
            ],
            [
              116.34783054360688,
              40.00558730869684
            ],
            [
              116.34782165232322,
              40.00532064203418
            ],
            [
              116.34780386992128,
              40.00478730867181
            ],
            [
              116.347794978803,
              40.004520641972086
            ],
            [
              116.34778608773983,
              40.00425397525999
            ],
            [
              116.3477683057789,
              40.00372064179878
            ],
            [
              116.34775941488112,
              40.00345397504964
            ],
            [
              116.34775052403846,
              40.00318730828813
            ],
            [
              116.34773274251849,
              40.00265397472807
            ],
            [
              116.34772385184117,
              40.0023873079295
            ],
            [
              116.34771496121897,
              40.002120641118594
            ],
            [
              116.3477060706519,
              40.001853974295315
            ],
            [
              116.34769718013992,
              40.001587307459694
            ],
            [
              116.34768828968308,
              40.0013206406117
            ],
            [
              116.34767050893468,
              40.00078730687868
            ],
            [
              116.34766161864316,
              40.00052063999363
            ],
            [
              116.34765272840673,
              40.00025397309623
            ],
            [
              116.34764383822542,
              39.999987306186476
            ],
            [
              116.34764367366382,
              39.99998307556352
            ],
            [
              116.34763190520317,
              39.999718369932275
            ],
            [
              116.34762013681957,
              39.99945366428851
            ],
            [
              116.34760836851298,
              39.99918895863223
            ],
            [
              116.34759660028344,
              39.99892425296344
            ],
            [
              116.34758483213092,
              39.99865954728213
            ],
            [
              116.34757306405544,
              39.998394841588315
            ],
            [
              116.34756129605698,
              39.99813013588198
            ],
            [
              116.34754952813554,
              39.99786543016314
            ],
            [
              116.34753776029116,
              39.99760072443177
            ],
            [
              116.34752599252377,
              39.9973360186879
            ],
            [
              116.34751422483342,
              39.99707131293151
            ],
            [
              116.34749068968375,
              39.996541901381214
            ],
            [
              116.34747892222447,
              39.996277195587275
            ],
            [
              116.34746715484218,
              39.99601248978083
            ],
            [
              116.3474553875369,
              39.99574778396188
            ],
            [
              116.34744362030865,
              39.99548307813041
            ],
            [
              116.34743185315739,
              39.99521837228644
            ],
            [
              116.34742008608315,
              39.99495366642993
            ],
            [
              116.34740831908591,
              39.99468896056093
            ],
            [
              116.34739655216569,
              39.9944242546794
            ],
            [
              116.34737301855623,
              39.993894842878845
            ],
            [
              116.34736125186699,
              39.993630136959766
            ],
            [
              116.34735547285341,
              39.99350013041417
            ],
            [
              116.353,
              39.99349999999999
            ],
            [
              116.353,
              39.9835
            ],
            [
              116.34739397573314,
              39.983500130447894
            ],
            [
              116.34739645612953,
              39.98337603988145
            ],
            [
              116.3474069763172,
              39.98284972372015
            ],
            [
              116.34741223632993,
              39.98258656562079
            ],
            [
              116.34742275619318,
              39.98206024938467
            ],
            [
              116.34742801604368,
              39.981797091247905
            ],
            [
              116.34743327584013,
              39.98153393309867
            ],
            [
              116.34744373295433,
              39.981010734662384
            ],
            [
              116.34745337500958,
              39.98074555923078
            ],
            [
              116.34746313031393,
              39.98047726673649
            ],
            [
              116.34747288552774,
              39.980208974228375
            ],
            [
              116.34748264065097,
              39.979940681706466
            ],
            [
              116.34749239568369,
              39.979672389170744
            ],
            [
              116.34751190547745,
              39.97913580405787
            ],
            [
              116.34752166023853,
              39.97886751148073
            ],
            [
              116.34754116948905,
              39.97833092628499
            ],
            [
              116.3475509239785,
              39.97806263366641
            ],
            [
              116.34756067837742,
              39.97779434103401
            ],
            [
              116.34758018690366,
              39.9772577557278
            ],
            [
              116.34758994103096,
              39.97698946305398
            ],
            [
              116.34760944901402,
              39.97645287766491
            ],
            [
              116.34761920286977,
              39.97618458494966
            ],
            [
              116.34763871030965,
              39.97564799947775
            ],
            [
              116.3476484638938,
              39.975379706721064
            ],
            [
              116.34766797079058,
              39.97484312116629
            ],
            [
              116.34767772410318,
              39.97457482836818
            ],
            [
              116.34769723045687,
              39.97403824273055
            ],
            [
              116.34770698349794,
              39.973769949891015
            ],
            [
              116.34772648930854,
              39.97323336417053
            ],
            [
              116.34773624207808,
              39.97296507128957
            ],
            [
              116.34774599475713,
              39.9726967783948
            ],
            [
              116.34776549984372,
              39.97216019256384
            ],
            [
              116.34777525225127,
              39.97189189962765
            ],
            [
              116.34779475679484,
              39.97135531371385
            ],
            [
              116.34780450893086,
              39.97108702073623
            ],
            [
              116.34781426097642,
              39.9708187277448
            ],
            [
              116.34782401293148,
              39.97055043473955
            ],
            [
              116.34783376479605,
              39.97028214172052
            ],
            [
              116.34784319190781,
              39.97002278091191
            ],
            [
              116.34788689624031,
              39.96949836546602
            ],
            [
              116.34790911971393,
              39.96923169901515
            ],
            [
              116.3479313430008,
              39.96896503254637
            ],
            [
              116.34797578901437,
              39.96843169955522
            ],
            [
              116.34799801174107,
              39.96816503303283
            ],
            [
              116.34808690078074,
              39.96709836676455
            ],
            [
              116.34810912257392,
              39.966831700152795
            ],
            [
              116.34817578683317,
              39.96603170021029
            ],
            [
              116.34819800787955,
              39.965765033527035
            ],
            [
              116.34824244941224,
              39.965231700106926
            ],
            [
              116.34826466989857,
              39.96496503337005
            ],
            [
              116.34828689019821,
              39.96469836661532
            ],
            [
              116.34830911031119,
              39.96443169984271
            ],
            [
              116.34837576953014,
              39.96363169941766
            ],
            [
              116.34839798889647,
              39.963365032573556
            ],
            [
              116.34842020807613,
              39.963098365711595
            ],
            [
              116.34844242706917,
              39.96283169883176
            ],
            [
              116.34848686449527,
              39.96229836501846
            ],
            [
              116.34850908292837,
              39.96203169808501
            ],
            [
              116.34857573710785,
              39.96123169717744
            ],
            [
              116.34859795479441,
              39.9609650301725
            ],
            [
              116.34868682367454,
              39.959898361974076
            ],
            [
              116.34870904042803,
              39.959631694879796
            ],
            [
              116.34875347337521,
              39.959098360637626
            ],
            [
              116.34877568956891,
              39.958831693489735
            ],
            [
              116.34879790557602,
              39.958565026323974
            ],
            [
              116.34884221702971,
              39.958033132383754
            ],
            [
              116.34886647796824,
              39.95776627981034
            ],
            [
              116.34889086960963,
              39.95749798733557
            ],
            [
              116.34893965227802,
              39.956961402328886
            ],
            [
              116.34896404330502,
              39.95669310979701
            ],
            [
              116.34901282474468,
              39.95615652467609
            ],
            [
              116.34903721515732,
              39.9558882320871
            ],
            [
              116.34911038516668,
              39.95508335420584
            ],
            [
              116.34913477476024,
              39.9548150615407
            ],
            [
              116.34918355333315,
              39.954278476153284
            ],
            [
              116.34920794231246,
              39.954010183431016
            ],
            [
              116.34925671965688,
              39.95347359792938
            ],
            [
              116.34928110802197,
              39.953205305150036
            ],
            [
              116.34932988413793,
              39.95266871953419
            ],
            [
              116.34935427188883,
              39.95240042669772
            ],
            [
              116.34940304677646,
              39.95186384096767
            ],
            [
              116.34942743391319,
              39.95159554807409
            ],
            [
              116.34947620757255,
              39.951058962229844
            ],
            [
              116.34950059409515,
              39.95079066927917
            ],
            [
              116.34954936652629,
              39.95025408332071
            ],
            [
              116.34957375243482,
              39.94998579031294
            ],
            [
              116.34958698754144,
              39.94984017713017
            ],
            [
              116.35500000000002,
              39.94983999999999
            ],
            [
              116.35500000000002,
              39.943999999999996
            ],
            [
              116.35006960102477,
              39.94400017159429
            ],
            [
              116.35008247157948,
              39.943828547668325
            ],
            [
              116.3501024695196,
              39.943561880914466
            ],
            [
              116.35012246729045,
              39.94329521414372
            ],
            [
              116.35014246489204,
              39.94302854735603
            ],
            [
              116.35016246232438,
              39.94276188055142
            ],
            [
              116.35018245958747,
              39.94249521372992
            ],
            [
              116.35020245668134,
              39.94222854689146
            ],
            [
              116.35022245360595,
              39.941961880036104
            ],
            [
              116.35024245036134,
              39.94169521316382
            ],
            [
              116.35026244694748,
              39.941428546274615
            ],
            [
              116.35028244336439,
              39.94116187936851
            ],
            [
              116.35030243961205,
              39.94089521244547
            ],
            [
              116.35032243569052,
              39.94062854550552
            ],
            [
              116.35036242733977,
              39.94009521157485
            ],
            [
              116.35038242291057,
              39.93982854458416
            ],
            [
              116.35040241831216,
              39.93956187757651
            ],
            [
              116.35042241354455,
              39.939295210552
            ],
            [
              116.35044240860772,
              39.93902854351052
            ],
            [
              116.34980485606548,
              39.93900021577821
            ],
            [
              116.34949141694653,
              39.93900022023408
            ],
            [
              116.34919444560984,
              39.93900022367405
            ],
            [
              116.34915543414523,
              39.93900022406942
            ],
            [
              116.34913759194625,
              39.939238119716514
            ],
            [
              116.34911759174895,
              39.939504786482125
            ],
            [
              116.34909759138239,
              39.93977145323084
            ],
            [
              116.34907759084653,
              39.94003811996261
            ],
            [
              116.34903758926698,
              39.9405714533754
            ],
            [
              116.34901758822328,
              39.940838120056405
            ],
            [
              116.34899758701029,
              39.9411047867205
            ],
            [
              116.34897758562802,
              39.941371453367644
            ],
            [
              116.34895758407644,
              39.941638119997904
            ],
            [
              116.34893758235555,
              39.941904786611225
            ],
            [
              116.34891758046535,
              39.942171453207614
            ],
            [
              116.34889757840585,
              39.94243811978709
            ],
            [
              116.34887757617705,
              39.942704786349644
            ],
            [
              116.34885757377893,
              39.94297145289527
            ],
            [
              116.3488375712115,
              39.943238119423974
            ],
            [
              116.34881756847476,
              39.94350478593574
            ],
            [
              116.34879756556866,
              39.94377145243061
            ],
            [
              116.3487804082203,
              39.94400018188062
            ],
            [
              116.34200000000001,
              39.943999999999996
            ],
            [
              116.34200000000001,
              39.94984
            ]
          ]
        ]
      }
    },
    {
      "type": "Feature",
      "id": "PHASE-002",
      "properties": {
        "id": "PHASE-002",
        "layer": "PHASE",
        "source_type": "agent_generated_design",
        "confidence": "medium",
        "geometry_role": "design_proposal",
        "phase": "phase_2",
        "name_zh": "二期：走廊更新与两翼缝合（科技服务翼·近校界面·小月河两岸）",
        "name_en": "Phase 2: corridor renewal and two-wing stitching",
        "note_zh": "控规、道路、市政与权属条件确认后推进站城一体化与用地更新；分期为概念建议，实施时序以专业团队与实施主体确认为准",
        "area_sqm_declared": 6993800
      },
      "geometry": {
        "type": "MultiPolygon",
        "coordinates": [
          [
            [
              [
                116.3533,
                39.99
              ],
              [
                116.3553,
                39.965
              ],
              [
                116.3553,
                39.939
              ],
              [
                116.34980485606548,
                39.93900021577821
              ],
              [
                116.35044240860772,
                39.93902854351052
              ],
              [
                116.35042241354455,
                39.939295210552
              ],
              [
                116.35040241831216,
                39.93956187757651
              ],
              [
                116.35038242291057,
                39.93982854458416
              ],
              [
                116.35036242733977,
                39.94009521157485
              ],
              [
                116.35032243569052,
                39.94062854550552
              ],
              [
                116.35030243961205,
                39.94089521244547
              ],
              [
                116.35028244336439,
                39.94116187936851
              ],
              [
                116.35026244694748,
                39.941428546274615
              ],
              [
                116.35024245036134,
                39.94169521316382
              ],
              [
                116.35022245360595,
                39.941961880036104
              ],
              [
                116.35020245668134,
                39.94222854689146
              ],
              [
                116.35018245958747,
                39.94249521372992
              ],
              [
                116.35016246232438,
                39.94276188055142
              ],
              [
                116.35014246489204,
                39.94302854735603
              ],
              [
                116.35012246729045,
                39.94329521414372
              ],
              [
                116.3501024695196,
                39.943561880914466
              ],
              [
                116.35008247157948,
                39.943828547668325
              ],
              [
                116.35006960102477,
                39.94400017159429
              ],
              [
                116.35500000000002,
                39.943999999999996
              ],
              [
                116.35500000000002,
                39.94983999999999
              ],
              [
                116.34958698754144,
                39.94984017713017
              ],
              [
                116.34957375243482,
                39.94998579031294
              ],
              [
                116.34954936652629,
                39.95025408332071
              ],
              [
                116.34950059409515,
                39.95079066927917
              ],
              [
                116.34947620757255,
                39.951058962229844
              ],
              [
                116.34942743391319,
                39.95159554807409
              ],
              [
                116.34940304677646,
                39.95186384096767
              ],
              [
                116.34935427188883,
                39.95240042669772
              ],
              [
                116.34932988413793,
                39.95266871953419
              ],
              [
                116.34928110802197,
                39.953205305150036
              ],
              [
                116.34925671965688,
                39.95347359792938
              ],
              [
                116.34920794231246,
                39.954010183431016
              ],
              [
                116.34918355333315,
                39.954278476153284
              ],
              [
                116.34913477476024,
                39.9548150615407
              ],
              [
                116.34911038516668,
                39.95508335420584
              ],
              [
                116.34903721515732,
                39.9558882320871
              ],
              [
                116.34901282474468,
                39.95615652467609
              ],
              [
                116.34896404330502,
                39.95669310979701
              ],
              [
                116.34893965227802,
                39.956961402328886
              ],
              [
                116.34889086960963,
                39.95749798733557
              ],
              [
                116.34886647796824,
                39.95776627981034
              ],
              [
                116.34884221702971,
                39.958033132383754
              ],
              [
                116.34879790557602,
                39.958565026323974
              ],
              [
                116.34877568956891,
                39.958831693489735
              ],
              [
                116.34875347337521,
                39.959098360637626
              ],
              [
                116.34870904042803,
                39.959631694879796
              ],
              [
                116.34868682367454,
                39.959898361974076
              ],
              [
                116.34859795479441,
                39.9609650301725
              ],
              [
                116.34857573710785,
                39.96123169717744
              ],
              [
                116.34850908292837,
                39.96203169808501
              ],
              [
                116.34848686449527,
                39.96229836501846
              ],
              [
                116.34844242706917,
                39.96283169883176
              ],
              [
                116.34842020807613,
                39.963098365711595
              ],
              [
                116.34839798889647,
                39.963365032573556
              ],
              [
                116.34837576953014,
                39.96363169941766
              ],
              [
                116.34830911031119,
                39.96443169984271
              ],
              [
                116.34828689019821,
                39.96469836661532
              ],
              [
                116.34826466989857,
                39.96496503337005
              ],
              [
                116.34824244941224,
                39.965231700106926
              ],
              [
                116.34819800787955,
                39.965765033527035
              ],
              [
                116.34817578683317,
                39.96603170021029
              ],
              [
                116.34810912257392,
                39.966831700152795
              ],
              [
                116.34808690078074,
                39.96709836676455
              ],
              [
                116.34799801174107,
                39.96816503303283
              ],
              [
                116.34797578901437,
                39.96843169955522
              ],
              [
                116.3479313430008,
                39.96896503254637
              ],
              [
                116.34790911971393,
                39.96923169901515
              ],
              [
                116.34788689624031,
                39.96949836546602
              ],
              [
                116.34784319190781,
                39.97002278091191
              ],
              [
                116.34783376479605,
                39.97028214172052
              ],
              [
                116.34782401293148,
                39.97055043473955
              ],
              [
                116.34781426097642,
                39.9708187277448
              ],
              [
                116.34780450893086,
                39.97108702073623
              ],
              [
                116.34779475679484,
                39.97135531371385
              ],
              [
                116.34777525225127,
                39.97189189962765
              ],
              [
                116.34776549984372,
                39.97216019256384
              ],
              [
                116.34774599475713,
                39.9726967783948
              ],
              [
                116.34773624207808,
                39.97296507128957
              ],
              [
                116.34772648930854,
                39.97323336417053
              ],
              [
                116.34770698349794,
                39.973769949891015
              ],
              [
                116.34769723045687,
                39.97403824273055
              ],
              [
                116.34767772410318,
                39.97457482836818
              ],
              [
                116.34766797079058,
                39.97484312116629
              ],
              [
                116.3476484638938,
                39.975379706721064
              ],
              [
                116.34763871030965,
                39.97564799947775
              ],
              [
                116.34761920286977,
                39.97618458494966
              ],
              [
                116.34760944901402,
                39.97645287766491
              ],
              [
                116.34758994103096,
                39.97698946305398
              ],
              [
                116.34758018690366,
                39.9772577557278
              ],
              [
                116.34756067837742,
                39.97779434103401
              ],
              [
                116.3475509239785,
                39.97806263366641
              ],
              [
                116.34754116948905,
                39.97833092628499
              ],
              [
                116.34752166023853,
                39.97886751148073
              ],
              [
                116.34751190547745,
                39.97913580405787
              ],
              [
                116.34749239568369,
                39.979672389170744
              ],
              [
                116.34748264065097,
                39.979940681706466
              ],
              [
                116.34747288552774,
                39.980208974228375
              ],
              [
                116.34746313031393,
                39.98047726673649
              ],
              [
                116.34745337500958,
                39.98074555923078
              ],
              [
                116.34744373295433,
                39.981010734662384
              ],
              [
                116.34743327584013,
                39.98153393309867
              ],
              [
                116.34742801604368,
                39.981797091247905
              ],
              [
                116.34742275619318,
                39.98206024938467
              ],
              [
                116.34741223632993,
                39.98258656562079
              ],
              [
                116.3474069763172,
                39.98284972372015
              ],
              [
                116.34739645612953,
                39.98337603988145
              ],
              [
                116.34739397573314,
                39.983500130447894
              ],
              [
                116.353,
                39.9835
              ],
              [
                116.353,
                39.99349999999999
              ],
              [
                116.34735547285341,
                39.99350013041417
              ],
              [
                116.34736125186699,
                39.993630136959766
              ],
              [
                116.34737301855623,
                39.993894842878845
              ],
              [
                116.34739655216569,
                39.9944242546794
              ],
              [
                116.34740831908591,
                39.99468896056093
              ],
              [
                116.34742008608315,
                39.99495366642993
              ],
              [
                116.34743185315739,
                39.99521837228644
              ],
              [
                116.34744362030865,
                39.99548307813041
              ],
              [
                116.3474553875369,
                39.99574778396188
              ],
              [
                116.34746715484218,
                39.99601248978083
              ],
              [
                116.34747892222447,
                39.996277195587275
              ],
              [
                116.34749068968375,
                39.996541901381214
              ],
              [
                116.34751422483342,
                39.99707131293151
              ],
              [
                116.34752599252377,
                39.9973360186879
              ],
              [
                116.34753776029116,
                39.99760072443177
              ],
              [
                116.34754952813554,
                39.99786543016314
              ],
              [
                116.34756129605698,
                39.99813013588198
              ],
              [
                116.34757306405544,
                39.998394841588315
              ],
              [
                116.34758483213092,
                39.99865954728213
              ],
              [
                116.34759660028344,
                39.99892425296344
              ],
              [
                116.34760836851298,
                39.99918895863223
              ],
              [
                116.34762013681957,
                39.99945366428851
              ],
              [
                116.34763190520317,
                39.999718369932275
              ],
              [
                116.34764367366382,
                39.99998307556352
              ],
              [
                116.34764383822542,
                39.999987306186476
              ],
              [
                116.34765272840673,
                40.00025397309623
              ],
              [
                116.34766161864316,
                40.00052063999363
              ],
              [
                116.34767050893468,
                40.00078730687868
              ],
              [
                116.34768828968308,
                40.0013206406117
              ],
              [
                116.34769718013992,
                40.001587307459694
              ],
              [
                116.3477060706519,
                40.001853974295315
              ],
              [
                116.34771496121897,
                40.002120641118594
              ],
              [
                116.34772385184117,
                40.0023873079295
              ],
              [
                116.34773274251849,
                40.00265397472807
              ],
              [
                116.34775052403846,
                40.00318730828813
              ],
              [
                116.34775941488112,
                40.00345397504964
              ],
              [
                116.3477683057789,
                40.00372064179878
              ],
              [
                116.34778608773983,
                40.00425397525999
              ],
              [
                116.347794978803,
                40.004520641972086
              ],
              [
                116.34780386992128,
                40.00478730867181
              ],
              [
                116.34782165232322,
                40.00532064203418
              ],
              [
                116.34783054360688,
                40.00558730869684
              ],
              [
                116.34783943494568,
                40.005853975347144
              ],
              [
                116.3478483263396,
                40.0061206419851
              ],
              [
                116.34785721778867,
                40.00638730861068
              ],
              [
                116.34786610929287,
                40.006653975223905
              ],
              [
                116.34788389246665,
                40.00718730841331
              ],
              [
                116.34789278413626,
                40.007453974989495
              ],
              [
                116.34789392427906,
                40.007488168444375
              ],
              [
                116.34789432308848,
                40.00750012893253
              ],
              [
                116.354,
                40.0075
              ],
              [
                116.35400000246524,
                40.024522368201836
              ],
              [
                116.35519195225024,
                40.0245290069367
              ],
              [
                116.3533,
                39.99
              ]
            ]
          ],
          [
            [
              [
                116.34070000000001,
                39.93899999999999
              ],
              [
                116.3397,
                39.975
              ],
              [
                116.34169999999999,
                40.00600000000001
              ],
              [
                116.34260037952869,
                40.02445825698066
              ],
              [
                116.34300000260265,
                40.02446052342046
              ],
              [
                116.34299999999999,
                40.0075
              ],
              [
                116.34660565886486,
                40.00750011503241
              ],
              [
                116.34660501881295,
                40.0074809087244
              ],
              [
                116.34660496722309,
                40.00747936064491
              ],
              [
                116.3465960805641,
                40.00721269401131
              ],
              [
                116.34657830741136,
                40.00667936070707
              ],
              [
                116.34656942091759,
                40.00641269403641
              ],
              [
                116.34656053447891,
                40.00614602735341
              ],
              [
                116.34655164809529,
                40.00587936065805
              ],
              [
                116.34654276176671,
                40.00561269395033
              ],
              [
                116.34653387549322,
                40.00534602723027
              ],
              [
                116.3465161031114,
                40.00481269375307
              ],
              [
                116.34650721700308,
                40.00454602699594
              ],
              [
                116.3464983309498,
                40.00427936022646
              ],
              [
                116.34648055900848,
                40.00374602665044
              ],
              [
                116.34647167312039,
                40.0034793598439
              ],
              [
                116.34646278728735,
                40.003212693025006
              ],
              [
                116.34644501578644,
                40.002679359350154
              ],
              [
                116.34643613011855,
                40.0024126924942
              ],
              [
                116.3464272445057,
                40.00214602562589
              ],
              [
                116.34641835894793,
                40.00187935874523
              ],
              [
                116.34640947344519,
                40.001612691852216
              ],
              [
                116.34640058799752,
                40.001346024946855
              ],
              [
                116.34638281726725,
                40.00081269109906
              ],
              [
                116.34637393198469,
                40.00054602415664
              ],
              [
                116.34636504675714,
                40.000279357201855
              ],
              [
                116.3463562320743,
                40.00001480581706
              ],
              [
                116.34634456257517,
                39.999752215138344
              ],
              [
                116.34633279916048,
                39.99948750940531
              ],
              [
                116.34632103582278,
                39.99922280365977
              ],
              [
                116.34630927256204,
                39.99895809790171
              ],
              [
                116.34629750937825,
                39.998693392131145
              ],
              [
                116.34628574627143,
                39.99842868634808
              ],
              [
                116.3462739832416,
                39.99816398055247
              ],
              [
                116.34626222028872,
                39.997899274744384
              ],
              [
                116.3462504574128,
                39.997634568923765
              ],
              [
                116.3462386946138,
                39.997369863090654
              ],
              [
                116.3462269318918,
                39.99710515724502
              ],
              [
                116.34620340667864,
                39.996575745516225
              ],
              [
                116.34619164418747,
                39.996311039633056
              ],
              [
                116.34617988177328,
                39.99604633373739
              ],
              [
                116.34616811943602,
                39.995781627829196
              ],
              [
                116.34615635717572,
                39.9955169219085
              ],
              [
                116.34614459499235,
                39.99525221597529
              ],
              [
                116.34613283288591,
                39.99498751002957
              ],
              [
                116.34612107085644,
                39.994722804071344
              ],
              [
                116.34610930890389,
                39.994458098100594
              ],
              [
                116.34608578522962,
                39.99392868612158
              ],
              [
                116.3460740235079,
                39.9936639801133
              ],
              [
                116.34606674279871,
                39.993500121641965
              ],
              [
                116.34200000000001,
                39.99349999999999
              ],
              [
                116.34200000000001,
                39.98349999999999
              ],
              [
                116.34610603391172,
                39.98350012211382
              ],
              [
                116.34610882134328,
                39.9833608019035
              ],
              [
                116.34611935140612,
                39.982834485937225
              ],
              [
                116.34612461635633,
                39.98257132793538
              ],
              [
                116.34613514609435,
                39.98204501189426
              ],
              [
                116.34614041088216,
                39.98178185385499
              ],
              [
                116.34614567561583,
                39.981518695803274
              ],
              [
                116.34615620492077,
                39.980992379662396
              ],
              [
                116.34615638069388,
                39.98098614471679
              ],
              [
                116.34616614111668,
                39.980717852383876
              ],
              [
                116.34617590144887,
                39.98044956003714
              ],
              [
                116.34618566169046,
                39.98018126767661
              ],
              [
                116.3461954218414,
                39.97991297530225
              ],
              [
                116.34620518190175,
                39.979644682914085
              ],
              [
                116.34622470175059,
                39.979108098096326
              ],
              [
                116.34623446153908,
                39.97883980566674
              ],
              [
                116.34625398084427,
                39.9783032207661
              ],
              [
                116.34626374036094,
                39.97803492829505
              ],
              [
                116.34627349978703,
                39.97776663581022
              ],
              [
                116.34629301836739,
                39.977230050799086
              ],
              [
                116.34630277752166,
                39.97696175827281
              ],
              [
                116.34632229555841,
                39.97642517317881
              ],
              [
                116.34633205444091,
                39.97615688061108
              ],
              [
                116.34635157193412,
                39.975620295434226
              ],
              [
                116.34636133054485,
                39.975352002825076
              ],
              [
                116.34638084749452,
                39.97481541756535
              ],
              [
                116.34639060583349,
                39.974547124914764
              ],
              [
                116.34641012223967,
                39.974010539572156
              ],
              [
                116.34641988030691,
                39.973742246880136
              ],
              [
                116.34643939616961,
                39.97320566145468
              ],
              [
                116.34644915396512,
                39.97293736872123
              ],
              [
                116.34645891167006,
                39.972669075973975
              ],
              [
                116.34647842680818,
                39.972132490438014
              ],
              [
                116.34648818424141,
                39.971864197649325
              ],
              [
                116.34650769883615,
                39.97132761203052
              ],
              [
                116.34651745599766,
                39.971059319200386
              ],
              [
                116.34652721306864,
                39.970791026356444
              ],
              [
                116.34653697004903,
                39.970522733498704
              ],
              [
                116.3465467269389,
                39.970254440627144
              ],
              [
                116.34655648373818,
                39.96998614774177
              ],
              [
                116.34655755190892,
                39.96996829812965
              ],
              [
                116.34660200934825,
                39.969434965848464
              ],
              [
                116.34662423778771,
                39.96916829968104
              ],
              [
                116.34664646604038,
                39.96890163349573
              ],
              [
                116.34669092198533,
                39.9683683010715
              ],
              [
                116.34671314967761,
                39.96810163483257
              ],
              [
                116.34680205857899,
                39.96703496969806
              ],
              [
                116.3468242853374,
                39.966768303369726
              ],
              [
                116.34689096449208,
                39.9659683042775
              ],
              [
                116.34691319050344,
                39.965701637877665
              ],
              [
                116.34695764196593,
                39.96516830502438
              ],
              [
                116.34697986741706,
                39.96490163857089
              ],
              [
                116.34700209268144,
                39.96463497209955
              ],
              [
                116.3470243177591,
                39.96436830561033
              ],
              [
                116.34709099187167,
                39.96356830603542
              ],
              [
                116.34711321620237,
                39.96330163947471
              ],
              [
                116.3471354403464,
                39.9630349728961
              ],
              [
                116.3471576643037,
                39.96276830629963
              ],
              [
                116.34720211165818,
                39.96223497305305
              ],
              [
                116.34722433505536,
                39.961968306402945
              ],
              [
                116.34729100412667,
                39.961168306345385
              ],
              [
                116.34731322677706,
                39.960901639623785
              ],
              [
                116.34740211551178,
                39.959834972558646
              ],
              [
                116.34742433722877,
                39.959568305747666
              ],
              [
                116.34746878010274,
                39.95903497207209
              ],
              [
                116.34749100125973,
                39.958768305207485
              ],
              [
                116.34751322223006,
                39.958501638325025
              ],
              [
                116.34755766361074,
                39.957968304506466
              ],
              [
                116.34755791457272,
                39.9579654241824
              ],
              [
                116.34758231140569,
                39.95769713203386
              ],
              [
                116.3476067080338,
                39.95742883986628
              ],
              [
                116.34765550067539,
                39.95689225547398
              ],
              [
                116.34767989668889,
                39.95662396324927
              ],
              [
                116.34772868810137,
                39.956087378742716
              ],
              [
                116.34775308350034,
                39.95581908646087
              ],
              [
                116.34782626846822,
                39.955014209501094
              ],
              [
                116.34785066304785,
                39.95474591714309
              ],
              [
                116.34789945159264,
                39.95420933236995
              ],
              [
                116.34792384555779,
                39.95394103995483
              ],
              [
                116.3479726328737,
                39.95340445506743
              ],
              [
                116.34799702622442,
                39.95313616259519
              ],
              [
                116.3480458123115,
                39.95259957759357
              ],
              [
                116.34807020504786,
                39.9523312850642
              ],
              [
                116.34811898990617,
                39.95179469994832
              ],
              [
                116.34814338202818,
                39.95152640736184
              ],
              [
                116.3481921656578,
                39.95098982213174
              ],
              [
                116.34821655716549,
                39.95072152948814
              ],
              [
                116.34826533956652,
                39.950184944143814
              ],
              [
                116.3482897304599,
                39.94991665144308
              ],
              [
                116.34829668236993,
                39.949840182047936
              ],
              [
                116.34200000000001,
                39.94984
              ],
              [
                116.34200000000001,
                39.943999999999996
              ],
              [
                116.3487804082203,
                39.94400018188062
              ],
              [
                116.34879756556866,
                39.94377145243061
              ],
              [
                116.34881756847476,
                39.94350478593574
              ],
              [
                116.3488375712115,
                39.943238119423974
              ],
              [
                116.34885757377893,
                39.94297145289527
              ],
              [
                116.34887757617705,
                39.942704786349644
              ],
              [
                116.34889757840585,
                39.94243811978709
              ],
              [
                116.34891758046535,
                39.942171453207614
              ],
              [
                116.34893758235555,
                39.941904786611225
              ],
              [
                116.34895758407644,
                39.941638119997904
              ],
              [
                116.34897758562802,
                39.941371453367644
              ],
              [
                116.34899758701029,
                39.9411047867205
              ],
              [
                116.34901758822328,
                39.940838120056405
              ],
              [
                116.34903758926698,
                39.9405714533754
              ],
              [
                116.34907759084653,
                39.94003811996261
              ],
              [
                116.34909759138239,
                39.93977145323084
              ],
              [
                116.34911759174895,
                39.939504786482125
              ],
              [
                116.34913759194625,
                39.939238119716514
              ],
              [
                116.34915543414523,
                39.93900022406942
              ],
              [
                116.34070000000001,
                39.93899999999999
              ]
            ]
          ]
        ]
      }
    },
    {
      "type": "Feature",
      "id": "PHASE-003",
      "properties": {
        "id": "PHASE-003",
        "layer": "PHASE",
        "source_type": "agent_generated_design",
        "confidence": "medium",
        "geometry_role": "design_proposal",
        "phase": "phase_3",
        "name_zh": "三期：众智园全栈成熟与清河界面",
        "name_en": "Phase 3: Zhongzhiyuan full-stack maturity and Qinghe interface",
        "note_zh": "全栈自主创新载体集聚、清河低碳界面与长期治理机制沉淀；分期为概念建议，实施时序以专业团队与实施主体确认为准",
        "area_sqm_declared": 2011600
      },
      "geometry": {
        "type": "Polygon",
        "coordinates": [
          [
            [
              116.34300000260265,
              40.02446052342046
            ],
            [
              116.34260037952869,
              40.02445825698066
            ],
            [
              116.34270000000001,
              40.026500000000006
            ],
            [
              116.34715556047054,
              40.02650015658466
            ],
            [
              116.34763628210264,
              40.02650016323946
            ],
            [
              116.34773920009368,
              40.02650016440499
            ],
            [
              116.34777251012859,
              40.026500164762645
            ],
            [
              116.3477898846005,
              40.026500164945396
            ],
            [
              116.3553,
              40.02649999999999
            ],
            [
              116.35519195225024,
              40.0245290069367
            ],
            [
              116.35400000246524,
              40.024522368201836
            ],
            [
              116.354,
              40.0075
            ],
            [
              116.34789432308848,
              40.00750012893253
            ],
            [
              116.34789392427906,
              40.007488168444375
            ],
            [
              116.34660501881295,
              40.0074809087244
            ],
            [
              116.34660565886486,
              40.00750011503241
            ],
            [
              116.34299999999999,
              40.0075
            ],
            [
              116.34300000260265,
              40.02446052342046
            ]
          ]
        ]
      }
    }
  ]
}
