{"type": "FeatureCollection", "name": "green_space", "crs": {"type": "name", "properties": {"name": "urn:ogc:def:crs:OGC:1.3:CRS84"}}, "metadata": {"generated_by": "zipper-v2 pipeline (gen_geometry.py) — partitioned in EPSG:4548, exchanged as EPSG:4326", "design_model": "拉链京张 Zipper Jingzhang — 链带/链齿/三核", "boundary_status": "provisional_rough (official polygons pending)", "note_zh": "链带公园绿地+两侧防护绿地+A1花园型公园绿地", "revision": "R5 badge/EN-A0 consistency 2026-08-31 — visual state badge + EN A0 figure mapping; shapes and topology unchanged since R1"}, "features": [{"type": "Feature", "id": "GREEN-001", "properties": {"id": "GREEN-001", "layer": "GREEN_SPACE", "source_type": "agent_generated_design", "confidence": "medium", "geometry_role": "design_proposal", "green_type_zh": "公园绿地", "region": "A1 众智园", "basis_land_use": "LU-004"}, "geometry": {"type": "MultiPolygon", "coordinates": [[[[116.34300000141684, 40.01105769339919], [116.34300000247093, 40.01140083396701], [116.34553916469717, 40.011415201354126], [116.34555808678822, 40.00943397069494], [116.34557655483438, 40.00750009078607], [116.34529167043057, 40.00750008480341], [116.34483333744508, 40.007500070346936], [116.34437500448452, 40.007500054077774], [116.34391667154888, 40.00750003599589], [116.34345833855195, 40.00750002510689], [116.34300000566624, 40.0075000033996], [116.34300000302994, 40.00785577068308], [116.34300000036835, 40.00821153794483], [116.34299999768152, 40.0085673051848], [116.34300000659428, 40.008923081475], [116.34300000385699, 40.009278848671435], [116.34300000226328, 40.00941949662113], [116.34300000109444, 40.00963461584612], [116.34299999822028, 40.009990392004624], [116.34300000711863, 40.010346159202165], [116.34300000428036, 40.010701926311555], [116.34300000141684, 40.01105769339919]]], [[[116.34908748553963, 40.01143518568044], [116.35069228517185, 40.01144418831272], [116.35071105829896, 40.00946295563139], [116.34910630505757, 40.00945395362714], [116.34908748553963, 40.01143518568044]]], [[[116.34903101580353, 40.0173788777196], [116.35063595463583, 40.01738788223619], [116.35065473334048, 40.015406651615145], [116.3490498409128, 40.01539764772669], [116.34903101580353, 40.0173788777196]]], [[[116.35400000837146, 40.01740668414651], [116.35400001123708, 40.01710577329304], [116.35400000425467, 40.01675000638162], [116.35400000896001, 40.01639423951375], [116.35400001364049, 40.01603847262412], [116.35400000666866, 40.015682696641804], [116.35400000863599, 40.01542534807752], [116.35323144535663, 40.01542106118703], [116.35321274115636, 40.01740229281333], [116.35400000837146, 40.01740668414651]]], [[[116.34666510236323, 40.01981751009603], [116.34666959056155, 40.01934692342727], [116.34546345759374, 40.019340117122105], [116.34545896111108, 40.01981070367807], [116.34666510236323, 40.01981751009603]]], [[[116.34666304096035, 40.02003364404247], [116.34545689590321, 40.02002683757273], [116.345444526132, 40.021321344346845], [116.3466506939793, 40.02132815112684], [116.34666304096035, 40.02003364404247]]], [[[116.35057960736347, 40.02333156997862], [116.35059839164754, 40.021350341417936], [116.3489933599922, 40.02134133564496], [116.34897452928975, 40.0233225635774], [116.35057960736347, 40.02333156997862]]], [[[116.35055582780531, 40.0258393810891], [116.3505608212192, 40.02531279785249], [116.34895569672247, 40.02530379082298], [116.34895069096918, 40.025830373892596], [116.35055582780531, 40.0258393810891]]]]}}, {"type": "Feature", "id": "GREEN-AXIS", "properties": {"id": "GREEN-AXIS", "layer": "GREEN_SPACE", "source_type": "agent_generated_design", "confidence": "medium", "geometry_role": "design_proposal", "green_type_zh": "公园绿地（京张遗址公园链带）", "region": "链带", "basis_land_use": "LU-AXIS"}, "geometry": {"type": "Polygon", "coordinates": [[[116.3479691376786, 40.008902287880126], [116.34797684933382, 40.00809178376632], [116.34865073930759, 40.00809557325512], [116.34871905632066, 40.00090650384254], [116.34796920503484, 40.00090228757933], [116.34797691450646, 40.00009178234331], [116.34872675692776, 40.0000959984862], [116.34879504646356, 39.99290693702325], [116.34796927125257, 39.99290229435048], [116.34797697854113, 39.992091787992315], [116.34880274399279, 39.992096430532555], [116.34883303014477, 39.98890714941529], [116.34796929960794, 39.98890229360931], [116.34797700580526, 39.988091786690084], [116.3488407261356, 39.98809664235747], [116.34887100623476, 39.98490735900856], [116.34796933650195, 39.9849022901829], [116.34797704160799, 39.984091782702635], [116.34887870068752, 39.984096851383605], [116.34900860557785, 39.97040813472351], [116.34796944476494, 39.97040229410936], [116.34797714591657, 39.96959178459546], [116.34901629445804, 39.969597625042866], [116.34930632752855, 39.9390002241933], [116.34891249696717, 39.939000228718776], [116.34845624742498, 39.939000232387514], [116.34799999790711, 39.939000234260725], [116.34790233888423, 39.93900022539057], [116.34706994915742, 40.02650015434546], [116.34736666260008, 40.026500159725536], [116.34783333495082, 40.026500166369914], [116.3482999956129, 40.02650017106891], [116.34847572997398, 40.02650016860781], [116.3486430356213, 40.008906077477086], [116.3479691376786, 40.008902287880126]], [[116.34797730212766, 39.94879178159773], [116.34903038763768, 39.94879769956217], [116.34902270458265, 39.94960821216199], [116.34796960664575, 39.94960229402859], [116.34797730212766, 39.94879178159773]], [[116.34902283112663, 39.967108210046874], [116.34796946471972, 39.96710228977354], [116.34797716497167, 39.9662917797968], [116.34903051894085, 39.966297699901126], [116.34902283112663, 39.967108210046874]], [[116.34903043618948, 39.95559770064442], [116.34902275128543, 39.95640821229069], [116.34796954905671, 39.95640229332567], [116.34797724639188, 39.95559178184838], [116.34903043618948, 39.95559770064442]], [[116.34797732529528, 39.94509178260664], [116.34903035407552, 39.945097700118644], [116.34902267202631, 39.94590821323729], [116.3479696308215, 39.94590229555633], [116.34797732529528, 39.94509178260664]]]}}, {"type": "Feature", "id": "GREEN-PROT", "properties": {"id": "GREEN-PROT", "layer": "GREEN_SPACE", "source_type": "agent_generated_design", "confidence": "medium", "geometry_role": "design_proposal", "green_type_zh": "防护绿地（链带两侧）", "region": "链带两侧", "basis_land_use": "LU-PROT"}, "geometry": {"type": "MultiPolygon", "coordinates": [[[[116.34930632752855, 39.9390002241933], [116.34901629445804, 39.969597625042866], [116.34903055053597, 39.96959770510317], [116.34902286182412, 39.97040821478611], [116.34900860557785, 39.97040813472351], [116.34887870068752, 39.984096851383605], [116.34903066888035, 39.984097704982794], [116.34902297622311, 39.984908212632114], [116.34887100623476, 39.98490735900856], [116.3488407261356, 39.98809664235747], [116.34903069452764, 39.98809770945919], [116.34902300078164, 39.98890821654747], [116.34883303014477, 39.98890714941529], [116.34880274399279, 39.992096430532555], [116.34903072872588, 39.99209771125026], [116.3490230338911, 39.99290821777749], [116.34879504646356, 39.99290693702325], [116.34872675692776, 40.0000959984862], [116.34903078765277, 40.000097706578934], [116.3490230906399, 40.00090821198402], [116.34871905632066, 40.00090650384254], [116.34865073930759, 40.00809557325512], [116.3490308454911, 40.00809770897949], [116.34902314629966, 40.0089082132624], [116.3486430356213, 40.008906077477086], [116.34847572997398, 40.02650016860781], [116.34876666801469, 40.026500173954354], [116.3489443236024, 40.02650017257378], [116.34977432379455, 39.93900022001589], [116.3493687465337, 39.93900022325452], [116.34930632752855, 39.9390002241933]]], [[[116.34706994915742, 40.02650015434546], [116.34790233888423, 39.93900022539057], [116.34754374849916, 39.93900022533271], [116.34743434263527, 39.93900023101705], [116.34660135563207, 40.026500142799506], [116.34690000198911, 40.026500151267705], [116.34706994915742, 40.02650015434546]]]]}}]}