{"type": "FeatureCollection", "name": "key_areas", "crs": {"type": "name", "properties": {"name": "urn:ogc:def:crs:OGC:1.3:CRS84"}}, "metadata": {"generated_by": "zipper-v2 pipeline (gen_geometry.py) — partitioned in EPSG:4548, exchanged as EPSG:4326", "design_model": "拉链京张 Zipper Jingzhang — 链带/链齿/三核", "boundary_status": "provisional_rough (official polygons pending)", "note_zh": "三处重点区域：provisional 粗略范围，feature id=官方 area_id", "revision": "R5 badge/EN-A0 consistency 2026-08-31 — visual state badge + EN A0 figure mapping; shapes and topology unchanged since R1"}, "features": [{"type": "Feature", "id": "zhongzhiyuan_ai_acceleration_area", "properties": {"id": "zhongzhiyuan_ai_acceleration_area", "layer": "KEY_AREA", "source_type": "agent_inferred_from_public_data", "confidence": "low", "geometry_role": "provisional_constraint", "official_boundary": false, "boundary_precision": "provisional_rough", "area_id": "zhongzhiyuan_ai_acceleration_area", "ref": "KEY-A1", "name_zh": "众智园AI自主创新加速区", "official_area_sqm": 1921000, "design_positioning_zh": "花园型全栈自主创新街区", "basis": "brief/site-package/geometry/provisional_boundaries.geojson#PROV-KEY-001"}, "geometry": {"type": "Polygon", "coordinates": [[[116.34300000036835, 40.00821153794483], [116.34299999768152, 40.0085673051848], [116.34300000659428, 40.008923081475], [116.34300000385699, 40.009278848671435], [116.34300000109444, 40.00963461584612], [116.34299999822028, 40.009990392004624], [116.34300000711863, 40.010346159202165], [116.34300000428036, 40.010701926311555], [116.34300000141684, 40.01105769339919], [116.34300001015332, 40.01141346953704], [116.34300000723933, 40.01176923658114], [116.34300000430005, 40.01212500360346], [116.34300000133555, 40.01248077060404], [116.34300000997126, 40.012836546654825], [116.3430000069563, 40.013192313611874], [116.34300000391605, 40.013548080547146], [116.34300001247621, 40.01390385653264], [116.3430000093855, 40.01425962342441], [116.34300000626953, 40.01461539029439], [116.34300000312831, 40.01497115714261], [116.34300001158772, 40.01532693304105], [116.34300000839602, 40.015682699845755], [116.34300000517905, 40.016038466628686], [116.34300001356293, 40.01639424246183], [116.3430000102955, 40.016750009201225], [116.34300000700279, 40.017105775918864], [116.3430000036848, 40.01746154261475], [116.34300001196794, 40.01781731836084], [116.34300000859947, 40.01817308501319], [116.34300000520578, 40.01852885164376], [116.34300001349969, 40.01888461831899], [116.34300000996915, 40.0192403939116], [116.3430000064997, 40.01959616047689], [116.34300000300499, 40.0199519270204], [116.34300001111178, 40.02030770261414], [116.34300000756659, 40.02066346911414], [116.34300000399612, 40.02101923559237], [116.34300001211373, 40.021375002115235], [116.34300000840643, 40.0217307775555], [116.34300000476021, 40.02208654396843], [116.34300000108874, 40.0224423103596], [116.34300000910557, 40.0227980767954], [116.34300000529724, 40.02315385214861], [116.34300000155002, 40.02350961847448], [116.34299999777753, 40.023865384778574], [116.34300000560718, 40.0242211601329], [116.34300000178423, 40.024576926393465], [116.34299999793599, 40.024932692632284], [116.34300000577646, 40.02528845891573], [116.34300000179135, 40.02564423411657], [116.34299999786734, 40.02600000029009], [116.34345833740036, 40.02600002233244], [116.34391666524428, 40.02600004249551], [116.34437500482728, 40.02600006091199], [116.34483333280723, 40.02600006844369], [116.34529166072588, 40.0260000831681], [116.3457500003835, 40.026000096145786], [116.34620832835179, 40.0260001072444], [116.34666666805899, 40.026000116596194], [116.34712499607677, 40.026000124069014], [116.34758333583335, 40.02600012979492], [116.34804166390046, 40.02600013364198], [116.34850000379197, 40.02600012673642], [116.34895833190818, 40.02600012695767], [116.34941666004887, 40.02600012536604], [116.34987499992822, 40.026000122027256], [116.35033332811784, 40.02600011680984], [116.35079166804599, 40.02600010984518], [116.35124999628437, 40.02600010100196], [116.35170833626117, 40.026000090411415], [116.35216666463329, 40.02600006893682], [116.35262500465856, 40.026000054720384], [116.35308333299383, 40.02600003862558], [116.35354166135326, 40.0260000207179], [116.35400000145094, 40.02600000106265], [116.35399999508793, 40.02564423469549], [116.35400000049913, 40.02528845936627], [116.35400000580051, 40.02493269302088], [116.35399999936315, 40.02457692658841], [116.35400000461486, 40.02422116019947], [116.35399999821288, 40.02386538471786], [116.35400000341495, 40.02350961828539], [116.35400000859215, 40.02315385183113], [116.3540000020309, 40.022798085289814], [116.35400000724337, 40.02244230978642], [116.35400000063258, 40.02208654320156], [116.35400000571045, 40.02173077666025], [116.3540000108484, 40.021375001091556], [116.35400000416325, 40.02101923444139], [116.3540000091666, 40.02066346783474], [116.3540000024319, 40.020307701141036], [116.35400000747055, 40.01995192548526], [116.35400001239935, 40.01959615881331], [116.35400000559035, 40.019240392054286], [116.35400001046952, 40.01888462533881], [116.35400000369589, 40.018528849530654], [116.35400000852539, 40.01817308277162], [116.35400001333004, 40.017817315990825], [116.35400000639717, 40.01746154912296], [116.35400001123708, 40.01710577329304], [116.35400000425467, 40.01675000638162], [116.35400000896001, 40.01639423951375], [116.35400001364049, 40.01603847262412], [116.35400000666866, 40.015682696641804], [116.35400001129949, 40.01532692970863], [116.35400000419322, 40.014971162688376], [116.35400000877439, 40.014615395711665], [116.35400001341563, 40.01425961970757], [116.35400000623501, 40.013903852622015], [116.3540000107417, 40.01354808557999], [116.35400000359647, 40.013192309445294], [116.3540000080535, 40.01283654235974], [116.35400000077382, 40.01248077518711], [116.3540000051812, 40.01212500805801], [116.35400000964863, 40.01176923190153], [116.35400000229464, 40.011413464663605], [116.35400000662752, 40.0110576974692], [116.353999999224, 40.010701930187736], [116.35400000359212, 40.01034615394418], [116.3540000078505, 40.00999038668446], [116.3540000003727, 40.009634619337696], [116.35400000458141, 40.00927885203444], [116.35399999713896, 40.008923075638535], [116.35400000129805, 40.008567308291745], [116.35400000543227, 40.008211540923185], [116.35399999783061, 40.0078557734676], [116.35400000200009, 40.00749999704987], [116.35354166854954, 40.007500017034936], [116.3530833350381, 40.00750004421289], [116.35262500163573, 40.00750006057252], [116.35216666825757, 40.00750007511944], [116.35170833490363, 40.00750008785364], [116.35125000157399, 40.00750009877513], [116.35079166826864, 40.007500107883914], [116.35033333498768, 40.00750011517999], [116.34987500173112, 40.007500120663344], [116.34941666849898, 40.00750012433399], [116.34895833529134, 40.007500126191914], [116.34850000210821, 40.00750012623715], [116.34804166886398, 40.00750013347526], [116.34758333573, 40.00750012989506], [116.34712500262064, 40.007500124502144], [116.34666666953598, 40.00750011729652], [116.34620833647605, 40.007500108278194], [116.34575000344091, 40.00750009744715], [116.34529167043057, 40.00750008480341], [116.34483333744508, 40.007500070346936], [116.34437500448452, 40.007500054077774], [116.34391667154888, 40.00750003599589], [116.34345833855195, 40.00750002510689], [116.34300000566624, 40.0075000033996], [116.34300000302994, 40.00785577068308], [116.34300000036835, 40.00821153794483]]]}}, {"type": "Feature", "id": "beijing_ai_origin_community", "properties": {"id": "beijing_ai_origin_community", "layer": "KEY_AREA", "source_type": "agent_inferred_from_public_data", "confidence": "low", "geometry_role": "provisional_constraint", "official_boundary": false, "boundary_precision": "provisional_rough", "area_id": "beijing_ai_origin_community", "ref": "KEY-A2", "name_zh": "北京AI原点社区", "official_area_sqm": 1043000, "design_positioning_zh": "近校型成果转化与人才社区", "basis": "brief/site-package/geometry/provisional_boundaries.geojson#PROV-KEY-002"}, "geometry": {"type": "Polygon", "coordinates": [[[116.34199999488875, 39.984214288516185], [116.34199999899893, 39.984571426170326], [116.34200000299727, 39.98492857280819], [116.34200000697018, 39.985285719424105], [116.34199999929686, 39.985642856946015], [116.34200000321886, 39.98600000351808], [116.34200000720186, 39.98635714106259], [116.3419999993656, 39.98671428752435], [116.34200000321128, 39.98707143403062], [116.34200000711793, 39.987428571509355], [116.34199999920517, 39.98778571790532], [116.34200000306093, 39.988142855340186], [116.34200000680482, 39.98850000175876], [116.34199999881555, 39.98885714808895], [116.34200000259493, 39.98921428545803], [116.34200000626252, 39.9895714318108], [116.34199999828311, 39.989928569069576], [116.34200000189976, 39.9902857153785], [116.342000005491, 39.99064286166549], [116.34199999743508, 39.99099999885846], [116.3420000009754, 39.991357145101624], [116.34200000449026, 39.99171429132283], [116.34199999635781, 39.99207142845002], [116.3419999998218, 39.99242857462738], [116.34200000334674, 39.992785711777174], [116.34199999505135, 39.99314285784419], [116.34199999843896, 39.99350000395576], [116.34245833142363, 39.993500020386776], [116.342916664347, 39.99350004401084], [116.34337499738172, 39.99350005681675], [116.34383333035514, 39.99350007681571], [116.34429166343969, 39.99350008599651], [116.34474999654907, 39.993500093364716], [116.34520832959727, 39.99350010792601], [116.34566666275626, 39.99350011166912], [116.34612499585407, 39.99350012260529], [116.3465833290625, 39.99350012272328], [116.3470416622098, 39.99350013003435], [116.3474999954675, 39.99350012652722], [116.34795832866412, 39.99350013021315], [116.34841666197094, 39.99350012308092], [116.34887499521669, 39.99350012314174], [116.34933332857244, 39.99350011238437], [116.34979166186717, 39.993500108820086], [116.35024999527172, 39.99350009443759], [116.35070832861526, 39.993500087248194], [116.35116666206841, 39.99350006924058], [116.35162499546058, 39.99350005842605], [116.35208332896218, 39.99350003679332], [116.35254166240286, 39.993500022353665], [116.35299999595273, 39.993499997095824], [116.35300000543256, 39.99314285992497], [116.35300000326376, 39.992785713661206], [116.35300000098498, 39.99242857638112], [116.35299999876614, 39.99207143007348], [116.3529999965223, 39.9917142837439], [116.3530000058767, 39.99135714646338], [116.35300000358275, 39.99100000008994], [116.35300000117884, 39.990642862700206], [116.35299999883486, 39.990285716282884], [116.35299999646588, 39.98992856984365], [116.35300000569484, 39.98957143245347], [116.35300000327577, 39.98921428597033], [116.35300000074672, 39.98885714847094], [116.35299999827761, 39.98850000194395], [116.35300000749116, 39.98814285546039], [116.35300000488701, 39.987785717895186], [116.35300000234281, 39.98742857130239], [116.35299999968863, 39.98707143369332], [116.35299999709441, 39.986714287056685], [116.35300000618254, 39.98635714046345], [116.35300000345329, 39.98600000278857], [116.35300000078396, 39.98564285608612], [116.35299999800466, 39.98528571836739], [116.35300000699243, 39.98492857168644], [116.35300000424802, 39.98457142491818], [116.35300000139364, 39.98421428713365], [116.3529999985992, 39.98385714032153], [116.3529999956948, 39.98350000249315], [116.3525416705272, 39.98350001895105], [116.35208333359185, 39.9835000425368], [116.35162499676576, 39.98350005530439], [116.35116665987879, 39.98350007526518], [116.35070833480815, 39.9835000844734], [116.35024999796973, 39.98350010080926], [116.34979166124096, 39.983500106327], [116.34933333615808, 39.98350011910364], [116.34887499947823, 39.98350012099648], [116.34841666273738, 39.983500130082476], [116.3479583261066, 39.983500128350364], [116.34750000112165, 39.98350013387732], [116.34704166454007, 39.9835001285203], [116.34658332789746, 39.98350013035645], [116.3461250030722, 39.983500121440514], [116.34566666647892, 39.98350011965175], [116.34520832999637, 39.98350010704488], [116.34474999345262, 39.983500101631165], [116.34429166872667, 39.98350008546557], [116.34383333223263, 39.98350007642694], [116.34337499584971, 39.983500056570236], [116.3429166711124, 39.983500043973024], [116.34245833477955, 39.98350002049139], [116.3419999983854, 39.983500004202924], [116.34200000254648, 39.983857141900934], [116.34199999488875, 39.984214288516185]]]}}, {"type": "Feature", "id": "dazhongsi_ai_industry_cluster", "properties": {"id": "dazhongsi_ai_industry_cluster", "layer": "KEY_AREA", "source_type": "agent_inferred_from_public_data", "confidence": "low", "geometry_role": "provisional_constraint", "official_boundary": false, "boundary_precision": "provisional_rough", "area_id": "dazhongsi_ai_industry_cluster", "ref": "KEY-A3", "name_zh": "大钟寺AI产业聚集区", "official_area_sqm": 720000, "design_positioning_zh": "城市型智能经济与国际交往街区", "basis": "brief/site-package/geometry/provisional_boundaries.geojson#PROV-KEY-003"}, "geometry": {"type": "Polygon", "coordinates": [[[116.34199999726647, 39.94468705614998], [116.34200000585152, 39.94503058790353], [116.34200000271277, 39.945374119570396], [116.34199999955044, 39.945717651216974], [116.3419999964508, 39.94606117383758], [116.34200000494178, 39.94640470550999], [116.34200000170873, 39.946748237095726], [116.34199999845207, 39.947091768661174], [116.3419999952581, 39.947435291200634], [116.34200000365503, 39.947778822791925], [116.34200000032763, 39.94812235429653], [116.34199999697668, 39.94846588578082], [116.34200000538932, 39.94880940830557], [116.34200000199124, 39.94915293974931], [116.34199999856952, 39.94949647117278], [116.34199999512424, 39.949840002575954], [116.34246428522147, 39.94984002506692], [116.34292857534447, 39.9498400456984], [116.34339285370598, 39.9498400734098], [116.34385714388043, 39.94984009032236], [116.34432142237942, 39.94984010530925], [116.34478571260512, 39.94984011850287], [116.3452500027705, 39.9498401388427], [116.34571428134618, 39.94984014825132], [116.34617857164847, 39.94984015586653], [116.34664285018935, 39.94984017056199], [116.34710714054248, 39.949840174458274], [116.34757143092096, 39.94984017649507], [116.3480357095381, 39.94984018561225], [116.34849999996716, 39.94984018393012], [116.34896427872032, 39.949840180322774], [116.34942856919974, 39.94984017492171], [116.34989285961905, 39.94984017666684], [116.3503571384476, 39.94984016748123], [116.35082142900232, 39.94984015650172], [116.35128570779584, 39.94984015260297], [116.35174999840058, 39.94984013790454], [116.3522142890302, 39.949840121346625], [116.35267856798355, 39.949840102863874], [116.35314285857801, 39.94984009159272], [116.35360713758102, 39.94984006939114], [116.35407142830988, 39.949840045395355], [116.3545357189788, 39.94984002854578], [116.35499999805593, 39.9498400007659], [116.3549999949724, 39.94949646916858], [116.35500000356681, 39.949152937616056], [116.35500000035252, 39.94880941498385], [116.35499999719976, 39.94846588332564], [116.35500000572476, 39.94812235171224], [116.35500000252578, 39.947778820013475], [116.35499999921917, 39.94743529730012], [116.3549999959741, 39.94709176556076], [116.35500000440656, 39.946748233866224], [116.35500000103072, 39.94640471109199], [116.35499999771638, 39.94606117929177], [116.35500000607941, 39.94571764753634], [116.35500000271891, 39.94537411569555], [116.35499999925075, 39.945030592840176], [116.3549999958441, 39.944687060958806], [116.35500000411461, 39.944343529122236], [116.3550000006618, 39.94399999720028], [116.35453571426285, 39.94400002503414], [116.35407142788856, 39.94400005100863], [116.35360714162371, 39.944000066118015], [116.35314285529891, 39.944000088373706], [116.35267856899888, 39.94400010877002], [116.3522142828086, 39.94400011830123], [116.35174999655833, 39.94400013497877], [116.35128571033295, 39.944000149796906], [116.35082142413252, 39.944000162755664], [116.35035713804226, 39.94400016484932], [116.34989285189192, 39.944000174089304], [116.34942856576667, 39.94400018146989], [116.34896427975188, 39.94400017798539], [116.34849999367697, 39.94400018164719], [116.34803570762726, 39.944000183449624], [116.34757142168834, 39.94400017438694], [116.34710713568926, 39.9440001724706], [116.34664284971548, 39.94400016869485], [116.3461785637671, 39.944000163059734], [116.34571427792993, 39.94400014655952], [116.34525000373263, 39.94400013727169], [116.34478571786072, 39.944000126058455], [116.34432143210032, 39.94400010398013], [116.34385714627959, 39.944000089048124], [116.34339286048451, 39.94400007225673], [116.34292857480128, 39.94400004460025], [116.34246428905767, 39.94400002409008], [116.34200000333985, 39.94400000172052], [116.34200000027181, 39.94434353344824], [116.34199999726647, 39.94468705614998]]]}}]}