{"type": "FeatureCollection", "name": "phasing", "crs": {"type": "name", "properties": {"name": "urn:ogc:def:crs:OGC:1.3:CRS84"}}, "metadata": {"generated_by": "zipper-v2 pipeline (gen_geometry.py) — partitioned in EPSG:4548, exchanged as EPSG:4326", "design_model": "拉链京张 Zipper Jingzhang — 链带/链齿/三核", "boundary_status": "provisional_rough (official polygons pending)", "note_zh": "三期概念分期（近校启动段→站城段→花园段）", "revision": "R5 badge/EN-A0 consistency 2026-08-31 — visual state badge + EN A0 figure mapping; shapes and topology unchanged since R1"}, "features": [{"type": "Feature", "id": "PHASE-001", "properties": {"id": "PHASE-001", "layer": "PHASE", "source_type": "agent_generated_design", "confidence": "medium", "geometry_role": "design_proposal", "name_zh": "一期·近校启动段（A2+Z-01/Z-05/Z-09）", "note_zh": "分期为概念建议：轻量设施/活动/平台可先行；工程实施须待控规、市政、权属确认"}, "geometry": {"type": "Polygon", "coordinates": [[[116.35361360687826, 39.99572550653433], [116.353593994795, 39.995367665654804], [116.35357439468521, 39.995009815811244], [116.35355479467, 39.994651974949605], [116.35353519483434, 39.99429413406426], [116.35351559526312, 39.99393628414957], [116.35349599578647, 39.99357844321681], [116.35347639648937, 39.99322060226034], [116.35345679745667, 39.992862752274526], [116.35343719851856, 39.99250491127066], [116.35341759984486, 39.992147061237425], [116.35339800126575, 39.99178922018612], [116.35337839115789, 39.99143137904581], [116.35335879302272, 39.991073528941456], [116.35333919498208, 39.99071568781905], [116.35331959712096, 39.990357846672936], [116.3532999995242, 39.98999999649747], [116.35332858777642, 39.98964285645537], [116.35335716399808, 39.98928571631661], [116.35338575160496, 39.98892857621181], [116.35341432718137, 39.98857143601035], [116.35344291422781, 39.98821428683722], [116.35347148915903, 39.98785714657305], [116.35350007547528, 39.98750000634285], [116.35352864976134, 39.98714286601598], [116.35355723543232, 39.98678572572307], [116.35358580915813, 39.986428576327874], [116.35361439418385, 39.98607143597226], [116.3536429671797, 39.98571429552001], [116.35367155156024, 39.9853571551017], [116.35370012391101, 39.985000014586745], [116.35372870764637, 39.98464287410573], [116.35375727943698, 39.98428572452245], [116.35378586252722, 39.98392858397874], [116.35381443358796, 39.983571443338406], [116.35384301603307, 39.983214302732], [116.35387158644886, 39.98285716202898], [116.35390016833375, 39.98250001235423], [116.35392873810459, 39.982142871588515], [116.3539573192596, 39.98178573085673], [116.35398588838555, 39.981428590028315], [116.35401446889557, 39.98107144923383], [116.35404303746147, 39.980714299337095], [116.35407161732651, 39.98035715847991], [116.35410018516275, 39.98000001752614], [116.35410281131782, 39.97996728587458], [116.34001524632347, 39.97988792817624], [116.34002172412632, 39.9799885184433], [116.3400447068216, 39.98034484152282], [116.34006768973028, 39.9807011645779], [116.34009067285238, 39.981057487608545], [116.34011365618792, 39.98141381061473], [116.34013663973688, 39.98177013359649], [116.34015962349928, 39.98212645655379], [116.3401826074751, 39.98248277948666], [116.3402055916644, 39.98283910239509], [116.34022857615373, 39.98319541627344], [116.34025156076994, 39.98355173913297], [116.34027454559961, 39.983908061968066], [116.34029753064274, 39.984264384778704], [116.34032051589936, 39.98462070756491], [116.34034350136946, 39.98497703032666], [116.34036648705306, 39.98533335306398], [116.34038947295014, 39.98568967577685], [116.34041245906072, 39.98604599846527], [116.34043544538483, 39.98640232112924], [116.34045843192243, 39.98675864376877], [116.34048141867358, 39.98711496638385], [116.34050440563823, 39.98747128897448], [116.34052739281643, 39.987827611540666], [116.34055038020817, 39.988183934082414], [116.34057336781346, 39.98854025659971], [116.34059635563227, 39.98889657909256], [116.34061934375127, 39.989252892555335], [116.34064233199722, 39.9896092149993], [116.34066532045676, 39.9899655374188], [116.34068830912985, 39.99032185981386], [116.34071129801656, 39.99067818218446], [116.34073427540868, 39.99103450446403], [116.34075726472248, 39.99139082678573], [116.34078025424989, 39.991747149083004], [116.34080324399092, 39.99210347135581], [116.34082623394555, 39.99245979360417], [116.34084922411378, 39.992816115828084], [116.34087221449568, 39.993172438027564], [116.34089520509116, 39.993528760202565], [116.34091819590031, 39.99388508235313], [116.3409411869231, 39.99424140447925], [116.34096417815954, 39.9945977265809], [116.34098716960962, 39.994954048658116], [116.34101016135993, 39.99531036170527], [116.34103315323738, 39.995666683733575], [116.34104780877254, 39.99589379284681], [116.35362670372886, 39.995964628610885], [116.35361360687826, 39.99572550653433]]]}}, {"type": "Feature", "id": "PHASE-002", "properties": {"id": "PHASE-002", "layer": "PHASE", "source_type": "agent_generated_design", "confidence": "medium", "geometry_role": "design_proposal", "name_zh": "二期·站城段（A3+Z-04/Z-08+连接带南）", "note_zh": "分期为概念建议：轻量设施/活动/平台可先行；工程实施须待控规、市政、权属确认"}, "geometry": {"type": "Polygon", "coordinates": [[[116.35412876438284, 39.979642876606256], [116.35415733157429, 39.97928573558981], [116.35418591014948, 39.97892859460723], [116.35421447678095, 39.97857144452245], [116.35424305471126, 39.9782143034772], [116.35427162061322, 39.9778571623354], [116.35430019789868, 39.97750002122744], [116.35432876315593, 39.97714288002297], [116.35435733988136, 39.97678572984665], [116.35438590449395, 39.976428588579495], [116.35441448048984, 39.97607144734617], [116.35444305616333, 39.975714306081514], [116.35447161980892, 39.97535716472032], [116.35450019492242, 39.97500001438732], [116.35452875792343, 39.97464287296346], [116.35455733230751, 39.97428573157344], [116.35458589466398, 39.97392859008689], [116.35461446840338, 39.97357144863419], [116.35464303011533, 39.97321430708498], [116.3546716032948, 39.97285715656393], [116.35470016436226, 39.97250001495204], [116.35472873681245, 39.97214287337398], [116.35475729723542, 39.97178573169942], [116.35478586904108, 39.97142859005868], [116.3548144289043, 39.97107143931579], [116.3548430000654, 39.97071429761238], [116.3548715591996, 39.97035715581248], [116.3549001297162, 39.97000001404639], [116.35492868820602, 39.96964287218384], [116.3549572581628, 39.969285721349415], [116.35498581600831, 39.96892857942418], [116.355014385236, 39.968571437532745], [116.35504294243721, 39.968214295544854], [116.35507151102053, 39.96785715359075], [116.35510006766211, 39.96750000253453], [116.35512863560105, 39.96714286051775], [116.35515719151377, 39.96678571840454], [116.35518575880837, 39.96642857632509], [116.35521431407689, 39.96607143414922], [116.35524288072722, 39.965714292007114], [116.35527143543617, 39.965357140762904], [116.35530000144225, 39.964999998558135], [116.35529999952001, 39.9646438322206], [116.35529999748843, 39.96428767486692], [116.3553000072202, 39.963931508550836], [116.35530000522354, 39.963575342147855], [116.3553000031175, 39.96321918472874], [116.35530000107127, 39.96286301828215], [116.35530001070354, 39.96250685187883], [116.35530000852307, 39.9621506943943], [116.35530000640242, 39.961794527882255], [116.35530000425696, 39.961438361348414], [116.35530001378977, 39.961082194857845], [116.35530001151008, 39.960726037286065], [116.35530000929018, 39.9603698706868], [116.3553000070455, 39.96001370406569], [116.35530001639427, 39.959657546493574], [116.35530001409991, 39.95930137982888], [116.3553000117808, 39.95894521314236], [116.3553000093523, 39.958589055439724], [116.35530000698364, 39.95823288870958], [116.35530001629266, 39.95787672202272], [116.35530001378974, 39.95752056425465], [116.35530001134661, 39.957164397459096], [116.35530000887871, 39.956808230641705], [116.35530001808827, 39.95645206386759], [116.35530001548618, 39.956095906012294], [116.35530001294381, 39.95573973912949], [116.35530001037671, 39.95538357222486], [116.35530001940225, 39.95502741436921], [116.35530001678549, 39.95467124742098], [116.35530001414395, 39.95431508045093], [116.35530001139306, 39.95395892246477], [116.35530002040372, 39.95360275551618], [116.35530001768778, 39.9532465884807], [116.355300014947, 39.952890421423426], [116.35530001209693, 39.95253426335002], [116.35530002100815, 39.95217809631418], [116.35530001819298, 39.951821929191475], [116.3553000152685, 39.951465771052646], [116.35530001240376, 39.95110960388632], [116.35530002121553, 39.95075343676325], [116.35530001821662, 39.95039727855901], [116.35530001527748, 39.950041111327245], [116.35530001231356, 39.949684944073674], [116.35530002102588, 39.94932877686337], [116.3553000179278, 39.94897261857188], [116.35530001488945, 39.94861645125289], [116.35530001182634, 39.948260283912084], [116.35530002035472, 39.947904125620234], [116.35530001724197, 39.947547958235816], [116.35530001410444, 39.94719179082958], [116.3553000108576, 39.94683563240725], [116.35530001937109, 39.94647946502247], [116.35530001615916, 39.94612329755081], [116.35530001292244, 39.94576713005734], [116.35530000957642, 39.94541097154777], [116.35530000629015, 39.9450548040107], [116.35530001467939, 39.94469863651687], [116.35530001125896, 39.94434247794189], [116.3553000078983, 39.94398631033937], [116.35530000451286, 39.943630142715044], [116.35530001271813, 39.943273984139715], [116.35530000928306, 39.94291781647178], [116.35530000582322, 39.942561648782025], [116.35530000225408, 39.9422054900762], [116.35530001044447, 39.94184932240791], [116.35530000691023, 39.94149315465275], [116.35530000335122, 39.94113698687577], [116.35529999968288, 39.94078082808271], [116.35530000777386, 39.940424660327174], [116.35530000414047, 39.94006849248478], [116.35530000039778, 39.9397123336263], [116.35529999671482, 39.93935616574027], [116.35530000470638, 39.938999997897504], [116.35484375482756, 39.939000026703596], [116.35438750497251, 39.93900005371417], [116.35393124344196, 39.93900007886401], [116.35347499363458, 39.93900010228348], [116.3530187438511, 39.93900012390743], [116.35256249409156, 39.939000143735846], [116.35210624444092, 39.939000152763036], [116.35164999472944, 39.93900016900042], [116.35119374504201, 39.939000183442275], [116.35073749537867, 39.93900019608863], [116.35028124573948, 39.93900020693945], [116.3498249961245, 39.939000215994746], [116.3493687465337, 39.93900022325452], [116.34891249696717, 39.939000228718776], [116.34845624742498, 39.939000232387514], [116.34799999790711, 39.939000234260725], [116.34754374849916, 39.93900022533271], [116.3470874990302, 39.93900022361489], [116.34663124958568, 39.93900022010154], [116.34617500016567, 39.93900021479268], [116.34571875077022, 39.939000207688295], [116.34526250139936, 39.93900019878839], [116.34480625205312, 39.93900018809297], [116.34435000273157, 39.93900017560204], [116.34389375343474, 39.93900016131557], [116.34343749254944, 39.93900013616163], [116.34298124330222, 39.939000118284085], [116.34252499407984, 39.93900009861103], [116.34206874488234, 39.939000077142445], [116.34161249570975, 39.93900005387836], [116.34115624656212, 39.93900002881875], [116.34069999743949, 39.93900000196361], [116.34069000218346, 39.939360003500106], [116.34068001849616, 39.939720005079145], [116.34067002297884, 39.94008000656768], [116.34066002733081, 39.94044000803221], [116.34065003155213, 39.94080000947277], [116.34064003564275, 39.94116001088932], [116.34063003960267, 39.94152001228189], [116.34062004351836, 39.94188000464479], [116.34061005891671, 39.94224000605592], [116.34060006248461, 39.942600007376534], [116.34059006592182, 39.94296000867315], [116.34058006922831, 39.943320009945765], [116.34057007240406, 39.94368001119441], [116.34056007544913, 39.94404001241907], [116.34055007836348, 39.94440001361973], [116.34054009284735, 39.94476001486294], [116.34053009550033, 39.94512001601563], [116.34052009802257, 39.94548001714432], [116.34051010041408, 39.94584001824903], [116.34050010267485, 39.946200019329744], [116.3404901048049, 39.94656002038647], [116.34048010680421, 39.9469200214192], [116.34047012037342, 39.94728002249451], [116.34046012211132, 39.94764002347928], [116.34045012371845, 39.94800002444003], [116.34044012519485, 39.94836002537681], [116.34043012654047, 39.94872002628959], [116.34042012775535, 39.94908002717838], [116.34041012883944, 39.94944002804319], [116.34040014149392, 39.94980002895058], [116.34039014231655, 39.9501600297674], [116.34038014300845, 39.95052003056023], [116.34037014365605, 39.950880022323396], [116.34036014408636, 39.95124002306825], [116.34035014438594, 39.951600023789126], [116.34034015625616, 39.95196002455258], [116.34033015629421, 39.952320025225454], [116.34032015620147, 39.95268002587434], [116.34031015597796, 39.953040026499245], [116.34030015562362, 39.95340002710015], [116.34029015513849, 39.95376002767708], [116.34028015452257, 39.95412002822998], [116.34027016547776, 39.95448002882551], [116.3402601646003, 39.95484002933045], [116.34025016359202, 39.95520002981141], [116.34024016245291, 39.95556003026836], [116.34023016118302, 39.955920030701336], [116.34022015978228, 39.95628003111031], [116.34021015825074, 39.95664003149529], [116.34020016829069, 39.957000031922874], [116.34019016649756, 39.95736003225988], [116.3401801645736, 39.95772003257288], [116.34017016251879, 39.95808003286189], [116.34016016033314, 39.95844003312692], [116.34015015801664, 39.958800033367936], [116.34014015556933, 39.959160033584986], [116.34013016469393, 39.95952003384464], [116.34012016207153, 39.95988002500803], [116.34011015923171, 39.96024002515309], [116.34010015626103, 39.96060002527417], [116.34009015315952, 39.960960025371236], [116.34008014992712, 39.9613200254443], [116.34007015826701, 39.961680025560014], [116.34006015477294, 39.962040025585125], [116.340050151148, 39.962400025586206], [116.34004014739222, 39.96276002556332], [116.34003014350552, 39.96312002551644], [116.34002013948795, 39.96348002544555], [116.3400101353395, 39.963840025350684], [116.34000014276374, 39.96420002529845], [116.33999013835357, 39.9645600251556], [116.33998013381252, 39.96492002498873], [116.33997012914057, 39.96528002479789], [116.33996012433771, 39.96564002458304], [116.33995011940395, 39.9660000243442], [116.3399401143393, 39.96636002408138], [116.33993012084771, 39.9667200238612], [116.33992011552128, 39.967080023550366], [116.33991011006395, 39.96744002321556], [116.3399001044757, 39.96780002285677], [116.33989009875654, 39.96816002247396], [116.33988009290644, 39.96852002206715], [116.33987008701205, 39.96888001263071], [116.3398600926045, 39.96924001224259], [116.33985008636168, 39.9696000117638], [116.33984007998791, 39.96996001126103], [116.33983007348321, 39.970320010734255], [116.33982006684757, 39.9706800101835], [116.33981006008098, 39.97104000960873], [116.33980005318344, 39.971400009009976], [116.33979005785982, 39.971760008453884], [116.33978005070041, 39.97212000780714], [116.33977004341008, 39.97248000713639], [116.33976003598877, 39.972840006441665], [116.33975002843651, 39.973200005722916], [116.33974002075328, 39.973560004980186], [116.33973002464428, 39.97392000428014], [116.33972001669916, 39.97428000348942], [116.33971000862309, 39.9746400026747], [116.33970000041599, 39.97500000183598], [116.33972298012422, 39.97535632525768], [116.33974596004578, 39.97571264865492], [116.33976894018063, 39.97606897202774], [116.33979192052887, 39.97642529537611], [116.33981490109042, 39.97678161870004], [116.33983788195196, 39.97713793299389], [116.33986086294023, 39.97749425626895], [116.33988384414187, 39.97785057951956], [116.33990682555685, 39.978206902745725], [116.33992980718523, 39.97856322594744], [116.33995278902697, 39.97891954912474], [116.33997577108212, 39.9792758722776], [116.33999875335064, 39.97963219540599], [116.34001524632347, 39.97988792817624], [116.35410281131782, 39.97996728587458], [116.35412876438284, 39.979642876606256]]]}}, {"type": "Feature", "id": "PHASE-003", "properties": {"id": "PHASE-003", "layer": "PHASE", "source_type": "agent_generated_design", "confidence": "medium", "geometry_role": "design_proposal", "name_zh": "三期·花园段（A1+Z-02/Z-10+连接带北）", "note_zh": "分期为概念建议：轻量设施/活动/平台可先行；工程实施须待控规、市政、权属确认"}, "geometry": {"type": "Polygon", "coordinates": [[[116.35528038662848, 40.02614215976207], [116.35526077105861, 40.02578431195808], [116.35524115558395, 40.02542647313595], [116.35522152857531, 40.02506863422492], [116.35520191354544, 40.024710786349765], [116.35518229861077, 40.02435294745648], [116.35516268385607, 40.02399510853946], [116.35514306936608, 40.02363726059313], [116.35512345497129, 40.023279421628665], [116.35510384075644, 40.02292158264049], [116.35508422680631, 40.022563734623006], [116.35506461295132, 40.022205895587376], [116.35504499927627, 40.021848056528036], [116.35502537415255, 40.02149020837418], [116.35500576083741, 40.0211323692674], [116.35498614770216, 40.02077453013689], [116.35496653483165, 40.02041668197706], [116.35494692205621, 40.020058842799116], [116.3549273095455, 40.01970099459185], [116.35490769712987, 40.01934315536647], [116.35488808489413, 40.01898531611736], [116.35486847292309, 40.01862746783893], [116.35484886104712, 40.01826962854239], [116.35482923763824, 40.01791178915692], [116.35480962620686, 40.01755394080733], [116.35479001487055, 40.017196101439644], [116.35477040371408, 40.01683826204821], [116.3547507928223, 40.01648041362746], [116.35473118202553, 40.016122574188614], [116.35471157140863, 40.015764734726034], [116.35469196105633, 40.01540688623413], [116.35467235079909, 40.015049046724116], [116.35465274072166, 40.014691207190396], [116.35463313090887, 40.01433335862734], [116.354613509479, 40.01397551898094], [116.35459389994107, 40.01361767937607], [116.35457429066777, 40.013259830741866], [116.35455468148947, 40.01290199108955], [116.35453507257576, 40.012544142407904], [116.35451546375704, 40.01218630270816], [116.35449585511809, 40.01182846298469], [116.35447624674374, 40.01147061423191], [116.35445663846434, 40.01111277446102], [116.3544370303647, 40.0107549346664], [116.3544174108182, 40.01039708577722], [116.35439780307814, 40.010039245935175], [116.35437819551782, 40.00968140606942], [116.35435858822213, 40.00932355717433], [116.35433898102131, 40.00896571726114], [116.35431937400023, 40.00860787732424], [116.35429976724375, 40.00825002835801], [116.35428016058212, 40.00789218837368], [116.35426055410022, 40.00753434836563], [116.35424094788289, 40.00717649932825], [116.35422134176041, 40.00681865927278], [116.35420172410684, 40.006460819128336], [116.3541821184287, 40.00610297001982], [116.35416251284539, 40.00574512989321], [116.35414290752662, 40.00538728073727], [116.35412330230267, 40.00502944056322], [116.35410369725842, 40.00467160036547], [116.3540840924787, 40.00431375113838], [116.35406448779379, 40.00395591089322], [116.35404488328854, 40.003598070624314], [116.3540252790478, 40.003240221326095], [116.35400566319166, 40.00288238094452], [116.35398605922542, 40.00252454060449], [116.35396645552369, 40.002166691235125], [116.35394685191676, 40.00180885084769], [116.35392724848943, 40.001451010436526], [116.3539076453266, 40.00109316099602], [116.35388804225852, 40.000735320537444], [116.35386843937006, 40.00037748005515], [116.3538488367461, 40.00001963054353], [116.35382923421685, 39.99966179001381], [116.3538096318672, 39.99930394946038], [116.35379001807253, 39.998946099812336], [116.35377041608213, 39.9985882592115], [116.3537508143562, 39.998230409581325], [116.35373121272497, 39.99787256893305], [116.35371161127333, 39.99751472826107], [116.35369201008614, 39.99715687855976], [116.35367240899359, 39.99679903784039], [116.35365280808062, 39.99644119709728], [116.35363320743211, 39.99608334732484], [116.35362670372886, 39.995964628610885], [116.34104780877254, 39.99589379284681], [116.34105614532847, 39.996023005737435], [116.34107913763324, 39.99637932771685], [116.3411021301517, 39.99673564967179], [116.34112512288384, 39.997091971602295], [116.34114811582972, 39.99744829350835], [116.34117110898927, 39.99780461538993], [116.34119410236254, 39.99816093724708], [116.34121709594955, 39.99851725907977], [116.34124008975024, 39.998873580887995], [116.34126308376469, 39.99922990267178], [116.34128607799286, 39.9995862244311], [116.34130907243477, 39.99994254616599], [116.34133206709043, 40.00029886787639], [116.34135506195986, 40.000655189562366], [116.34137805704304, 40.001011511223865], [116.34140105242652, 40.001367823855325], [116.34142403622728, 40.00172414540139], [116.34144703195172, 40.002080466989526], [116.34147002788993, 40.00243678855322], [116.34149302404192, 40.00279311009245], [116.34151602040774, 40.003149431607234], [116.34153901698734, 40.00350575309755], [116.34156201378077, 40.00386207456341], [116.34158501078801, 40.00421839600482], [116.34160800800906, 40.004574717421775], [116.34163100544394, 40.00493103881427], [116.34165400309266, 40.0052873601823], [116.34167700095522, 40.00564368152588], [116.3416999990316, 40.00600000284499], [116.34171754297738, 40.00635965242777], [116.34173507537068, 40.00671930192062], [116.34175261963308, 40.007078951456585], [116.34177016405384, 40.007438600969145], [116.34178769692193, 40.007798250391794], [116.34180524165933, 40.00815789985755], [116.34182277484398, 40.008517549233375], [116.34184031989807, 40.008877198652314], [116.3418578651105, 40.00923684804785], [116.34187539877003, 40.00959649735346], [116.34189294429918, 40.00995614670218], [116.34191047827528, 40.01031579596099], [116.34192802412116, 40.010675445262905], [116.34194557012542, 40.011035094541405], [116.34196310457648, 40.01139474373], [116.3419806508975, 40.01175439296168], [116.34199819737692, 40.01211404216997], [116.34201573230297, 40.01247369128834], [116.34203327909918, 40.01283334044981], [116.34205081434187, 40.01319298952137], [116.34206836145488, 40.013552638636035], [116.34208590872632, 40.01391228772727], [116.34210344444408, 40.01427193672862], [116.34212099203233, 40.014631585773046], [116.3421385280668, 40.01499123472757], [116.34215607597191, 40.0153508837252], [116.34217362403547, 40.01571053269938], [116.34219116054507, 40.0160701815837], [116.34220870892551, 40.01642983051107], [116.34222625746439, 40.01678947941507], [116.34224379444916, 40.01714912822914], [116.34226134330497, 40.01750877708631], [116.34227888060653, 40.01786842585357], [116.34229642969277, 40.01822808366948], [116.342313979024, 40.01858773245641], [116.3423315168008, 40.01894738115347], [116.34234906644895, 40.019307029893575], [116.34236660454259, 40.01966667854379], [116.34238415450771, 40.02002632723709], [116.34240170463134, 40.02038597590696], [116.34241924320028, 40.02074562448697], [116.34243679364094, 40.021105273110024], [116.34245433252676, 40.0214649216432], [116.3424718832844, 40.02182457021943], [116.34248943420059, 40.02218421877227], [116.34250697356178, 40.02254386723521], [116.34252452479501, 40.022903515741206], [116.34254207618679, 40.0232631642238], [116.34255961602342, 40.02362281261651], [116.34257716773227, 40.02398246105228], [116.34259470788587, 40.02434210939817], [116.34261225991182, 40.02470175778711], [116.34262981209632, 40.025061406152645], [116.3426473527254, 40.02542105442832], [116.34266490522704, 40.02578070274702], [116.34268244617313, 40.02614035097586], [116.34269527045252, 40.026403130326216], [116.35529857258618, 40.02647393605577], [116.35528038662848, 40.02614215976207]]]}}]}