{"type": "FeatureCollection", "name": "public_space", "crs": {"type": "name", "properties": {"name": "urn:ogc:def:crs:OGC:1.3:CRS84"}}, "metadata": {"generated_by": "zipper-v2 pipeline (gen_geometry.py) — partitioned in EPSG:4548, exchanged as EPSG:4326", "design_model": "拉链京张 Zipper Jingzhang — 链带/链齿/三核", "boundary_status": "provisional_rough (official polygons pending)", "note_zh": "拉链头运营广场 + 十齿广场（每齿含平时/纪念双态机制）", "revision": "R5 badge/EN-A0 consistency 2026-08-31 — visual state badge + EN A0 figure mapping; shapes and topology unchanged since R1"}, "features": [{"type": "Feature", "id": "PUBLIC-001", "properties": {"id": "PUBLIC-001", "layer": "PUBLIC_SPACE", "source_type": "agent_generated_design", "confidence": "medium", "geometry_role": "design_proposal", "name_zh": "拉链头运营中心广场（南端门户）", "note_zh": "智能运营系统（拉链头）调度全线开与合的运营与展示中心"}, "geometry": {"type": "Polygon", "coordinates": [[[116.34785182399698, 39.94149169238395], [116.34913879173119, 39.941498924455274], [116.34914817772032, 39.94050829651612], [116.34786122854211, 39.94050106469717], [116.34785182399698, 39.94149169238395]]]}}, {"type": "Feature", "id": "PUBLIC-Z-01", "properties": {"id": "PUBLIC-Z-01", "layer": "PUBLIC_SPACE", "source_type": "agent_generated_design", "confidence": "medium", "geometry_role": "design_proposal", "tooth_id": "Z-01", "name_zh": "链齿01·道口仪式广场", "category": "交通（步行/骑行）", "everyday_state_zh": "拉合：服务城市的日常连接", "memorial_state_zh": "拉开：展现轨床与集体记忆", "mechanism_zh": "轨顶齐平盖板自由过轨；纪念时下沉观演、盖板翻开、全息火车"}, "geometry": {"type": "Polygon", "coordinates": [[[116.34796927125257, 39.99290229435048], [116.3490230338911, 39.99290821777749], [116.34903072872588, 39.99209771125026], [116.34797697854113, 39.992091787992315], [116.34796927125257, 39.99290229435048]]]}}, {"type": "Feature", "id": "PUBLIC-Z-02", "properties": {"id": "PUBLIC-Z-02", "layer": "PUBLIC_SPACE", "source_type": "agent_generated_design", "confidence": "medium", "geometry_role": "design_proposal", "tooth_id": "Z-02", "name_zh": "链齿02·链齿步桥", "category": "交通", "everyday_state_zh": "拉合：服务城市的日常连接", "memorial_state_zh": "拉开：展现轨床与集体记忆", "mechanism_zh": "格栅桥过堑，脚下轨枕可读"}, "geometry": {"type": "Polygon", "coordinates": [[[116.34796920503484, 40.00090228757933], [116.3490230906399, 40.00090821198402], [116.34903078765277, 40.000097706578934], [116.34797691450646, 40.00009178234331], [116.34796920503484, 40.00090228757933]]]}}, {"type": "Feature", "id": "PUBLIC-Z-03", "properties": {"id": "PUBLIC-Z-03", "layer": "PUBLIC_SPACE", "source_type": "agent_generated_design", "confidence": "medium", "geometry_role": "design_proposal", "tooth_id": "Z-03", "name_zh": "链齿03·下穿展示廊", "category": "交通", "everyday_state_zh": "拉合：服务城市的日常连接", "memorial_state_zh": "拉开：展现轨床与集体记忆", "mechanism_zh": "下穿通道挖通路基断面，土层道砟轨枕成展品"}, "geometry": {"type": "Polygon", "coordinates": [[[116.34796944476494, 39.97040229410936], [116.34902286182412, 39.97040821478611], [116.34903055053597, 39.96959770510317], [116.34797714591657, 39.96959178459546], [116.34796944476494, 39.97040229410936]]]}}, {"type": "Feature", "id": "PUBLIC-Z-04", "properties": {"id": "PUBLIC-Z-04", "layer": "PUBLIC_SPACE", "source_type": "agent_generated_design", "confidence": "medium", "geometry_role": "design_proposal", "tooth_id": "Z-04", "name_zh": "链齿04·拱桥儿童乐园", "category": "产业/公共", "everyday_state_zh": "拉合：服务城市的日常连接", "memorial_state_zh": "拉开：展现轨床与集体记忆", "mechanism_zh": "百年拱桥做攀爬乐园；纪念时封路展廊投影历史列车"}, "geometry": {"type": "Polygon", "coordinates": [[[116.34796960664575, 39.94960229402859], [116.34902270458265, 39.94960821216199], [116.34903038763768, 39.94879769956217], [116.34797730212766, 39.94879178159773], [116.34796960664575, 39.94960229402859]]]}}, {"type": "Feature", "id": "PUBLIC-Z-05", "properties": {"id": "PUBLIC-Z-05", "layer": "PUBLIC_SPACE", "source_type": "agent_generated_design", "confidence": "medium", "geometry_role": "design_proposal", "tooth_id": "Z-05", "name_zh": "链齿05·机器人送货通道", "category": "交通（无人）", "everyday_state_zh": "拉合：服务城市的日常连接", "memorial_state_zh": "拉开：展现轨床与集体记忆", "mechanism_zh": "配送机器人穿涵洞平交过轨"}, "geometry": {"type": "Polygon", "coordinates": [[[116.34796929960794, 39.98890229360931], [116.34902300078164, 39.98890821654747], [116.34903069452764, 39.98809770945919], [116.34797700580526, 39.988091786690084], [116.34796929960794, 39.98890229360931]]]}}, {"type": "Feature", "id": "PUBLIC-Z-06", "properties": {"id": "PUBLIC-Z-06", "layer": "PUBLIC_SPACE", "source_type": "agent_generated_design", "confidence": "medium", "geometry_role": "design_proposal", "tooth_id": "Z-06", "name_zh": "链齿06·无人机廊道节点", "category": "交通（空域）", "everyday_state_zh": "拉合：服务城市的日常连接", "memorial_state_zh": "拉开：展现轨床与集体记忆", "mechanism_zh": "白天配送编队；夜里百机光阵拼蒸汽光影列车"}, "geometry": {"type": "Polygon", "coordinates": [[[116.34796946471972, 39.96710228977354], [116.34902283112663, 39.967108210046874], [116.34903051894085, 39.966297699901126], [116.34797716497167, 39.9662917797968], [116.34796946471972, 39.96710228977354]]]}}, {"type": "Feature", "id": "PUBLIC-Z-07", "properties": {"id": "PUBLIC-Z-07", "layer": "PUBLIC_SPACE", "source_type": "agent_generated_design", "confidence": "medium", "geometry_role": "design_proposal", "tooth_id": "Z-07", "name_zh": "链齿07·共同沟垂直穿越", "category": "市政", "everyday_state_zh": "拉合：服务城市的日常连接", "memorial_state_zh": "拉开：展现轨床与集体记忆", "mechanism_zh": "共同沟垂直短穿越轨床，两侧市政互备；开放日玻璃天窗见轨"}, "geometry": {"type": "Polygon", "coordinates": [[[116.34796954905671, 39.95640229332567], [116.34902275128543, 39.95640821229069], [116.34903043618948, 39.95559770064442], [116.34797724639188, 39.95559178184838], [116.34796954905671, 39.95640229332567]]]}}, {"type": "Feature", "id": "PUBLIC-Z-08", "properties": {"id": "PUBLIC-Z-08", "layer": "PUBLIC_SPACE", "source_type": "agent_generated_design", "confidence": "medium", "geometry_role": "design_proposal", "tooth_id": "Z-08", "name_zh": "链齿08·跨轨建筑", "category": "产业", "everyday_state_zh": "拉合：服务城市的日常连接", "memorial_state_zh": "拉开：展现轨床与集体记忆", "mechanism_zh": "楼跨轨而建，玻璃地条之下轨道穿堂而过"}, "geometry": {"type": "Polygon", "coordinates": [[[116.3479696308215, 39.94590229555633], [116.34902267202631, 39.94590821323729], [116.34903035407552, 39.945097700118644], [116.34797732529528, 39.94509178260664], [116.3479696308215, 39.94590229555633]]]}}, {"type": "Feature", "id": "PUBLIC-Z-09", "properties": {"id": "PUBLIC-Z-09", "layer": "PUBLIC_SPACE", "source_type": "agent_generated_design", "confidence": "medium", "geometry_role": "design_proposal", "tooth_id": "Z-09", "name_zh": "链齿09·两岸商业街", "category": "产业/商业", "everyday_state_zh": "拉合：服务城市的日常连接", "memorial_state_zh": "拉开：展现轨床与集体记忆", "mechanism_zh": "轨道当河、两岸成街，商业以遗产为对景"}, "geometry": {"type": "Polygon", "coordinates": [[[116.34796933650195, 39.9849022901829], [116.34902297622311, 39.984908212632114], [116.34903066888035, 39.984097704982794], [116.34797704160799, 39.984091782702635], [116.34796933650195, 39.9849022901829]]]}}, {"type": "Feature", "id": "PUBLIC-Z-10", "properties": {"id": "PUBLIC-Z-10", "layer": "PUBLIC_SPACE", "source_type": "agent_generated_design", "confidence": "medium", "geometry_role": "design_proposal", "tooth_id": "Z-10", "name_zh": "链齿10·生态绿桥/平地公园", "category": "生态", "everyday_state_zh": "拉合：服务城市的日常连接", "memorial_state_zh": "拉开：展现轨床与集体记忆", "mechanism_zh": "兔鸟过桥、绿地连续；自然回归即是最深的纪念"}, "geometry": {"type": "Polygon", "coordinates": [[[116.3479691376786, 40.008902287880126], [116.34902314629966, 40.0089082132624], [116.3490308454911, 40.00809770897949], [116.34797684933382, 40.00809178376632], [116.3479691376786, 40.008902287880126]]]}}]}