{"type": "FeatureCollection", "name": "roads", "crs": {"type": "name", "properties": {"name": "urn:ogc:def:crs:OGC:1.3:CRS84"}}, "metadata": {"generated_by": "zipper-v2 pipeline (gen_geometry.py) — partitioned in EPSG:4548, exchanged as EPSG:4326", "design_model": "拉链京张 Zipper Jingzhang — 链带/链齿/三核", "boundary_status": "provisional_rough (official polygons pending)", "note_zh": "链带慢行主轴 + 东西向微循环街道中心线（provisional 边界内）", "revision": "R5 badge/EN-A0 consistency 2026-08-31 — visual state badge + EN A0 figure mapping; shapes and topology unchanged since R1"}, "features": [{"type": "Feature", "id": "ROAD-001", "properties": {"id": "ROAD-001", "layer": "ROAD_CENTERLINE", "source_type": "agent_generated_design", "confidence": "medium", "geometry_role": "design_proposal", "name_zh": "链带慢行主轴（公园纵贯道）", "road_type": "slow_traffic_spine", "length_m": 9716.1, "note_zh": "遗址公园慢行主轴，串联十齿"}, "geometry": {"type": "LineString", "coordinates": [[116.34860433317755, 39.93900022691726], [116.34777283949386, 40.02650016811129]]}}, {"type": "Feature", "id": "ROAD-ST01", "properties": {"id": "ROAD-ST01", "layer": "ROAD_CENTERLINE", "source_type": "agent_generated_design", "confidence": "medium", "geometry_role": "design_proposal", "name_zh": "东西向微循环街道 01", "road_type": "local_street", "crosses_axis": false, "note_zh": "至链带边缘止，过轨连接由链齿承担"}, "geometry": {"type": "LineString", "coordinates": [[116.34059197806549, 39.94289123933797], [116.35530000884721, 39.94297396103606]]}}, {"type": "Feature", "id": "ROAD-ST02", "properties": {"id": "ROAD-ST02", "layer": "ROAD_CENTERLINE", "source_type": "agent_generated_design", "confidence": "medium", "geometry_role": "design_proposal", "name_zh": "东西向微循环街道 02", "road_type": "local_street", "crosses_axis": false, "note_zh": "至链带边缘止，过轨连接由链齿承担"}, "geometry": {"type": "LineString", "coordinates": [[116.34039763781341, 39.94989013045428], [116.35530001379685, 39.949973961273386]]}}, {"type": "Feature", "id": "ROAD-ST03", "properties": {"id": "ROAD-ST03", "layer": "ROAD_CENTERLINE", "source_type": "agent_generated_design", "confidence": "medium", "geometry_role": "design_proposal", "name_zh": "东西向微循环街道 03", "road_type": "local_street", "crosses_axis": false, "note_zh": "至链带边缘止，过轨连接由链齿承担"}, "geometry": {"type": "LineString", "coordinates": [[116.34020324814256, 39.956889012503126], [116.35530000916161, 39.95697395308646]]}}, {"type": "Feature", "id": "ROAD-ST04", "properties": {"id": "ROAD-ST04", "layer": "ROAD_CENTERLINE", "source_type": "agent_generated_design", "confidence": "medium", "geometry_role": "design_proposal", "name_zh": "东西向微循环街道 04", "road_type": "local_street", "crosses_axis": false, "note_zh": "至链带边缘止，过轨连接由链齿承担"}, "geometry": {"type": "LineString", "coordinates": [[116.34000880885696, 39.96388790349521], [116.35530000647395, 39.96397395455138]]}}, {"type": "Feature", "id": "ROAD-ST05", "properties": {"id": "ROAD-ST05", "layer": "ROAD_CENTERLINE", "source_type": "agent_generated_design", "confidence": "medium", "geometry_role": "design_proposal", "name_zh": "东西向微循环街道 05", "road_type": "local_street", "crosses_axis": false, "note_zh": "至链带边缘止，过轨连接由链齿承担"}, "geometry": {"type": "LineString", "coordinates": [[116.33981432002018, 39.97088679442421], [116.3548224404796, 39.97097129957107]]}}, {"type": "Feature", "id": "ROAD-ST06", "properties": {"id": "ROAD-ST06", "layer": "ROAD_CENTERLINE", "source_type": "agent_generated_design", "confidence": "medium", "geometry_role": "design_proposal", "name_zh": "东西向微循环街道 06", "road_type": "local_street", "crosses_axis": false, "note_zh": "至链带边缘止，过轨连接由链齿承担"}, "geometry": {"type": "LineString", "coordinates": [[116.33988620774619, 39.977887193884065], [116.3542627440111, 39.97796817650918]]}}, {"type": "Feature", "id": "ROAD-ST07", "properties": {"id": "ROAD-ST07", "layer": "ROAD_CENTERLINE", "source_type": "agent_generated_design", "confidence": "medium", "geometry_role": "design_proposal", "name_zh": "东西向微循环街道 07", "road_type": "local_street", "crosses_axis": false, "note_zh": "至链带边缘止，过轨连接由链齿承担"}, "geometry": {"type": "LineString", "coordinates": [[116.34033787801383, 39.984889765071365], [116.35370292363389, 39.98496505942897]]}}, {"type": "Feature", "id": "ROAD-ST08", "properties": {"id": "ROAD-ST08", "layer": "ROAD_CENTERLINE", "source_type": "agent_generated_design", "confidence": "medium", "geometry_role": "design_proposal", "name_zh": "东西向微循环街道 08", "road_type": "local_street", "crosses_axis": false, "note_zh": "至链带边缘止，过轨连接由链齿承担"}, "geometry": {"type": "LineString", "coordinates": [[116.34078963073247, 39.99189232681767], [116.35340754074254, 39.99196340655436]]}}, {"type": "Feature", "id": "ROAD-ST09", "properties": {"id": "ROAD-ST09", "layer": "ROAD_CENTERLINE", "source_type": "agent_generated_design", "confidence": "medium", "geometry_role": "design_proposal", "name_zh": "东西向微循环街道 09", "road_type": "local_street", "crosses_axis": false, "note_zh": "至链带边缘止，过轨连接由链齿承担"}, "geometry": {"type": "LineString", "coordinates": [[116.34124146577545, 39.99889489713253], [116.35379108770947, 39.99896554994594]]}}, {"type": "Feature", "id": "ROAD-ST10", "properties": {"id": "ROAD-ST10", "layer": "ROAD_CENTERLINE", "source_type": "agent_generated_design", "confidence": "medium", "geometry_role": "design_proposal", "name_zh": "东西向微循环街道 10", "road_type": "local_street", "crosses_axis": false, "note_zh": "至链带边缘止，过轨连接由链齿承担"}, "geometry": {"type": "LineString", "coordinates": [[116.34169338336243, 40.00589745800301], [116.35417471515403, 40.00596768432443]]}}, {"type": "Feature", "id": "ROAD-ST11", "properties": {"id": "ROAD-ST11", "layer": "ROAD_CENTERLINE", "source_type": "agent_generated_design", "confidence": "medium", "geometry_role": "design_proposal", "name_zh": "东西向微循环街道 11", "road_type": "local_street", "crosses_axis": false, "note_zh": "至链带边缘止，过轨连接由链齿承担"}, "geometry": {"type": "LineString", "coordinates": [[116.3420364981554, 40.01289940027268], [116.35455839961035, 40.01296981856358]]}}, {"type": "Feature", "id": "ROAD-ST12", "properties": {"id": "ROAD-ST12", "layer": "ROAD_CENTERLINE", "source_type": "agent_generated_design", "confidence": "medium", "geometry_role": "design_proposal", "name_zh": "东西向微循环街道 12", "road_type": "local_street", "crosses_axis": false, "note_zh": "至链带边缘止，过轨连接由链齿承担"}, "geometry": {"type": "LineString", "coordinates": [[116.34237805681944, 40.019901333496016], [116.35494216454036, 40.01997195279255]]}}, {"type": "Feature", "id": "ROAD-ST13", "properties": {"id": "ROAD-ST13", "layer": "ROAD_CENTERLINE", "source_type": "agent_generated_design", "confidence": "medium", "geometry_role": "design_proposal", "name_zh": "东西向微循环街道 13", "road_type": "local_street", "crosses_axis": false, "note_zh": "至链带边缘止，过轨连接由链齿承担"}, "geometry": {"type": "LineString", "coordinates": [[116.34267086574899, 40.02590299375541], [116.35527114725146, 40.025973785120485]]}}]}