{
  "type": "FeatureCollection",
  "name": "green_space.geojson",
  "features": [
    {
      "type": "Feature",
      "id": "GREEN-001",
      "properties": {
        "id": "GREEN-001",
        "layer": "GREEN_SPACE",
        "source_type": "agent_generated_design",
        "confidence": "medium",
        "geometry_role": "design_proposal",
        "land_use_code": "1401",
        "green_type": "G1 公园绿地（遗址公园）",
        "name_zh": "京张铁路遗址公园带",
        "area_sqm_declared": 1060217.438,
        "constraint_source_id": "CONSTRAINTS-001",
        "key_area_id": "PROV-KEY-002/003",
        "official_boundary": false,
        "boundary_precision": "provisional_rough",
        "provisional_note": "基于天地图1:100万真实水系/铁路线位缓冲示意，位置中误差100-500m；官方蓝线发布后整体重算"
      },
      "geometry": {
        "type": "MultiPolygon",
        "coordinates": [
          [
            [
              [
                116.34056847398732,
                39.96221935035744
              ],
              [
                116.34081579674023,
                39.96104333216634
              ],
              [
                116.34093472533033,
                39.96058222492409
              ],
              [
                116.34098457565875,
                39.96038895173932
              ],
              [
                116.341084535402,
                39.96011293219068
              ],
              [
                116.34240975319327,
                39.95775538107877
              ],
              [
                116.34291194269971,
                39.95686195998779
              ],
              [
                116.3429177649166,
                39.95685137067211
              ],
              [
                116.3446747310779,
                39.95358325740983
              ],
              [
                116.34541964705784,
                39.952197541465395
              ],
              [
                116.3454909630331,
                39.952064862027605
              ],
              [
                116.34551240923741,
                39.95202587462533
              ],
              [
                116.34613694321128,
                39.95089028357018
              ],
              [
                116.34671753173397,
                39.94983457043614
              ],
              [
                116.346736778225,
                39.949796617811444
              ],
              [
                116.34674701798261,
                39.94977460777489
              ],
              [
                116.34677103994109,
                39.94971494015968
              ],
              [
                116.34678825624715,
                39.94965389542501
              ],
              [
                116.3467985374628,
                39.94959193233963
              ],
              [
                116.34688543646087,
                39.94879426360682
              ],
              [
                116.3469891234493,
                39.94784253477229
              ],
              [
                116.34699018925903,
                39.94783178659053
              ],
              [
                116.34717914840596,
                39.94571787297986
              ],
              [
                116.34738997827625,
                39.944348168032704
              ],
              [
                116.3473962964537,
                39.944277631336895
              ],
              [
                116.34739360186215,
                39.94420695771757
              ],
              [
                116.34738192047516,
                39.94413682764744
              ],
              [
                116.34736136466465,
                39.94406791658965
              ],
              [
                116.34733213256287,
                39.94400088814978
              ],
              [
                116.34729450566303,
                39.943936387848204
              ],
              [
                116.3472488464204,
                39.94387503689267
              ],
              [
                116.34719559456451,
                39.94381742612374
              ],
              [
                116.34713526282444,
                39.94376411022721
              ],
              [
                116.34706843229428,
                39.94371560284517
              ],
              [
                116.3469957466362,
                39.943672370959995
              ],
              [
                116.34691790579826,
                39.94363483107698
              ],
              [
                116.34683565950735,
                39.943603344504766
              ],
              [
                116.34676861758874,
                39.943583722369496
              ],
              [
                116.34820848595965,
                39.939960295544076
              ],
              [
                116.34823100969479,
                39.939891750067346
              ],
              [
                116.34824469669466,
                39.93982183532248
              ],
              [
                116.3482494151742,
                39.939751224505
              ],
              [
                116.34824511963063,
                39.93968059768772
              ],
              [
                116.34823185160836,
                39.9396106350706
              ],
              [
                116.34820973870701,
                39.93954201040051
              ],
              [
                116.34817899417278,
                39.93947538457478
              ],
              [
                116.34813991391616,
                39.939411399230266
              ],
              [
                116.34809287434614,
                39.939350670607226
              ],
              [
                116.3480884244305,
                39.93934602964343
              ],
              [
                116.34842302866045,
                39.939358759913915
              ],
              [
                116.34841681410512,
                39.93957464271166
              ],
              [
                116.34841668305397,
                39.939580145477436
              ],
              [
                116.3483875119537,
                39.94112684507735
              ],
              [
                116.34839073206165,
                39.94119792073066
              ],
              [
                116.34840304001197,
                39.94126840576855
              ],
              [
                116.34842431598426,
                39.941337613333445
              ],
              [
                116.34845435263533,
                39.94140486913288
              ],
              [
                116.34874555657558,
                39.94196527123778
              ],
              [
                116.34879290187436,
                39.942042698490226
              ],
              [
                116.34922972666621,
                39.94265914148851
              ],
              [
                116.34927772075356,
                39.94271959515916
              ],
              [
                116.34933319677148,
                39.94277612825926
              ],
              [
                116.34939561817252,
                39.94282819397375
              ],
              [
                116.34946438141417,
                39.94287528906176
              ],
              [
                116.3495388214191,
                39.942916957940405
              ],
              [
                116.35033967532425,
                39.943320451446695
              ],
              [
                116.35041436546814,
                39.943354385482145
              ],
              [
                116.35049281555249,
                39.94338285252538
              ],
              [
                116.3553,
                39.944921830250934
              ],
              [
                116.3553,
                39.94477777777778
              ],
              [
                116.3553,
                39.94336122680056
              ],
              [
                116.35129211438479,
                39.94207812748459
              ],
              [
                116.35076065447677,
                39.94181036508623
              ],
              [
                116.35046299540834,
                39.94139032477931
              ],
              [
                116.35026202346525,
                39.94100358739168
              ],
              [
                116.35028838552074,
                39.939603798520146
              ],
              [
                116.35029338666278,
                39.93942990125242
              ],
              [
                116.3553,
                39.93962018471559
              ],
              [
                116.3553,
                39.939
              ],
              [
                116.35367777777778,
                39.939
              ],
              [
                116.35205555555555,
                39.939
              ],
              [
                116.35043333333333,
                39.939
              ],
              [
                116.3488111111111,
                39.939
              ],
              [
                116.34881111111109,
                39.939
              ],
              [
                116.3471888888889,
                39.93900000000001
              ],
              [
                116.34556666666667,
                39.939
              ],
              [
                116.34465123482661,
                39.939000002790436
              ],
              [
                116.3466980978357,
                39.93920770881501
              ],
              [
                116.34665314309014,
                39.9392389265397
              ],
              [
                116.34659130129033,
                39.939291204344336
              ],
              [
                116.34653641386734,
                39.93934789642905
              ],
              [
                116.34648900947876,
                39.939408456766216
              ],
              [
                116.34644954471958,
                39.93947230208615
              ],
              [
                116.34641839962087,
                39.939538817615365
              ],
              [
                116.34454152429785,
                39.94426158284357
              ],
              [
                116.34453610409147,
                39.94427573693458
              ],
              [
                116.34433574759221,
                39.94481941542459
              ],
              [
                116.34432100814512,
                39.94486503041384
              ],
              [
                116.34425773518926,
                39.94509224989021
              ],
              [
                116.34424347712056,
                39.9451582950463
              ],
              [
                116.3441696207823,
                39.94563706436539
              ],
              [
                116.3441630913547,
                39.94572196064795
              ],
              [
                116.3441630564135,
                39.9460871306347
              ],
              [
                116.34417058421037,
                39.94617837239018
              ],
              [
                116.34454628786445,
                39.94844466345425
              ],
              [
                116.344574018211,
                39.94877228482321
              ],
              [
                116.34457399665853,
                39.94904690185766
              ],
              [
                116.34456539038344,
                39.949278290426726
              ],
              [
                116.34452980895003,
                39.94946441545271
              ],
              [
                116.34434082334779,
                39.949969903916404
              ],
              [
                116.34351827730816,
                39.95148103312893
              ],
              [
                116.34351611806883,
                39.951485033690645
              ],
              [
                116.34341027602363,
                39.95168280291148
              ],
              [
                116.34241232055562,
                39.953547604579256
              ],
              [
                116.34233389556614,
                39.953686210217846
              ],
              [
                116.34096060648938,
                39.95611329838391
              ],
              [
                116.34093861007653,
                39.95615581219473
              ],
              [
                116.34040861269241,
                39.95728305958029
              ],
              [
                116.34018051060573,
                39.95770168224581
              ],
              [
                116.34014444473648,
                39.958999989486315
              ],
              [
                116.34014444444443,
                39.959
              ],
              [
                116.34003333333332,
                39.963
              ],
              [
                116.34003333330152,
                39.96300000114513
              ],
              [
                116.33994109463683,
                39.96632063428174
              ],
              [
                116.34007433555007,
                39.965449681569865
              ],
              [
                116.34020824427164,
                39.964574307578445
              ],
              [
                116.34056847398732,
                39.96221935035744
              ]
            ]
          ],
          [
            [
              [
                116.35254118583372,
                40.02528570003639
              ],
              [
                116.3524766718303,
                40.02533503705708
              ],
              [
                116.35241868601916,
                40.025388951648935
              ],
              [
                116.35236777501193,
                40.025446935692734
              ],
              [
                116.35232441890255,
                40.025508442241346
              ],
              [
                116.3522890264071,
                40.02557289152615
              ],
              [
                116.35184757286598,
                40.0265
              ],
              [
                116.3525,
                40.0265
              ],
              [
                116.35384352692112,
                40.0265
              ],
              [
                116.35391724936763,
                40.02634516465152
              ],
              [
                116.35526459963681,
                40.0258539718126
              ],
              [
                116.35517892656762,
                40.02429046252331
              ],
              [
                116.35276754102637,
                40.02516956480858
              ],
              [
                116.35268730925834,
                40.02520257199896
              ],
              [
                116.3526116196242,
                40.025241405852434
              ],
              [
                116.35254118583372,
                40.02528570003639
              ]
            ]
          ],
          [
            [
              [
                116.34306629883278,
                39.974303332172504
              ],
              [
                116.34305692490892,
                39.97430328913295
              ],
              [
                116.33971942374184,
                39.974300787464465
              ],
              [
                116.3397,
                39.975
              ],
              [
                116.339747854939,
                39.97574175155479
              ],
              [
                116.34305044779468,
                39.97574422726529
              ],
              [
                116.35443282372769,
                39.97583970340391
              ],
              [
                116.35454802917485,
                39.97439963531449
              ],
              [
                116.34306629883278,
                39.974303332172504
              ]
            ]
          ],
          [
            [
              [
                116.342611035386,
                40.000232652171775
              ],
              [
                116.3436384852861,
                40.000250096492465
              ],
              [
                116.34542510403122,
                40.0003039752424
              ],
              [
                116.34544180643661,
                40.00030436416523
              ],
              [
                116.3464646974391,
                40.00032115319494
              ],
              [
                116.34666489951947,
                40.0003440391567
              ],
              [
                116.34668208124407,
                40.000345878332716
              ],
              [
                116.34769050152056,
                40.00044650944072
              ],
              [
                116.34775267244682,
                40.00045109860768
              ],
              [
                116.34921443769954,
                40.000521269514365
              ],
              [
                116.3492471452545,
                40.0005223985416
              ],
              [
                116.35078569147079,
                40.00055479182319
              ],
              [
                116.35228077851609,
                40.00059642710877
              ],
              [
                116.35229067135943,
                40.000596662339454
              ],
              [
                116.35388235456001,
                40.000628020659605
              ],
              [
                116.3538032883207,
                39.99918505314393
              ],
              [
                116.35234361520087,
                39.99915629505031
              ],
              [
                116.35084936647294,
                39.99911468334765
              ],
              [
                116.35084108801824,
                39.999114480903046
              ],
              [
                116.34931480043701,
                39.99908234610903
              ],
              [
                116.34790059047943,
                39.99901445841068
              ],
              [
                116.34693177787634,
                39.99891777979256
              ],
              [
                116.34668160012217,
                39.99888918092252
              ],
              [
                116.34656385169416,
                39.99888151549519
              ],
              [
                116.34549014630029,
                39.9988638929516
              ],
              [
                116.34370389385067,
                39.9988100253711
              ],
              [
                116.34368784982496,
                39.99880964722188
              ],
              [
                116.34265241741751,
                39.998792067600135
              ],
              [
                116.34222587085712,
                39.998784818261406
              ],
              [
                116.34123322697431,
                39.99876501810187
              ],
              [
                116.3412555555443,
                39.99911111093656
              ],
              [
                116.34125555555555,
                39.999111111111105
              ],
              [
                116.34125555557041,
                39.99911111134148
              ],
              [
                116.34132634170405,
                40.000208296412815
              ],
              [
                116.34217909626375,
                40.00022530585815
              ],
              [
                116.3421826808684,
                40.00022537204526
              ],
              [
                116.342611035386,
                40.000232652171775
              ]
            ]
          ]
        ]
      }
    },
    {
      "type": "Feature",
      "id": "GREEN-002",
      "properties": {
        "id": "GREEN-002",
        "layer": "GREEN_SPACE",
        "source_type": "agent_generated_design",
        "confidence": "medium",
        "geometry_role": "design_proposal",
        "land_use_code": "1401",
        "green_type": "蓝绿廊道",
        "name_zh": "清河蓝绿廊道（众智园界面段）",
        "area_sqm_declared": 90778.345,
        "constraint_source_id": "CONSTRAINTS-002",
        "key_area_id": "PROV-KEY-001",
        "official_boundary": false,
        "boundary_precision": "provisional_rough",
        "provisional_note": "基于天地图1:100万真实水系/铁路线位缓冲示意，位置中误差100-500m；官方蓝线发布后整体重算"
      },
      "geometry": {
        "type": "Polygon",
        "coordinates": [
          [
            [
              116.3477805209275,
              40.0265
            ],
            [
              116.34829999999998,
              40.0265
            ],
            [
              116.3483,
              40.0265
            ],
            [
              116.3497,
              40.0265
            ],
            [
              116.3511,
              40.0265
            ],
            [
              116.3525,
              40.0265
            ],
            [
              116.3539,
              40.0265
            ],
            [
              116.35485818593254,
              40.0265
            ],
            [
              116.34260687778372,
              40.02459099456633
            ],
            [
              116.34266107953948,
              40.02570213055959
            ],
            [
              116.3477805209275,
              40.0265
            ]
          ]
        ]
      }
    },
    {
      "type": "Feature",
      "id": "GREEN-003",
      "properties": {
        "id": "GREEN-003",
        "layer": "GREEN_SPACE",
        "source_type": "agent_generated_design",
        "confidence": "medium",
        "geometry_role": "design_proposal",
        "land_use_code": "1401",
        "green_type": "蓝绿廊道",
        "name_zh": "小月河蓝绿廊道（南段）",
        "area_sqm_declared": 194384.116,
        "constraint_source_id": "CONSTRAINTS-002",
        "key_area_id": "PROV-KEY-002/003",
        "official_boundary": false,
        "boundary_precision": "provisional_rough",
        "provisional_note": "基于天地图1:100万真实水系/铁路线位缓冲示意，位置中误差100-500m；官方蓝线发布后整体重算"
      },
      "geometry": {
        "type": "Polygon",
        "coordinates": [
          [
            [
              116.34658921441823,
              39.97370959563202
            ],
            [
              116.346603692524,
              39.97374441118374
            ],
            [
              116.34662268202528,
              39.97377791863638
            ],
            [
              116.34724248756325,
              39.97473574081591
            ],
            [
              116.3472654521567,
              39.97476717865692
            ],
            [
              116.34729238721006,
              39.97479669247042
            ],
            [
              116.34732302279416,
              39.974823986478846
            ],
            [
              116.34735705189337,
              39.9748487871504
            ],
            [
              116.34739413348207,
              39.974870845940494
            ],
            [
              116.34743389594253,
              39.974889941782536
            ],
            [
              116.34747594078905,
              39.974905883303535
            ],
            [
              116.34751984666151,
              39.97491851074206
            ],
            [
              116.34756517354839,
              39.9749276975494
            ],
            [
              116.34761146719642,
              39.97493335165778
            ],
            [
              116.34765826366323,
              39.97493541640324
            ],
            [
              116.35450214529688,
              39.97497318378912
            ],
            [
              116.35455975923642,
              39.9742530095448
            ],
            [
              116.34795260986536,
              39.97421655874501
            ],
            [
              116.3475151034936,
              39.9735404658079
            ],
            [
              116.34841419850346,
              39.95839202332667
            ],
            [
              116.34841403973742,
              39.95835667157232
            ],
            [
              116.34840937898562,
              39.958321502021576
            ],
            [
              116.34840026114043,
              39.95828685337597
            ],
            [
              116.3483867740181,
              39.95825305931991
            ],
            [
              116.34836904751278,
              39.958220445307184
            ],
            [
              116.34834725234535,
              39.95818932542673
            ],
            [
              116.34832159841902,
              39.95815999937786
            ],
            [
              116.34829233279783,
              39.95813274958402
            ],
            [
              116.34825973732706,
              39.95810783847303
            ],
            [
              116.34822412591893,
              39.95808550594989
            ],
            [
              116.34818584152949,
              39.95806596708639
            ],
            [
              116.34814525285569,
              39.95804941005002
            ],
            [
              116.34810275078478,
              39.958035994291926
            ],
            [
              116.34805874463005,
              39.95802584901122
            ],
            [
              116.34801365818915,
              39.95801907191105
            ],
            [
              116.34796792566267,
              39.95801572825757
            ],
            [
              116.34792198747309,
              39.958015850251414
            ],
            [
              116.34787628602332,
              39.95801943671767
            ],
            [
              116.34783126143653,
              39.958026453117206
            ],
            [
              116.34778734731768,
              39.95803683187922
            ],
            [
              116.34774496657795,
              39.95805047305198
            ],
            [
              116.34770452736211,
              39.95806724526542
            ],
            [
              116.34766641911807,
              39.958086986996065
            ],
            [
              116.34763100884635,
              39.95810950812275
            ],
            [
              116.34759863756585,
              39.958134591757236
            ],
            [
              116.34756961702969,
              39.958161996333054
            ],
            [
              116.34754422672279,
              39.95819145793177
            ],
            [
              116.34752271117036,
              39.95822269282454
            ],
            [
              116.3475052775827,
              39.95825540020445
            ],
            [
              116.34749209385977,
              39.95828926508348
            ],
            [
              116.3474832869737,
              39.958323961325796
            ],
            [
              116.34747894174602,
              39.958359154788695
            ],
            [
              116.34657409819691,
              39.97360093034711
            ],
            [
              116.34657434068677,
              39.973637483956665
            ],
            [
              116.3465793967784,
              39.9736738304682
            ],
            [
              116.34658921441823,
              39.97370959563202
            ]
          ]
        ]
      }
    },
    {
      "type": "Feature",
      "id": "GREEN-004",
      "properties": {
        "id": "GREEN-004",
        "layer": "GREEN_SPACE",
        "source_type": "agent_generated_design",
        "confidence": "medium",
        "geometry_role": "design_proposal",
        "land_use_code": "1401",
        "green_type": "G1 公园绿地（社区公园）",
        "name_zh": "原点社区公园",
        "area_sqm_declared": 256069.042,
        "constraint_source_id": null,
        "key_area_id": "PROV-KEY-002",
        "official_boundary": false,
        "boundary_precision": "provisional_rough",
        "provisional_note": "基于天地图1:100万真实水系/铁路线位缓冲示意，位置中误差100-500m；官方蓝线发布后整体重算"
      },
      "geometry": {
        "type": "Polygon",
        "coordinates": [
          [
            [
              116.35050000000001,
              39.991
            ],
            [
              116.35050000000001,
              39.985000000000014
            ],
            [
              116.346,
              39.98500000000001
            ],
            [
              116.346,
              39.99099999999999
            ],
            [
              116.35050000000001,
              39.991
            ]
          ]
        ]
      }
    },
    {
      "type": "Feature",
      "id": "GREEN-005",
      "properties": {
        "id": "GREEN-005",
        "layer": "GREEN_SPACE",
        "source_type": "agent_generated_design",
        "confidence": "medium",
        "geometry_role": "design_proposal",
        "land_use_code": "1402",
        "green_type": "G2 防护绿地",
        "name_zh": "大钟寺规划绿地复合利用带",
        "area_sqm_declared": 330240.104,
        "constraint_source_id": null,
        "key_area_id": "PROV-KEY-003",
        "official_boundary": false,
        "boundary_precision": "provisional_rough",
        "provisional_note": "基于天地图1:100万真实水系/铁路线位缓冲示意，位置中误差100-500m；官方蓝线发布后整体重算"
      },
      "geometry": {
        "type": "Polygon",
        "coordinates": [
          [
            [
              116.349,
              39.9498
            ],
            [
              116.349,
              39.943999999999996
            ],
            [
              116.34299999999999,
              39.94400000000001
            ],
            [
              116.34299999999999,
              39.9498
            ],
            [
              116.349,
              39.9498
            ]
          ]
        ]
      }
    }
  ]
}
