{
  "type": "FeatureCollection",
  "name": "land_use.geojson",
  "features": [
    {
      "type": "Feature",
      "id": "LU-101",
      "properties": {
        "id": "LU-101",
        "layer": "LAND_USE",
        "source_type": "agent_generated_design",
        "confidence": "medium",
        "geometry_role": "design_proposal",
        "provisional": true,
        "official_boundary": false,
        "land_use_code": "05",
        "land_use_code_gb50137": "B2_B29",
        "name_zh": "南部门户更新带",
        "design_rationale": "大钟寺片区南部门户，沿京张走廊对外交通组织与商务服务",
        "area_sqm_declared": 368704.093
      },
      "geometry": {
        "type": "Polygon",
        "coordinates": [
          [
            [
              116.3484999993175,
              39.93900000175918
            ],
            [
              116.34656,
              39.943999999999996
            ],
            [
              116.3553,
              39.943999999999996
            ],
            [
              116.3553,
              39.94188888888889
            ],
            [
              116.3553,
              39.939
            ],
            [
              116.35367777777778,
              39.939
            ],
            [
              116.35205555555555,
              39.939
            ],
            [
              116.35043333333333,
              39.939
            ],
            [
              116.3488111111111,
              39.939
            ],
            [
              116.34881111111109,
              39.939
            ],
            [
              116.3484999993175,
              39.93900000175918
            ]
          ]
        ]
      }
    },
    {
      "type": "Feature",
      "id": "LU-102",
      "properties": {
        "id": "LU-102",
        "layer": "LAND_USE",
        "source_type": "agent_generated_design",
        "confidence": "medium",
        "geometry_role": "design_proposal",
        "provisional": true,
        "official_boundary": false,
        "land_use_code": "1401",
        "land_use_code_gb50137": "G1_G2",
        "name_zh": "京张遗址走廊公园带",
        "design_rationale": "一带主轴：京包线沿线南北连续绿带，慢行+文化+开敞测试载体",
        "area_sqm_declared": 876694.986
      },
      "geometry": {
        "type": "Polygon",
        "coordinates": [
          [
            [
              116.3484999993175,
              39.93900000175918
            ],
            [
              116.3471888888889,
              39.93900000000001
            ],
            [
              116.34556666666667,
              39.939
            ],
            [
              116.34394444444445,
              39.939
            ],
            [
              116.34232222222222,
              39.939
            ],
            [
              116.34070000000001,
              39.939
            ],
            [
              116.3405888888889,
              39.943
            ],
            [
              116.34053446712018,
              39.94495918367346
            ],
            [
              116.34047777777778,
              39.947
            ],
            [
              116.34036666666667,
              39.951
            ],
            [
              116.3403111111111,
              39.952999999999996
            ],
            [
              116.34025555555556,
              39.955000000000005
            ],
            [
              116.34025405405406,
              39.95505405405407
            ],
            [
              116.34014444444443,
              39.959
            ],
            [
              116.3401444441405,
              39.95900001094153
            ],
            [
              116.34010543876673,
              39.96040427096805
            ],
            [
              116.3402,
              39.959869999999995
            ],
            [
              116.34205,
              39.95658000000001
            ],
            [
              116.34381000000002,
              39.95331
            ],
            [
              116.34465,
              39.95174
            ],
            [
              116.34511000000002,
              39.94983999999999
            ],
            [
              116.34656,
              39.943999999999996
            ],
            [
              116.3484999993175,
              39.93900000175918
            ]
          ]
        ]
      }
    },
    {
      "type": "Feature",
      "id": "LU-103",
      "properties": {
        "id": "LU-103",
        "layer": "LAND_USE",
        "source_type": "agent_generated_design",
        "confidence": "medium",
        "geometry_role": "design_proposal",
        "provisional": true,
        "official_boundary": false,
        "land_use_code": "0802",
        "land_use_code_gb50137": "A35",
        "name_zh": "北三环南科创更新带",
        "design_rationale": "科创更新区，接北三环交通，小月河支流南段贯穿",
        "area_sqm_declared": 2109731.448
      },
      "geometry": {
        "type": "Polygon",
        "coordinates": [
          [
            [
              116.33994166783876,
              39.966300000000075
            ],
            [
              116.355196,
              39.966300000000004
            ],
            [
              116.3553,
              39.965
            ],
            [
              116.3553,
              39.96211111111111
            ],
            [
              116.3553,
              39.962111111111106
            ],
            [
              116.3553,
              39.95922222222223
            ],
            [
              116.3553,
              39.95922222222222
            ],
            [
              116.3553,
              39.95633333333333
            ],
            [
              116.3553,
              39.95344444444444
            ],
            [
              116.3553,
              39.953444444444436
            ],
            [
              116.3553,
              39.95055555555556
            ],
            [
              116.3553,
              39.94984
            ],
            [
              116.352,
              39.949839999999995
            ],
            [
              116.349,
              39.94983999999999
            ],
            [
              116.34511000000002,
              39.94983999999999
            ],
            [
              116.34465,
              39.95174
            ],
            [
              116.34381000000002,
              39.95331
            ],
            [
              116.34205,
              39.95658000000001
            ],
            [
              116.3402,
              39.959869999999995
            ],
            [
              116.34010543876673,
              39.96040427096805
            ],
            [
              116.34003333334871,
              39.96299999944588
            ],
            [
              116.34003333333332,
              39.963
            ],
            [
              116.34003333330246,
              39.963000001111375
            ],
            [
              116.33994166783876,
              39.966300000000075
            ]
          ]
        ]
      }
    },
    {
      "type": "Feature",
      "id": "LU-104",
      "properties": {
        "id": "LU-104",
        "layer": "LAND_USE",
        "source_type": "agent_generated_design",
        "confidence": "medium",
        "geometry_role": "design_proposal",
        "provisional": true,
        "official_boundary": false,
        "land_use_code": "0802",
        "land_use_code_gb50137": "A35_R2",
        "name_zh": "小月河研发更新带",
        "design_rationale": "依托小月河支流蓝绿廊，研发+社区更新",
        "area_sqm_declared": 1184017.545
      },
      "geometry": {
        "type": "Polygon",
        "coordinates": [
          [
            [
              116.33994166783876,
              39.966300000000075
            ],
            [
              116.33992222222221,
              39.96700000000001
            ],
            [
              116.3398111111111,
              39.971000000000004
            ],
            [
              116.3397,
              39.975
            ],
            [
              116.33972,
              39.9746
            ],
            [
              116.35453199999999,
              39.97460000000001
            ],
            [
              116.35457589684951,
              39.974051289381194
            ],
            [
              116.3546319494585,
              39.97335063176886
            ],
            [
              116.35463,
              39.97333
            ],
            [
              116.35472857142868,
              39.97214285714153
            ],
            [
              116.35485555555556,
              39.970555555555556
            ],
            [
              116.35507777777778,
              39.96777777777778
            ],
            [
              116.355196,
              39.966300000000004
            ],
            [
              116.33994166783876,
              39.966300000000075
            ]
          ]
        ]
      }
    },
    {
      "type": "Feature",
      "id": "LU-105",
      "properties": {
        "id": "LU-105",
        "layer": "LAND_USE",
        "source_type": "agent_generated_design",
        "confidence": "medium",
        "geometry_role": "design_proposal",
        "provisional": true,
        "official_boundary": false,
        "land_use_code": "05",
        "land_use_code_gb50137": "B2_B29",
        "name_zh": "原点社区南服务带",
        "design_rationale": "中核南翼服务带，衔接小月河与原点社区",
        "area_sqm_declared": 1199916.223
      },
      "geometry": {
        "type": "MultiPolygon",
        "coordinates": [
          [
            [
              [
                116.35463333333334,
                39.97333333333333
              ],
              [
                116.35464146341465,
                39.973231707317
              ],
              [
                116.3547285714285,
                39.97214285714383
              ],
              [
                116.35463,
                39.97333
              ],
              [
                116.35463194945851,
                39.973350631768795
              ],
              [
                116.35463325634487,
                39.973334295689305
              ],
              [
                116.35463333333334,
                39.97333333333333
              ]
            ]
          ],
          [
            [
              [
                116.35453199999999,
                39.97460000000001
              ],
              [
                116.33972,
                39.9746
              ],
              [
                116.3397,
                39.975
              ],
              [
                116.33992222222221,
                39.97844444444445
              ],
              [
                116.34014444444445,
                39.98188888888889
              ],
              [
                116.34022105263163,
                39.983076315790264
              ],
              [
                116.34025000000001,
                39.983500000000014
              ],
              [
                116.35382,
                39.9835
              ],
              [
                116.35382902902903,
                39.983387137137136
              ],
              [
                116.35396666666666,
                39.98166666666667
              ],
              [
                116.35416507936507,
                39.97918650793649
              ],
              [
                116.35418888888888,
                39.97888888888887
              ],
              [
                116.3542126984127,
                39.97859126984124
              ],
              [
                116.35441111111112,
                39.976111111111116
              ],
              [
                116.3545544077123,
                39.97431990359628
              ],
              [
                116.35453199999999,
                39.97460000000001
              ]
            ]
          ]
        ]
      }
    },
    {
      "type": "Feature",
      "id": "LU-106",
      "properties": {
        "id": "LU-106",
        "layer": "LAND_USE",
        "source_type": "agent_generated_design",
        "confidence": "medium",
        "geometry_role": "design_proposal",
        "provisional": true,
        "official_boundary": false,
        "land_use_code": "0702",
        "land_use_code_gb50137": "R22",
        "name_zh": "原点社区东西缘更新带",
        "design_rationale": "重点区两翼的社区更新界面",
        "area_sqm_declared": 183166.199
      },
      "geometry": {
        "type": "MultiPolygon",
        "coordinates": [
          [
            [
              [
                116.353,
                39.98350004510214
              ],
              [
                116.353,
                39.98569999999999
              ],
              [
                116.353,
                39.99349999999999
              ],
              [
                116.35349,
                39.99349999999998
              ],
              [
                116.35330000000009,
                39.990000000001515
              ],
              [
                116.3533,
                39.99
              ],
              [
                116.3533,
                39.989999999999995
              ],
              [
                116.3533,
                39.98999999999999
              ],
              [
                116.35352222222222,
                39.98722222222222
              ],
              [
                116.35374444444443,
                39.98444444444443
              ],
              [
                116.35382,
                39.9835
              ],
              [
                116.353,
                39.98350004510214
              ]
            ]
          ],
          [
            [
              [
                116.3405888888889,
                39.98877777777776
              ],
              [
                116.34081111111112,
                39.992222222222225
              ],
              [
                116.3408935483871,
                39.99349999999999
              ],
              [
                116.34200000000001,
                39.99349999999998
              ],
              [
                116.34200000000011,
                39.983500089233665
              ],
              [
                116.34025000000001,
                39.983500000000014
              ],
              [
                116.34022105263163,
                39.983076315790264
              ],
              [
                116.34014444444445,
                39.98188888888889
              ],
              [
                116.34036666666667,
                39.98533333333334
              ],
              [
                116.34037320261439,
                39.98543464052288
              ],
              [
                116.3405888888889,
                39.98877777777776
              ]
            ]
          ]
        ]
      }
    },
    {
      "type": "Feature",
      "id": "LU-107",
      "properties": {
        "id": "LU-107",
        "layer": "LAND_USE",
        "source_type": "agent_generated_design",
        "confidence": "medium",
        "geometry_role": "design_proposal",
        "provisional": true,
        "official_boundary": false,
        "land_use_code": "0802",
        "land_use_code_gb50137": "M0",
        "name_zh": "科创产业带",
        "design_rationale": "原点社区—众智园之间新型产业带，轨道/路网衔接",
        "area_sqm_declared": 1663515.452
      },
      "geometry": {
        "type": "Polygon",
        "coordinates": [
          [
            [
              116.353,
              39.99349999999999
            ],
            [
              116.348,
              39.99349999999998
            ],
            [
              116.34200000000001,
              39.99349999999998
            ],
            [
              116.3408935483871,
              39.99349999999999
            ],
            [
              116.34103333333333,
              39.995666666666665
            ],
            [
              116.34125555555555,
              39.999111111111105
            ],
            [
              116.34147777777778,
              40.00255555555555
            ],
            [
              116.34169999999999,
              40.00600000000001
            ],
            [
              116.34177317073171,
              40.0075
            ],
            [
              116.35424000000002,
              40.00749999999999
            ],
            [
              116.3541930617564,
              40.006298380963884
            ],
            [
              116.35418888888888,
              40.00622222222221
            ],
            [
              116.35396666666668,
              40.00216666666667
            ],
            [
              116.35374444444443,
              39.998111111111115
            ],
            [
              116.35352222222222,
              39.994055555555555
            ],
            [
              116.3533,
              39.98999999999999
            ],
            [
              116.35349,
              39.99349999999998
            ],
            [
              116.353,
              39.99349999999999
            ]
          ]
        ]
      }
    },
    {
      "type": "Feature",
      "id": "LU-108",
      "properties": {
        "id": "LU-108",
        "layer": "LAND_USE",
        "source_type": "agent_generated_design",
        "confidence": "medium",
        "geometry_role": "design_proposal",
        "provisional": true,
        "official_boundary": false,
        "land_use_code": "0702",
        "land_use_code_gb50137": "R22",
        "name_zh": "众智园东西缘更新带",
        "design_rationale": "众智园两翼更新界面，东翼沿 G6 辅路",
        "area_sqm_declared": 278010.783
      },
      "geometry": {
        "type": "MultiPolygon",
        "coordinates": [
          [
            [
              [
                116.3541930617564,
                40.006298380963884
              ],
              [
                116.35424000000002,
                40.00749999999999
              ],
              [
                116.354,
                40.007500012660785
              ],
              [
                116.354,
                40.017
              ],
              [
                116.354,
                40.0235
              ],
              [
                116.354,
                40.02649999999999
              ],
              [
                116.3539,
                40.0265
              ],
              [
                116.3553,
                40.02649999999999
              ],
              [
                116.35507777777778,
                40.022444444444446
              ],
              [
                116.35485555555556,
                40.018388888888886
              ],
              [
                116.35472609552511,
                40.016026294954834
              ],
              [
                116.35463333333334,
                40.01433333333333
              ],
              [
                116.35441111111112,
                40.01027777777778
              ],
              [
                116.35441109704314,
                40.010277521037175
              ],
              [
                116.3541930617564,
                40.006298380963884
              ]
            ]
          ],
          [
            [
              [
                116.34192222222224,
                40.01055555555555
              ],
              [
                116.34203074935401,
                40.012780361757116
              ],
              [
                116.34203333333333,
                40.01283333333333
              ],
              [
                116.34214444444444,
                40.01511111111111
              ],
              [
                116.34225555555555,
                40.01738888888888
              ],
              [
                116.34236666666666,
                40.01966666666666
              ],
              [
                116.34236931216931,
                40.01972089947089
              ],
              [
                116.34247777777777,
                40.02194444444444
              ],
              [
                116.34253472222221,
                40.02311180555556
              ],
              [
                116.3425888888889,
                40.024222222222235
              ],
              [
                116.34270000000001,
                40.0265
              ],
              [
                116.34285,
                40.0265
              ],
              [
                116.34299999999999,
                40.02649999999999
              ],
              [
                116.3430000000001,
                40.00750005949584
              ],
              [
                116.34177317073171,
                40.0075
              ],
              [
                116.34181111111113,
                40.00827777777779
              ],
              [
                116.34192222222224,
                40.01055555555555
              ]
            ]
          ]
        ]
      }
    },
    {
      "type": "Feature",
      "id": "LU-201",
      "properties": {
        "id": "LU-201",
        "layer": "LAND_USE",
        "source_type": "agent_generated_design",
        "confidence": "medium",
        "geometry_role": "design_proposal",
        "provisional": true,
        "official_boundary": false,
        "land_use_code": "05",
        "land_use_code_gb50137": "B2_B29",
        "name_zh": "大钟寺站城一体商务区",
        "design_rationale": "站点周边高强度复合商务，国际路演客厅",
        "area_sqm_declared": 175400.743
      },
      "geometry": {
        "type": "Polygon",
        "coordinates": [
          [
            [
              116.34656,
              39.943999999999996
            ],
            [
              116.34511000000002,
              39.94983999999999
            ],
            [
              116.349,
              39.94983999999999
            ],
            [
              116.34900000000006,
              39.944000066297754
            ],
            [
              116.34656,
              39.943999999999996
            ]
          ]
        ]
      }
    },
    {
      "type": "Feature",
      "id": "LU-202",
      "properties": {
        "id": "LU-202",
        "layer": "LAND_USE",
        "source_type": "agent_generated_design",
        "confidence": "medium",
        "geometry_role": "design_proposal",
        "provisional": true,
        "official_boundary": false,
        "land_use_code": "05",
        "land_use_code_gb50137": "B1",
        "name_zh": "大钟寺商业文化街区",
        "design_rationale": "智能体/智能终端展示、内容消费、数据要素商业界面",
        "area_sqm_declared": 166256.542
      },
      "geometry": {
        "type": "Polygon",
        "coordinates": [
          [
            [
              116.352,
              39.949839999999995
            ],
            [
              116.35200000000006,
              39.94400007742501
            ],
            [
              116.34900000000006,
              39.944000066297754
            ],
            [
              116.349,
              39.94983999999999
            ],
            [
              116.352,
              39.949839999999995
            ]
          ]
        ]
      }
    },
    {
      "type": "Feature",
      "id": "LU-203",
      "properties": {
        "id": "LU-203",
        "layer": "LAND_USE",
        "source_type": "agent_generated_design",
        "confidence": "medium",
        "geometry_role": "design_proposal",
        "provisional": true,
        "official_boundary": false,
        "land_use_code": "0701",
        "land_use_code_gb50137": "R2",
        "name_zh": "大钟寺配套社区",
        "design_rationale": "片区居住与社区配套，维持城市型街区肌理",
        "area_sqm_declared": 182883.075
      },
      "geometry": {
        "type": "Polygon",
        "coordinates": [
          [
            [
              116.3553,
              39.94984
            ],
            [
              116.3553,
              39.94766666666667
            ],
            [
              116.3553,
              39.947666666666656
            ],
            [
              116.3553,
              39.94477777777778
            ],
            [
              116.3553,
              39.943999999999996
            ],
            [
              116.35200000000006,
              39.94400007742501
            ],
            [
              116.352,
              39.949839999999995
            ],
            [
              116.3553,
              39.94984
            ]
          ]
        ]
      }
    },
    {
      "type": "Feature",
      "id": "LU-301",
      "properties": {
        "id": "LU-301",
        "layer": "LAND_USE",
        "source_type": "agent_generated_design",
        "confidence": "medium",
        "geometry_role": "design_proposal",
        "provisional": true,
        "official_boundary": false,
        "land_use_code": "0802",
        "land_use_code_gb50137": "A35",
        "name_zh": "近校成果转化孵化区",
        "design_rationale": "近校孵化、成果转化、法务/知产/投融资服务",
        "area_sqm_declared": 229517.994
      },
      "geometry": {
        "type": "Polygon",
        "coordinates": [
          [
            [
              116.353,
              39.98569999999999
            ],
            [
              116.353,
              39.98350004510214
            ],
            [
              116.34200000000011,
              39.983500089233665
            ],
            [
              116.34200000171293,
              39.985700000000065
            ],
            [
              116.353,
              39.98569999999999
            ]
          ]
        ]
      }
    },
    {
      "type": "Feature",
      "id": "LU-302",
      "properties": {
        "id": "LU-302",
        "layer": "LAND_USE",
        "source_type": "agent_generated_design",
        "confidence": "medium",
        "geometry_role": "design_proposal",
        "provisional": true,
        "official_boundary": false,
        "land_use_code": "0803",
        "land_use_code_gb50137": "A2_A3",
        "name_zh": "成果发布与开源社区区",
        "design_rationale": "开源发布厅、代码墙、成果发布，公共空间承载",
        "area_sqm_declared": 187782.173
      },
      "geometry": {
        "type": "Polygon",
        "coordinates": [
          [
            [
              116.348,
              39.99349999999998
            ],
            [
              116.3480000000001,
              39.985700129419634
            ],
            [
              116.34200000171293,
              39.985700000000065
            ],
            [
              116.34200000247064,
              39.989000000000054
            ],
            [
              116.348,
              39.989000000000004
            ],
            [
              116.348,
              39.99349999999998
            ]
          ]
        ]
      }
    },
    {
      "type": "Feature",
      "id": "LU-303",
      "properties": {
        "id": "LU-303",
        "layer": "LAND_USE",
        "source_type": "agent_generated_design",
        "confidence": "medium",
        "geometry_role": "design_proposal",
        "provisional": true,
        "official_boundary": false,
        "land_use_code": "0701",
        "land_use_code_gb50137": "R2",
        "name_zh": "人才居住社区",
        "design_rationale": "人才特区居住生活配套",
        "area_sqm_declared": 256057.191
      },
      "geometry": {
        "type": "Polygon",
        "coordinates": [
          [
            [
              116.348,
              39.99349999999998
            ],
            [
              116.348,
              39.989000000000004
            ],
            [
              116.34200000247064,
              39.989000000000054
            ],
            [
              116.34200000000001,
              39.99349999999998
            ],
            [
              116.348,
              39.99349999999998
            ]
          ]
        ]
      }
    },
    {
      "type": "Feature",
      "id": "LU-304",
      "properties": {
        "id": "LU-304",
        "layer": "LAND_USE",
        "source_type": "agent_generated_design",
        "confidence": "medium",
        "geometry_role": "design_proposal",
        "provisional": true,
        "official_boundary": false,
        "land_use_code": "05",
        "land_use_code_gb50137": "B2_B29",
        "name_zh": "产业商务服务区",
        "design_rationale": "企业服务、产业平台与人才服务复合",
        "area_sqm_declared": 369865.713
      },
      "geometry": {
        "type": "Polygon",
        "coordinates": [
          [
            [
              116.353,
              39.99349999999999
            ],
            [
              116.353,
              39.98569999999999
            ],
            [
              116.3480000000001,
              39.985700129419634
            ],
            [
              116.348,
              39.99349999999998
            ],
            [
              116.353,
              39.99349999999999
            ]
          ]
        ]
      }
    },
    {
      "type": "Feature",
      "id": "LU-401",
      "properties": {
        "id": "LU-401",
        "layer": "LAND_USE",
        "source_type": "agent_generated_design",
        "confidence": "medium",
        "geometry_role": "design_proposal",
        "provisional": true,
        "official_boundary": false,
        "land_use_code": "1401",
        "land_use_code_gb50137": "G1",
        "name_zh": "清河界面绿色创新廊",
        "design_rationale": "临清河界面绿色开放带，低碳创新廊/雨洪/慢行复合",
        "area_sqm_declared": 312804.075
      },
      "geometry": {
        "type": "Polygon",
        "coordinates": [
          [
            [
              116.3539,
              40.0265
            ],
            [
              116.354,
              40.02649999999999
            ],
            [
              116.354,
              40.0235
            ],
            [
              116.349,
              40.023500000000006
            ],
            [
              116.34300000478454,
              40.023500000000126
            ],
            [
              116.34299999999999,
              40.02649999999999
            ],
            [
              116.34285,
              40.0265
            ],
            [
              116.3441,
              40.0265
            ],
            [
              116.34549999999999,
              40.0265
            ],
            [
              116.34689999999999,
              40.02649999999999
            ],
            [
              116.34829999999998,
              40.0265
            ],
            [
              116.3483,
              40.0265
            ],
            [
              116.3497,
              40.0265
            ],
            [
              116.3511,
              40.0265
            ],
            [
              116.3525,
              40.0265
            ],
            [
              116.3539,
              40.0265
            ]
          ]
        ]
      }
    },
    {
      "type": "Feature",
      "id": "LU-402",
      "properties": {
        "id": "LU-402",
        "layer": "LAND_USE",
        "source_type": "agent_generated_design",
        "confidence": "medium",
        "geometry_role": "design_proposal",
        "provisional": true,
        "official_boundary": false,
        "land_use_code": "0802",
        "land_use_code_gb50137": "M0",
        "name_zh": "全栈自主创新研发区",
        "design_rationale": "国家平台、全栈自主创新研发；G6 从东缘进入",
        "area_sqm_declared": 910100.563
      },
      "geometry": {
        "type": "Polygon",
        "coordinates": [
          [
            [
              116.349,
              40.023500000000006
            ],
            [
              116.34900000000026,
              40.007500163386126
            ],
            [
              116.3430000000001,
              40.00750005949584
            ],
            [
              116.34300000478454,
              40.023500000000126
            ],
            [
              116.349,
              40.023500000000006
            ]
          ]
        ]
      }
    },
    {
      "type": "Feature",
      "id": "LU-403",
      "properties": {
        "id": "LU-403",
        "layer": "LAND_USE",
        "source_type": "agent_generated_design",
        "confidence": "medium",
        "geometry_role": "design_proposal",
        "provisional": true,
        "official_boundary": false,
        "land_use_code": "0802",
        "land_use_code_gb50137": "M1_A35",
        "name_zh": "测试与安全治理区",
        "design_rationale": "开放测试场、标准制定工作坊、安全治理展示",
        "area_sqm_declared": 450329.577
      },
      "geometry": {
        "type": "Polygon",
        "coordinates": [
          [
            [
              116.354,
              40.017
            ],
            [
              116.354,
              40.007500012660785
            ],
            [
              116.34900000000026,
              40.007500163386126
            ],
            [
              116.3490000060986,
              40.017000000000145
            ],
            [
              116.354,
              40.017
            ]
          ]
        ]
      }
    },
    {
      "type": "Feature",
      "id": "LU-404",
      "properties": {
        "id": "LU-404",
        "layer": "LAND_USE",
        "source_type": "agent_generated_design",
        "confidence": "medium",
        "geometry_role": "design_proposal",
        "provisional": true,
        "official_boundary": false,
        "land_use_code": "0803",
        "land_use_code_gb50137": "A2_A3",
        "name_zh": "产业展示与低碳交往区",
        "design_rationale": "产业展示、低碳算力体验与国际交往",
        "area_sqm_declared": 308087.538
      },
      "geometry": {
        "type": "Polygon",
        "coordinates": [
          [
            [
              116.354,
              40.0235
            ],
            [
              116.354,
              40.017
            ],
            [
              116.3490000060986,
              40.017000000000145
            ],
            [
              116.349,
              40.023500000000006
            ],
            [
              116.354,
              40.0235
            ]
          ]
        ]
      }
    }
  ]
}
