{
  "type": "FeatureCollection",
  "name": "phasing_design",
  "features": [
    {
      "type": "Feature",
      "id": "PH-01",
      "properties": {
        "id": "PH-01",
        "layer": "PHASE",
        "source_type": "agent_generated_design",
        "confidence": "medium",
        "geometry_role": "design_proposal",
        "name_zh": "一期：公共基面与断点修补",
        "name_en": "Phase 1: Public Ground & Gap Repair",
        "phase": "phase_1",
        "priority": "near_term",
        "area_sqm_declared": 252054.569
      },
      "geometry": {
        "type": "MultiPolygon",
        "coordinates": [
          [
            [
              [
                116.3426266619848,
                39.946724917792274
              ],
              [
                116.34262355879756,
                39.94704912254757
              ],
              [
                116.35437281939676,
                39.94711514907893
              ],
              [
                116.35437586713036,
                39.94679094356959
              ],
              [
                116.3426266619848,
                39.946724917792274
              ]
            ]
          ],
          [
            [
              [
                116.34284009261798,
                39.98845268998509
              ],
              [
                116.3521595146323,
                39.988505155182516
              ],
              [
                116.35216291758996,
                39.98814492957498
              ],
              [
                116.34284354451991,
                39.98809246504312
              ],
              [
                116.34284009261798,
                39.98845268998509
              ]
            ]
          ],
          [
            [
              [
                116.34485570596388,
                40.02378308892304
              ],
              [
                116.34499413732318,
                40.00930563605656
              ],
              [
                116.34365324429444,
                40.00929804957991
              ],
              [
                116.34351452959537,
                40.02377549857813
              ],
              [
                116.34485570596388,
                40.02378308892304
              ]
            ]
          ]
        ]
      }
    },
    {
      "type": "Feature",
      "id": "PH-02",
      "properties": {
        "id": "PH-02",
        "layer": "PHASE",
        "source_type": "agent_generated_design",
        "confidence": "medium",
        "geometry_role": "design_proposal",
        "name_zh": "二期：重点区公共空间与存量更新",
        "name_en": "Phase 2: Key-Area Public Space & Renewal",
        "phase": "phase_2",
        "priority": "medium_term",
        "area_sqm_declared": 2398954.166
      },
      "geometry": {
        "type": "MultiPolygon",
        "coordinates": [
          [
            [
              [
                116.34299525643073,
                39.949136078443495
              ],
              [
                116.35396156582526,
                39.94919770773184
              ],
              [
                116.35400383490506,
                39.94470402065817
              ],
              [
                116.34303824289078,
                39.94464240112463
              ],
              [
                116.34299525643073,
                39.949136078443495
              ]
            ]
          ],
          [
            [
              [
                116.35212319333482,
                39.99234959974793
              ],
              [
                116.35219543008694,
                39.98470293832946
              ],
              [
                116.34287652463955,
                39.98465048015684
              ],
              [
                116.34280324891637,
                39.9922971274469
              ],
              [
                116.35212319333482,
                39.99234959974793
              ]
            ]
          ],
          [
            [
              [
                116.35312630476193,
                40.023829553082635
              ],
              [
                116.35325948536557,
                40.009723294341946
              ],
              [
                116.34387317210751,
                40.009670532185694
              ],
              [
                116.3437380589548,
                40.02377676471345
              ],
              [
                116.35312630476193,
                40.023829553082635
              ]
            ]
          ]
        ]
      }
    },
    {
      "type": "Feature",
      "id": "PH-03",
      "properties": {
        "id": "PH-03",
        "layer": "PHASE",
        "source_type": "agent_generated_design",
        "confidence": "medium",
        "geometry_role": "design_proposal",
        "name_zh": "三期：经验证的AI城市服务扩展",
        "name_en": "Phase 3: Verified AI Urban Services",
        "phase": "phase_3",
        "priority": "conditional_after_verification",
        "area_sqm_declared": 302819.911
      },
      "geometry": {
        "type": "MultiPolygon",
        "coordinates": [
          [
            [
              [
                116.3475797143188,
                39.9475654443222
              ],
              [
                116.3494073900755,
                39.94757571529271
              ],
              [
                116.34941971238818,
                39.94627491231059
              ],
              [
                116.34759207124189,
                39.94626464181071
              ],
              [
                116.3475797143188,
                39.9475654443222
              ]
            ]
          ],
          [
            [
              [
                116.34948516682734,
                39.98971872353482
              ],
              [
                116.34950807217521,
                39.98730398961827
              ],
              [
                116.34551410323863,
                39.98728150547289
              ],
              [
                116.3454910572781,
                39.98969623747733
              ],
              [
                116.34948516682734,
                39.98971872353482
              ]
            ]
          ],
          [
            [
              [
                116.35047914826606,
                40.020102380279184
              ],
              [
                116.35053193898254,
                40.01453412373354
              ],
              [
                116.34695594856653,
                40.01451402734454
              ],
              [
                116.34690286723301,
                40.020082279949676
              ],
              [
                116.35047914826606,
                40.020102380279184
              ]
            ]
          ]
        ]
      }
    }
  ]
}