{"type":"FeatureCollection","name":"buildings","features":[{"type":"Feature","id":"BLD-001","properties":{"id":"BLD-001","layer":"BUILDING_FOOTPRINT","building_type":"cultural","name_zh":"论道台","geometry_role":"provisional_constraint","official_boundary":false,"source_type":"agent_generated_design","confidence":"low"},"geometry":{"type":"Polygon","coordinates":[[[116.3475,40.015],[116.3495,40.015],[116.3495,40.017],[116.3475,40.017],[116.3475,40.015]]]}},{"type":"Feature","id":"BLD-002","properties":{"id":"BLD-002","layer":"BUILDING_FOOTPRINT","building_type":"lab","name_zh":"AI原点实验室","geometry_role":"provisional_constraint","official_boundary":false,"source_type":"agent_generated_design","confidence":"low"},"geometry":{"type":"Polygon","coordinates":[[[116.345,39.987],[116.347,39.987],[116.347,39.989],[116.345,39.989],[116.345,39.987]]]}},{"type":"Feature","id":"BLD-003","properties":{"id":"BLD-003","layer":"BUILDING_FOOTPRINT","building_type":"mixed_use","name_zh":"AI场景大市场","geometry_role":"provisional_constraint","official_boundary":false,"source_type":"agent_generated_design","confidence":"low"},"geometry":{"type":"Polygon","coordinates":[[[116.349,39.946],[116.352,39.946],[116.352,39.948],[116.349,39.948],[116.349,39.946]]]}}]}