{"type":"FeatureCollection","name":"constraints","features":[{"type":"Feature","id":"CON-001","properties":{"id":"CON-001","layer":"SITE_BOUNDARY","constraint_type":"provisional_site_boundary","name_zh":"总体设计范围临时边界","source_type":"agent_generated_design","confidence":"low","geometry_role":"provisional_constraint","official_boundary":false,"boundary_precision":"provisional_rough"},"geometry":{"type":"Polygon","coordinates":[[[116.3407,39.939],[116.3553,39.939],[116.3553,39.965],[116.3533,39.99],[116.3553,40.0265],[116.3427,40.0265],[116.3417,40.006],[116.3397,39.975],[116.3407,39.939]]]}},{"type":"Feature","id":"CON-002","properties":{"id":"CON-002","layer":"HERITAGE_PROTECTION","constraint_type":"heritage_railway","name_zh":"京张铁路遗址文保约束","source_type":"agent_inferred_from_public_data","confidence":"medium","geometry_role":"provisional_constraint","official_boundary":false},"geometry":{"type":"LineString","coordinates":[[116.347,40.026],[116.347,39.939]]}}]}