{"type":"FeatureCollection","name":"key_areas","features":[{"type":"Feature","id":"KA-001","properties":{"id":"KA-001","layer":"KEY_AREA","area_id":"zhongzhiyuan_ai_acceleration_area","name_zh":"众智园AI自主创新加速区","persona_zh":"名家理性之师","geometry_role":"provisional_constraint","official_boundary":false,"boundary_precision":"provisional_rough","announced_area_sqm":1921000,"source_type":"agent_generated_design","confidence":"low"},"geometry":{"type":"Polygon","coordinates":[[[116.343,40.0075],[116.354,40.0075],[116.354,40.026],[116.343,40.026],[116.343,40.0075]]]}},{"type":"Feature","id":"KA-002","properties":{"id":"KA-002","layer":"KEY_AREA","area_id":"beijing_ai_origin_community","name_zh":"北京AI原点社区","persona_zh":"道家自然之师","geometry_role":"provisional_constraint","official_boundary":false,"boundary_precision":"provisional_rough","announced_area_sqm":1043000,"source_type":"agent_generated_design","confidence":"low"},"geometry":{"type":"Polygon","coordinates":[[[116.342,39.9835],[116.353,39.9835],[116.353,39.9935],[116.342,39.9935],[116.342,39.9835]]]}},{"type":"Feature","id":"KA-003","properties":{"id":"KA-003","layer":"KEY_AREA","area_id":"dazhongsi_ai_industry_cluster","name_zh":"大钟寺AI产业集聚区","persona_zh":"墨家实用之师","geometry_role":"provisional_constraint","official_boundary":false,"boundary_precision":"provisional_rough","announced_area_sqm":720000,"source_type":"agent_generated_design","confidence":"low"},"geometry":{"type":"Polygon","coordinates":[[[116.342,39.944],[116.355,39.944],[116.355,39.94984],[116.342,39.94984],[116.342,39.944]]]}}]}