{"type":"FeatureCollection","name":"phasing","features":[{"type":"Feature","id":"PH-001","properties":{"id":"PH-001","layer":"PHASE","phase":"near_term","phase_zh":"近期1-3年立论期","name_zh":"辩论走廊首段+论道台","source_type":"agent_generated_design","confidence":"low","geometry_role":"provisional_constraint","official_boundary":false,"boundary_precision":"provisional_rough"},"geometry":{"type":"Polygon","coordinates":[[[116.343,40.0075],[116.354,40.0075],[116.354,40.026],[116.343,40.026],[116.343,40.0075]]]}},{"type":"Feature","id":"PH-002","properties":{"id":"PH-002","layer":"PHASE","phase":"mid_term","phase_zh":"中期3-5年辩难期","name_zh":"原点社区+走廊贯通","source_type":"agent_generated_design","confidence":"low","geometry_role":"provisional_constraint","official_boundary":false,"boundary_precision":"provisional_rough"},"geometry":{"type":"Polygon","coordinates":[[[116.342,39.9835],[116.353,39.9835],[116.353,39.9935],[116.342,39.9935],[116.342,39.9835]]]}},{"type":"Feature","id":"PH-003","properties":{"id":"PH-003","layer":"PHASE","phase":"long_term","phase_zh":"远期5-10年沉淀期","name_zh":"大钟寺+全线地标","source_type":"agent_generated_design","confidence":"low","geometry_role":"provisional_constraint","official_boundary":false,"boundary_precision":"provisional_rough"},"geometry":{"type":"Polygon","coordinates":[[[116.342,39.944],[116.355,39.944],[116.355,39.94984],[116.342,39.94984],[116.342,39.944]]]}}]}