{"type":"FeatureCollection","name":"roads","features":[{"type":"Feature","id":"RD-001","properties":{"id":"RD-001","layer":"ROAD_CENTERLINE","road_type":"slow_mobility","name_zh":"辩论走廊慢行主道","geometry_role":"provisional_constraint","official_boundary":false,"source_type":"agent_generated_design","confidence":"low"},"geometry":{"type":"LineString","coordinates":[[116.347,40.026],[116.347,40.0075],[116.347,39.9935],[116.347,39.9835],[116.347,39.94984],[116.347,39.939]]}},{"type":"Feature","id":"RD-002","properties":{"id":"RD-002","layer":"ROAD_CENTERLINE","road_type":"bridge","name_zh":"对话桥1","geometry_role":"provisional_constraint","official_boundary":false,"source_type":"agent_generated_design","confidence":"low"},"geometry":{"type":"LineString","coordinates":[[116.343,40.016],[116.354,40.016]]}},{"type":"Feature","id":"RD-003","properties":{"id":"RD-003","layer":"ROAD_CENTERLINE","road_type":"bridge","name_zh":"对话桥2","geometry_role":"provisional_constraint","official_boundary":false,"source_type":"agent_generated_design","confidence":"low"},"geometry":{"type":"LineString","coordinates":[[116.342,39.988],[116.353,39.988]]}},{"type":"Feature","id":"RD-004","properties":{"id":"RD-004","layer":"ROAD_CENTERLINE","road_type":"bridge","name_zh":"对话桥3","geometry_role":"provisional_constraint","official_boundary":false,"source_type":"agent_generated_design","confidence":"low"},"geometry":{"type":"LineString","coordinates":[[116.342,39.947],[116.355,39.947]]}}]}