{
  "type": "FeatureCollection",
  "name": "jingzhang_gravity_green_space",
  "metadata": {
    "coordinate_reference_system": "EPSG:4326",
    "area_calculation_crs": "EPSG:4548",
    "design_status": "conceptual_reference_scheme",
    "boundary_status": "provisional_rough"
  },
  "features": [
    {
      "type": "Feature",
      "id": "GREEN-001",
      "properties": {
        "id": "GREEN-001",
        "layer": "GREEN_SPACE",
        "source_type": "agent_generated_design",
        "confidence": "medium",
        "geometry_role": "design_proposal",
        "land_use_code": "1401",
        "name_zh": "京张连续创新绿脉与三磁极花园",
        "name_en": "Continuous innovation greenway and three magnet gardens",
        "area_sqm_declared": 1854727.525
      },
      "geometry": {
        "type": "Polygon",
        "coordinates": [
          [
            [
              116.35042363635145,
              39.94614159409735
            ],
            [
              116.35030409287641,
              39.945985517492424
            ],
            [
              116.35016524974016,
              39.94583921093443
            ],
            [
              116.35000844413514,
              39.945704083369996
            ],
            [
              116.34983518620737,
              39.94558143608284
            ],
            [
              116.34964714451216,
              39.945472450164274
            ],
            [
              116.34944612994533,
              39.94537817514136
            ],
            [
              116.34923407830527,
              39.94529951887189
            ],
            [
              116.34901303165329,
              39.945237238803706
            ],
            [
              116.34878511865173,
              39.945191934682136
            ],
            [
              116.34855253406904,
              39.9451640427758
            ],
            [
              116.34834167058,
              39.94515488110609
            ],
            [
              116.34821241245756,
              39.93998648367465
            ],
            [
              116.34638758728113,
              39.94001350914164
            ],
            [
              116.34653106066176,
              39.94575637174651
            ],
            [
              116.3464569777579,
              39.945818365982454
            ],
            [
              116.3463153732083,
              39.94596309601946
            ],
            [
              116.34619288083306,
              39.9461178120111
            ],
            [
              116.3460906803825,
              39.94628102401999
            ],
            [
              116.34600975621473,
              39.94645116028032
            ],
            [
              116.34595694057784,
              39.946608545728054
            ],
            [
              116.3432723435165,
              39.94659336938581
            ],
            [
              116.34326510981352,
              39.94734984723475
            ],
            [
              116.3459497364399,
              39.94736502398141
            ],
            [
              116.34599954971961,
              39.9475229883711
            ],
            [
              116.34607722675108,
              39.94769401923222
            ],
            [
              116.3461763109439,
              39.947858366446404
            ],
            [
              116.34629584818222,
              39.948014447208195
            ],
            [
              116.34643468734683,
              39.948160758314685
            ],
            [
              116.34659149139793,
              39.948295890644424
            ],
            [
              116.346594565197,
              39.94829806663089
            ],
            [
              116.34688686067956,
              39.95999507251446
            ],
            [
              116.34608604145251,
              39.97850831079445
            ],
            [
              116.34666962725439,
              39.98638873180517
            ],
            [
              116.34642174119405,
              39.98645538620345
            ],
            [
              116.34616640180356,
              39.986546526948935
            ],
            [
              116.34592390460665,
              39.98665648023931
            ],
            [
              116.34569658485532,
              39.98678418724991
            ],
            [
              116.34548663168118,
              39.986928418186054
            ],
            [
              116.34529606701605,
              39.98708778412314
            ],
            [
              116.3451267261208,
              39.9872607503789
            ],
            [
              116.34498023991014,
              39.987445651289505
            ],
            [
              116.34485801924333,
              39.98764070624702
            ],
            [
              116.34476124133236,
              39.98784403684438
            ],
            [
              116.34469083839855,
              39.98805368496228
            ],
            [
              116.34468027185959,
              39.9881058348219
            ],
            [
              116.3424693108322,
              39.98809331300773
            ],
            [
              116.34246205763817,
              39.988849785302726
            ],
            [
              116.34467304305034,
              39.988862307450475
            ],
            [
              116.34468261194567,
              39.988914571148136
            ],
            [
              116.34474900205775,
              39.989124992605944
            ],
            [
              116.34484188649422,
              39.98932939530026
            ],
            [
              116.34496037093268,
              39.989525810661334
            ],
            [
              116.34510331447356,
              39.98971234702761
            ],
            [
              116.345269340621,
              39.98988720786629
            ],
            [
              116.34545685053433,
              39.99004870907823
            ],
            [
              116.34566403842263,
              39.99019529522026
            ],
            [
              116.34588890893427,
              39.990325554488926
            ],
            [
              116.34612929637399,
              39.99043823232045
            ],
            [
              116.3463828855623,
              39.99053224347675
            ],
            [
              116.3466472341365,
              39.99060668250024
            ],
            [
              116.3469197960781,
              39.99066083243687
            ],
            [
              116.34698664314182,
              39.99066884484458
            ],
            [
              116.34708750346475,
              39.992030483443045
            ],
            [
              116.34778635554132,
              40.010007125273575
            ],
            [
              116.34771441255612,
              40.015757758795495
            ],
            [
              116.34759738205261,
              40.015789214451864
            ],
            [
              116.34738364015476,
              40.01586547617344
            ],
            [
              116.34718064865098,
              40.01595747892466
            ],
            [
              116.34699036237026,
              40.01606433672878
            ],
            [
              116.3468146138161,
              40.01618502055237
            ],
            [
              116.34665509552073,
              40.01631836821303
            ],
            [
              116.34651334374581,
              40.016463095569165
            ],
            [
              116.34639072368712,
              40.01661780888428
            ],
            [
              116.34628841632481,
              40.01678101824695
            ],
            [
              116.34620740704703,
              40.016951151917
            ],
            [
              116.34615453534701,
              40.017108535113415
            ],
            [
              116.34346717767829,
              40.01709334122137
            ],
            [
              116.3434599280553,
              40.017849809871066
            ],
            [
              116.34614731539341,
              40.017865004167824
            ],
            [
              116.34619717814607,
              40.018022966974094
            ],
            [
              116.3462749331614,
              40.01819399627687
            ],
            [
              116.34637411742894,
              40.01835834215409
            ],
            [
              116.34649377586936,
              40.01851442181305
            ],
            [
              116.3466327561966,
              40.01866073206136
            ],
            [
              116.34678972001157,
              40.01879586378563
            ],
            [
              116.34696315568937,
              40.0189185155247
            ],
            [
              116.34715139293625,
              40.01902750600601
            ],
            [
              116.34735261887607,
              40.01912178552453
            ],
            [
              116.34756489551094,
              40.019200446054604
            ],
            [
              116.347670960467,
              40.01923029996132
            ],
            [
              116.34758631582298,
              40.02599324387648
            ],
            [
              116.34941368445475,
              40.0260067489204
            ],
            [
              116.34949899028732,
              40.01917640903686
            ],
            [
              116.34961641273668,
              40.01913451303831
            ],
            [
              116.34981941049897,
              40.01904250611961
            ],
            [
              116.35000970076507,
              40.01893564375548
            ],
            [
              116.35018545087834,
              40.01881495515459
            ],
            [
              116.3503449682467,
              40.01868160268289
            ],
            [
              116.35048671664399,
              40.018536870666885
            ],
            [
              116.35060933100438,
              40.01838215302214
            ],
            [
              116.35071163056656,
              40.01821893982644
            ],
            [
              116.35079263024224,
              40.01804880296733
            ],
            [
              116.35084549207012,
              40.017891417600865
            ],
            [
              116.35353288498536,
              40.01790644064318
            ],
            [
              116.35354002340011,
              40.017149970485114
            ],
            [
              116.35085266015456,
              40.01713494784294
            ],
            [
              116.35080278725862,
              40.01697698693523
            ],
            [
              116.35072502223824,
              40.016805960555594
            ],
            [
              116.35062582967964,
              40.01664161829313
            ],
            [
              116.35050616498074,
              40.01648554280161
            ],
            [
              116.35036718066814,
              40.01633923711332
            ],
            [
              116.35021021529404,
              40.01620411016637
            ],
            [
              116.35003678054329,
              40.01608146323833
            ],
            [
              116.34984854667397,
              40.01597247741689
            ],
            [
              116.34964732643249,
              40.015878202228
            ],
            [
              116.34954066646088,
              40.015838679205174
            ],
            [
              116.34961364436609,
              40.00999286752165
            ],
            [
              116.34891249582105,
              39.99196950936593
            ],
            [
              116.34880102114589,
              39.990465112789785
            ],
            [
              116.3488336736304,
              39.990453457659434
            ],
            [
              116.34907617975416,
              39.99034349842301
            ],
            [
              116.3493035051904,
              39.990215784906155
            ],
            [
              116.34951346058902,
              39.9900715471536
            ],
            [
              116.34970402393277,
              39.98991217435186
            ],
            [
              116.34987336001153,
              39.98973920144703
            ],
            [
              116.35001983809569,
              39.9895542943585
            ],
            [
              116.35014204763826,
              39.98935923393153
            ],
            [
              116.35023881185477,
              39.98915589878345
            ],
            [
              116.35030919905014,
              39.98894624720841
            ],
            [
              116.35031976145355,
              39.9888940968099
            ],
            [
              116.35253075175322,
              39.988906469081236
            ],
            [
              116.35253789390018,
              39.98814999527618
            ],
            [
              116.35032692798548,
              39.988137623334445
            ],
            [
              116.35031735488249,
              39.988085360062215
            ],
            [
              116.35025094860421,
              39.9878749416277
            ],
            [
              116.35015804989759,
              39.98767054310384
            ],
            [
              116.35003955363337,
              39.98747413290011
            ],
            [
              116.34989660116565,
              39.987287602479896
            ],
            [
              116.3497305693333,
              39.987112748147474
            ],
            [
              116.34954305719548,
              39.98695125375196
            ],
            [
              116.34933587062855,
              39.98680467447455
            ],
            [
              116.3491110049334,
              39.98667442185496
            ],
            [
              116.3488706256202,
              39.98656175020138
            ],
            [
              116.34861704755613,
              39.98646774451451
            ],
            [
              116.34850245002232,
              39.986435474909165
            ],
            [
              116.34791395842385,
              39.97849168199694
            ],
            [
              116.34871313954916,
              39.96000492029351
            ],
            [
              116.34843387405658,
              39.948841296154505
            ],
            [
              116.3485176784442,
              39.94883859939028
            ],
            [
              116.34875077963258,
              39.94881332386643
            ],
            [
              116.34897953923291,
              39.94877058459063
            ],
            [
              116.34920175400254,
              39.94871079319592
            ],
            [
              116.34941528374812,
              39.94863452554807
            ],
            [
              116.34961807194254,
              39.94854251619817
            ],
            [
              116.34980816553484,
              39.948435651306426
            ],
            [
              116.34998373376261,
              39.94831496010564
            ],
            [
              116.35014308578549,
              39.94818160498671
            ],
            [
              116.35028468696967,
              39.9480368703014
            ],
            [
              116.35040717366685,
              39.94788214999084
            ],
            [
              116.35050936634498,
              39.947718934158345
            ],
            [
              116.35059028094462,
              39.94754879471667
            ],
            [
              116.3506430867442,
              39.94739140710411
            ],
            [
              116.3533277189332,
              39.947406413021056
            ],
            [
              116.35333484181908,
              39.94664993366477
            ],
            [
              116.35065023919539,
              39.9466349281477
            ],
            [
              116.35060041580793,
              39.94647696565156
            ],
            [
              116.35052272880644,
              39.946305937706015
            ],
            [
              116.35042363635145,
              39.94614159409735
            ]
          ]
        ]
      }
    }
  ]
}
