{
  "type": "FeatureCollection",
  "name": "jingzhang_gravity_public_space",
  "metadata": {
    "coordinate_reference_system": "EPSG:4326",
    "area_calculation_crs": "EPSG:4548",
    "design_status": "conceptual_reference_scheme",
    "boundary_status": "provisional_rough"
  },
  "features": [
    {
      "type": "Feature",
      "id": "PUBLIC-001",
      "properties": {
        "id": "PUBLIC-001",
        "layer": "PUBLIC_SPACE",
        "source_type": "agent_generated_design",
        "confidence": "medium",
        "geometry_role": "design_proposal",
        "name_zh": "?→0→! 公共创新旅程",
        "name_en": "?→0→! public innovation journey",
        "area_sqm_declared": 801393.755
      },
      "geometry": {
        "type": "Polygon",
        "coordinates": [
          [
            [
              116.34943847640422,
              39.94664451005801
            ],
            [
              116.34938772276422,
              39.94656033361287
            ],
            [
              116.34932649395846,
              39.946480391417886
            ],
            [
              116.34925537967742,
              39.94640545334435
            ],
            [
              116.34917506480544,
              39.9463362410697
            ],
            [
              116.34908632282459,
              39.94627342112801
            ],
            [
              116.3489900083651,
              39.9462175984915
            ],
            [
              116.34888704897519,
              39.94616931074512
            ],
            [
              116.3487784361886,
              39.94612902290997
            ],
            [
              116.34866521597645,
              39.94609712296544
            ],
            [
              116.34854847867521,
              39.946073918113484
            ],
            [
              116.3484293484873,
              39.94605963182032
            ],
            [
              116.34830897265626,
              39.9460544016649
            ],
            [
              116.34818851041975,
              39.94605827801406
            ],
            [
              116.34806912184726,
              39.94607122353756
            ],
            [
              116.34795195667009,
              39.94609311356757
            ],
            [
              116.34785088603766,
              39.94612030859978
            ],
            [
              116.34769771828287,
              39.939994109151634
            ],
            [
              116.34690228166748,
              39.9400058894834
            ],
            [
              116.34707239523442,
              39.946812969160256
            ],
            [
              116.34327044900166,
              39.94679149454639
            ],
            [
              116.3432670043812,
              39.94715172209351
            ],
            [
              116.34708140001233,
              39.9471732669815
            ],
            [
              116.34740196488349,
              39.95999785300592
            ],
            [
              116.3466016078278,
              39.978503623540256
            ],
            [
              116.34726314369166,
              39.98743560474291
            ],
            [
              116.34723600126462,
              39.98743854570775
            ],
            [
              116.34710201696582,
              39.98746356108273
            ],
            [
              116.34697186529077,
              39.98749855778643
            ],
            [
              116.34684679962194,
              39.9875431987959
            ],
            [
              116.34672802436928,
              39.98759705421163
            ],
            [
              116.34661668337255,
              39.987659605397056
            ],
            [
              116.34651384888676,
              39.987730249972536
            ],
            [
              116.34642051125657,
              39.98780830761573
            ],
            [
              116.34633756937889,
              39.987893026612596
            ],
            [
              116.34626582204602,
              39.987983591095855
            ],
            [
              116.34620596025205,
              39.988079128901326
            ],
            [
              116.34615856053718,
              39.98817871996667
            ],
            [
              116.34612407943392,
              39.98828140519115
            ],
            [
              116.34611786305257,
              39.98831208852223
            ],
            [
              116.34246741121267,
              39.988291436713716
            ],
            [
              116.34246395731074,
              39.988651661616096
            ],
            [
              116.3461144283225,
              39.9886723136866
            ],
            [
              116.34612005897475,
              39.988703063851545
            ],
            [
              116.34615257860072,
              39.988806127045045
            ],
            [
              116.34619807480175,
              39.9889062421294
            ],
            [
              116.3462561094739,
              39.989002444927195
            ],
            [
              116.34632612375235,
              39.989093808935095
            ],
            [
              116.34640744339221,
              39.98917945424722
            ],
            [
              116.3464992852605,
              39.9892585560299
            ],
            [
              116.34660076487754,
              39.98933035246622
            ],
            [
              116.34671090493455,
              39.98939415209349
            ],
            [
              116.34682864470598,
              39.98944934046347
            ],
            [
              116.34695285026537,
              39.98949538606065
            ],
            [
              116.34708232540686,
              39.989531845421865
            ],
            [
              116.34721582316674,
              39.9895583674078
            ],
            [
              116.34735205783424,
              39.9895746965853
            ],
            [
              116.34742182069208,
              39.98957772668565
            ],
            [
              116.34760224518782,
              39.99201328853877
            ],
            [
              116.3483017447345,
              40.010003106774256
            ],
            [
              116.34821950719427,
              40.01658045043725
            ],
            [
              116.34815160875804,
              40.01659312226629
            ],
            [
              116.34803767791898,
              40.01662374488362
            ],
            [
              116.3479281993258,
              40.01666280621691
            ],
            [
              116.34782422728594,
              40.016709930097896
            ],
            [
              116.34772676308324,
              40.016764662713534
            ],
            [
              116.34763674533627,
              40.016826476976064
            ],
            [
              116.34755504095925,
              40.01689477759839
            ],
            [
              116.34748243681346,
              40.016968906826335
            ],
            [
              116.3474196321293,
              40.017048150772524
            ],
            [
              116.34736723177171,
              40.017131746290815
            ],
            [
              116.34732574041428,
              40.01721888832512
            ],
            [
              116.34729555767767,
              40.01730873766208
            ],
            [
              116.34729467436337,
              40.017313095981805
            ],
            [
              116.343465278994,
              40.01729146397263
            ],
            [
              116.34346182679258,
              40.01765168713916
            ],
            [
              116.34729124229423,
              40.017673319422705
            ],
            [
              116.34729204247397,
              40.01767768722432
            ],
            [
              116.3473205102013,
              40.01776786689113
            ],
            [
              116.34736033719084,
              40.017855466900585
            ],
            [
              116.34741113992472,
              40.01793964360566
            ],
            [
              116.34747242917615,
              40.01801958632501
            ],
            [
              116.3475436147198,
              40.0180945251508
            ],
            [
              116.34762401101501,
              40.018163738363974
            ],
            [
              116.34771284380739,
              40.01822655938539
            ],
            [
              116.34780925758514,
              40.01828238319608
            ],
            [
              116.34791232381805,
              40.018330672164666
            ],
            [
              116.34802104990048,
              40.01837096122556
            ],
            [
              116.34813438871133,
              40.01840286235866
            ],
            [
              116.34819656256799,
              40.01841520881259
            ],
            [
              116.34810172737588,
              40.02599705590866
            ],
            [
              116.34889827267692,
              40.02600294272269
            ],
            [
              116.34899371990603,
              40.01836505481136
            ],
            [
              116.34907181454996,
              40.018337190952835
            ],
            [
              116.3491757882317,
              40.018290065978555
            ],
            [
              116.34927325347992,
              40.018235332166604
            ],
            [
              116.34936327163592,
              40.01817351665079
            ],
            [
              116.34944497576976,
              40.01810521476632
            ],
            [
              116.34951757902944,
              40.01803108431589
            ],
            [
              116.34958038221869,
              40.01795183923383
            ],
            [
              116.34963278052996,
              40.017868242709994
            ],
            [
              116.34967426936838,
              40.01778109983905
            ],
            [
              116.34970444920998,
              40.017691249866544
            ],
            [
              116.3497053323764,
              40.01768689152754
            ],
            [
              116.35353475459625,
              40.01770831751623
            ],
            [
              116.3535381538414,
              40.017348093631426
            ],
            [
              116.34970875175398,
              40.01732666791449
            ],
            [
              116.34970795142372,
              40.0173223001281
            ],
            [
              116.34967948072284,
              40.01723212101724
            ],
            [
              116.34963965110856,
              40.017144521774675
            ],
            [
              116.34958884619957,
              40.0170603460179
            ],
            [
              116.34952755530625,
              40.01698040439185
            ],
            [
              116.34945636871707,
              40.016905466762346
            ],
            [
              116.34937597201284,
              40.01683625480247
            ],
            [
              116.34928713946366,
              40.016773435043206
            ],
            [
              116.349190726572,
              40.016717612455
            ],
            [
              116.349087661834,
              40.01666932462227
            ],
            [
              116.34901524147963,
              40.01664248903424
            ],
            [
              116.3490982552479,
              40.00999689185678
            ],
            [
              116.34839775467648,
              39.99198671009487
            ],
            [
              116.34820845598104,
              39.98943175137713
            ],
            [
              116.34827199586887,
              39.98940294066947
            ],
            [
              116.34838333822943,
              39.989340387923185
            ],
            [
              116.34848617324887,
              39.989269741712455
            ],
            [
              116.34857951056208,
              39.98919168242242
            ],
            [
              116.34866245128427,
              39.989106961830444
            ],
            [
              116.34873419666758,
              39.98901639586509
            ],
            [
              116.34879405579287,
              39.9889208567475
            ],
            [
              116.34884145222242,
              39.988821264590456
            ],
            [
              116.34887592955002,
              39.9887185785366
            ],
            [
              116.34888214473862,
              39.98868789505014
            ],
            [
              116.35253262234163,
              39.988708344999125
            ],
            [
              116.352536023364,
              39.98834811937766
            ],
            [
              116.34888556493296,
              39.98832766968812
            ],
            [
              116.34887993306732,
              39.98829691964583
            ],
            [
              116.34884740956309,
              39.98819385717761
            ],
            [
              116.34880190993863,
              39.98809374309374
            ],
            [
              116.3487438724295,
              39.987997541533204
            ],
            [
              116.34867385600948,
              39.98790617895175
            ],
            [
              116.34859253500584,
              39.98782053520049
            ],
            [
              116.34850069260388,
              39.98774143505305
            ],
            [
              116.34839921330385,
              39.98766964026358
            ],
            [
              116.3482890744023,
              39.98760584223142
            ],
            [
              116.34817133658042,
              39.98755065534352
            ],
            [
              116.348066205127,
              39.98751168120199
            ],
            [
              116.34739839214868,
              39.97849637509007
            ],
            [
              116.34819803516,
              39.96000214562755
            ],
            [
              116.34789517874253,
              39.94789171954431
            ],
            [
              116.34793477427499,
              39.94790287566658
            ],
            [
              116.34805151446099,
              39.94792608115258
            ],
            [
              116.34817064779745,
              39.94794036785484
            ],
            [
              116.34829102691984,
              39.94794559817869
            ],
            [
              116.34841149246397,
              39.94794172175086
            ],
            [
              116.34853088423321,
              39.947928775904565
            ],
            [
              116.34864805237349,
              39.94790688532007
            ],
            [
              116.34876186844893,
              39.947876260823605
            ],
            [
              116.34887123631084,
              39.94783719735689
            ],
            [
              116.34897510265569,
              39.947790071136026
            ],
            [
              116.34907246717026,
              39.94773533602801
            ],
            [
              116.34916239216601,
              39.94767351917905
            ],
            [
              116.34924401161027,
              39.94760521593718
            ],
            [
              116.34931653946661,
              39.94753108411809
            ],
            [
              116.34937927726486,
              39.94745183766929
            ],
            [
              116.34943162082715,
              39.94736823979371
            ],
            [
              116.34947306608579,
              39.94728109559903
            ],
            [
              116.34950321393639,
              39.94719124434352
            ],
            [
              116.34950409614767,
              39.94718688594603
            ],
            [
              116.35332958447697,
              39.94720828748503
            ],
            [
              116.35333297632738,
              39.94684805922014
            ],
            [
              116.34950750805972,
              39.94682665795272
            ],
            [
              116.34950670850374,
              39.94682229011867
            ],
            [
              116.34947826606201,
              39.946732110101706
            ],
            [
              116.34943847640422,
              39.94664451005801
            ]
          ]
        ]
      }
    }
  ]
}
